name,source,postalcode,layer,lat,lon
ADAD,geonames2d,AD,postalcode,42.5357,1.5571
AR36,geonames2d,36,postalcode,-25.0178,-59.6472
AR41,geonames2d,41,postalcode,-26.883,-65.1956
AR44,geonames2d,44,postalcode,-25.0513,-65.2488
AR45,geonames2d,45,postalcode,-23.5455,-64.0472
AR46,geonames2d,46,postalcode,-23.2252,-65.5236
AR16,geonames2d,16,postalcode,-34.3805,-58.6098
AR17,geonames2d,17,postalcode,-34.6874,-58.706
AR18,geonames2d,18,postalcode,-34.7992,-58.3572
AR19,geonames2d,19,postalcode,-35.0643,-57.9233
AR21,geonames2d,21,postalcode,-33.0442,-60.9552
AR23,geonames2d,23,postalcode,-30.1916,-62.0732
AR27,geonames2d,27,postalcode,-33.9745,-60.4605
AR28,geonames2d,28,postalcode,-33.353,-58.9667
AR29,geonames2d,29,postalcode,-33.5076,-60.0949
AR34,geonames2d,34,postalcode,-28.505,-58.4568
AR37,geonames2d,37,postalcode,-27.0117,-61.9746
AR60,geonames2d,60,postalcode,-34.6482,-61.4465
AR61,geonames2d,61,postalcode,-34.1366,-63.3783
AR62,geonames2d,62,postalcode,-34.9304,-64.9266
AR63,geonames2d,63,postalcode,-36.4491,-64.4597
AR64,geonames2d,64,postalcode,-36.2346,-62.3748
AR65,geonames2d,65,postalcode,-35.8157,-61.1834
AR66,geonames2d,66,postalcode,-35.0014,-59.9141
AR67,geonames2d,67,postalcode,-34.5117,-59.5302
AR70,geonames2d,70,postalcode,-37.5655,-59.2511
AR71,geonames2d,71,postalcode,-36.4392,-57.5338
AR72,geonames2d,72,postalcode,-35.7926,-59.2181
AR73,geonames2d,73,postalcode,-36.7756,-59.9228
AR74,geonames2d,74,postalcode,-37.1107,-60.5832
AR75,geonames2d,75,postalcode,-38.097,-60.8186
AR76,geonames2d,76,postalcode,-38.1143,-58.0135
AR80,geonames2d,80,postalcode,-38.7042,-62.2458
AR81,geonames2d,81,postalcode,-38.5711,-62.8084
AR85,geonames2d,85,postalcode,-40.698,-64.5787
AR47,geonames2d,47,postalcode,-28.1125,-65.9435
AR52,geonames2d,52,postalcode,-30.135,-64.3497
AR54,geonames2d,54,postalcode,-31.2407,-68.087
AR55,geonames2d,55,postalcode,-33.1056,-68.6131
AR57,geonames2d,57,postalcode,-32.9226,-66.0015
AR58,geonames2d,58,postalcode,-32.4364,-64.7344
AR20,geonames2d,20,postalcode,-32.9541,-60.6784
AR31,geonames2d,31,postalcode,-31.3236,-59.5417
AR32,geonames2d,32,postalcode,-31.3999,-58.2359
AR33,geonames2d,33,postalcode,-27.5545,-55.5495
AR38,geonames2d,38,postalcode,-32.7,-58.7667
AR53,geonames2d,53,postalcode,-28.9949,-67.0848
AR30,geonames2d,30,postalcode,-30.5192,-60.9984
AR42,geonames2d,42,postalcode,-28.0851,-64.7344
AR43,geonames2d,43,postalcode,-27.7237,-63.7086
AR51,geonames2d,51,postalcode,-31.3773,-64.15
AR35,geonames2d,35,postalcode,-27.7401,-59.6012
AR56,geonames2d,56,postalcode,-35.1335,-68.3106
AR82,geonames2d,82,postalcode,-37.6313,-64.6204
AR83,geonames2d,83,postalcode,-38.7119,-69.431
AR84,geonames2d,84,postalcode,-41.1484,-70.3743
AR91,geonames2d,91,postalcode,-43.0031,-65.9165
AR22,geonames2d,22,postalcode,-32.2786,-60.997
AR24,geonames2d,24,postalcode,-31.3514,-62.2957
AR25,geonames2d,25,postalcode,-32.5924,-62.2073
AR26,geonames2d,26,postalcode,-33.5383,-62.4129
AR40,geonames2d,40,postalcode,-26.8083,-65.2333
AR90,geonames2d,90,postalcode,-46.0827,-68.3885
AR92,geonames2d,92,postalcode,-43.4333,-70.6679
AR94,geonames2d,94,postalcode,-51.3889,-70.3669
AR50,geonames2d,50,postalcode,-31.4059,-64.1887
AR59,geonames2d,59,postalcode,-32.0557,-63.3171
AR93,geonames2d,93,postalcode,-49.2199,-70.2268
AS96,geonames2d,96,postalcode,-14.2781,-170.7025
AT70,geonames2d,70,postalcode,47.8131,16.5321
AT24,geonames2d,24,postalcode,48.0028,16.6479
AT75,geonames2d,75,postalcode,47.1207,16.291
AT82,geonames2d,82,postalcode,47.2383,15.9093
AT83,geonames2d,83,postalcode,46.9519,15.8763
AT72,geonames2d,72,postalcode,47.7438,16.3522
AT71,geonames2d,71,postalcode,47.8218,16.898
AT28,geonames2d,28,postalcode,47.5875,16.1732
AT73,geonames2d,73,postalcode,47.5419,16.4884
AT74,geonames2d,74,postalcode,47.3536,16.2995
AT90,geonames2d,90,postalcode,46.6352,14.3073
AT92,geonames2d,92,postalcode,46.6208,14.0327
AT95,geonames2d,95,postalcode,46.7132,14.0092
AT96,geonames2d,96,postalcode,46.6371,13.2575
AT91,geonames2d,91,postalcode,46.6061,14.5594
AT88,geonames2d,88,postalcode,47.1235,14.2352
AT93,geonames2d,93,postalcode,46.8593,14.3647
AT97,geonames2d,97,postalcode,46.7401,13.3764
AT98,geonames2d,98,postalcode,46.9023,13.3523
AT94,geonames2d,94,postalcode,46.8034,14.8506
AT35,geonames2d,35,postalcode,48.5312,15.5028
AT31,geonames2d,31,postalcode,48.1771,15.6561
AT33,geonames2d,33,postalcode,48.09,15.048
AT32,geonames2d,32,postalcode,48.0641,15.2687
AT27,geonames2d,27,postalcode,47.8309,16.0508
AT43,geonames2d,43,postalcode,48.2582,14.716
AT44,geonames2d,44,postalcode,48.0907,14.4275
AT25,geonames2d,25,postalcode,47.9923,16.1154
AT26,geonames2d,26,postalcode,47.7124,15.961
AT30,geonames2d,30,postalcode,48.1822,15.8775
AT13,geonames2d,13,postalcode,48.15,16.5167
AT23,geonames2d,23,postalcode,48.1208,16.3924
AT21,geonames2d,21,postalcode,48.5562,16.48
AT22,geonames2d,22,postalcode,48.3866,16.7189
AT38,geonames2d,38,postalcode,48.8596,15.2792
AT39,geonames2d,39,postalcode,48.6312,15.023
AT20,geonames2d,20,postalcode,48.6427,16.0171
AT34,geonames2d,34,postalcode,48.3528,15.9306
AT37,geonames2d,37,postalcode,48.6412,15.7765
AT12,geonames2d,12,postalcode,48.2367,16.3854
AT36,geonames2d,36,postalcode,48.3271,15.2311
AT86,geonames2d,86,postalcode,47.5328,15.4506
AT11,geonames2d,11,postalcode,48.2035,16.2963
AT89,geonames2d,89,postalcode,47.5295,14.1071
AT40,geonames2d,40,postalcode,48.3431,14.0097
AT46,geonames2d,46,postalcode,48.1191,13.8728
AT49,geonames2d,49,postalcode,48.2019,13.4381
AT51,geonames2d,51,postalcode,48.0657,12.968
AT52,geonames2d,52,postalcode,48.1012,13.177
AT47,geonames2d,47,postalcode,48.3397,13.6922
AT41,geonames2d,41,postalcode,48.5171,14.0144
AT42,geonames2d,42,postalcode,48.4228,14.5215
AT48,geonames2d,48,postalcode,47.9577,13.5481
AT53,geonames2d,53,postalcode,47.7933,13.3114
AT45,geonames2d,45,postalcode,47.9614,14.2169
AT50,geonames2d,50,postalcode,47.7089,12.921
AT54,geonames2d,54,postalcode,47.6031,13.2122
AT55,geonames2d,55,postalcode,47.288,13.5212
AT56,geonames2d,56,postalcode,47.2707,13.0619
AT57,geonames2d,57,postalcode,47.3369,12.6186
AT80,geonames2d,80,postalcode,47.0232,15.5337
AT81,geonames2d,81,postalcode,47.1759,15.4448
AT84,geonames2d,84,postalcode,46.7773,15.5694
AT85,geonames2d,85,postalcode,46.8747,15.2489
AT87,geonames2d,87,postalcode,47.289,14.7523
AT60,geonames2d,60,postalcode,47.2509,11.4179
AT61,geonames2d,61,postalcode,47.2246,11.4313
AT64,geonames2d,64,postalcode,47.2074,10.9409
AT63,geonames2d,63,postalcode,47.5422,12.2243
AT62,geonames2d,62,postalcode,47.3461,11.8544
AT65,geonames2d,65,postalcode,47.0779,10.5158
AT99,geonames2d,99,postalcode,46.872,12.5877
AT66,geonames2d,66,postalcode,47.4091,10.5899
AT67,geonames2d,67,postalcode,47.1831,9.9059
AT68,geonames2d,68,postalcode,47.3122,9.7561
AT69,geonames2d,69,postalcode,47.4836,9.8449
AT10,geonames2d,10,postalcode,48.2051,16.3653
AU02,geonames2d,02,postalcode,-35.2913,149.13
AU25,geonames2d,25,postalcode,-34.9768,150.1885
AU26,geonames2d,26,postalcode,-35.3777,148.1375
AU29,geonames2d,29,postalcode,-35.3166,149.1083
AU10,geonames2d,10,postalcode,-33.8678,151.2073
AU11,geonames2d,11,postalcode,-33.8678,151.2073
AU12,geonames2d,12,postalcode,-33.8716,151.2066
AU13,geonames2d,13,postalcode,-33.8781,151.2298
AU14,geonames2d,14,postalcode,-33.947,151.1514
AU15,geonames2d,15,postalcode,-33.8193,151.1909
AU16,geonames2d,16,postalcode,-33.7579,151.1872
AU17,geonames2d,17,postalcode,-33.7648,151.0311
AU18,geonames2d,18,postalcode,-33.8873,151.0085
AU19,geonames2d,19,postalcode,-33.8816,150.9844
AU20,geonames2d,20,postalcode,-33.8258,151.2048
AU21,geonames2d,21,postalcode,-33.8192,151.034
AU22,geonames2d,22,postalcode,-33.418,151.3874
AU23,geonames2d,23,postalcode,-31.5393,151.1129
AU24,geonames2d,24,postalcode,-30.099,152.7355
AU27,geonames2d,27,postalcode,-34.0689,148.8494
AU28,geonames2d,28,postalcode,-32.3734,148.4651
AU35,geonames2d,35,postalcode,-36.0044,143.7514
AU36,geonames2d,36,postalcode,-36.4514,145.8951
AU37,geonames2d,37,postalcode,-37.0287,146.0825
AU43,geonames2d,43,postalcode,-27.7894,152.0915
AU08,geonames2d,08,postalcode,-16.1729,132.329
AU09,geonames2d,09,postalcode,-12.4105,130.88
AU48,geonames2d,48,postalcode,-18.2579,145.5251
AU40,geonames2d,40,postalcode,-27.4262,153.0203
AU41,geonames2d,41,postalcode,-27.5653,153.1173
AU42,geonames2d,42,postalcode,-27.8997,153.1744
AU44,geonames2d,44,postalcode,-26.7843,149.0044
AU45,geonames2d,45,postalcode,-26.6445,152.8629
AU46,geonames2d,46,postalcode,-25.3121,151.8802
AU47,geonames2d,47,postalcode,-22.7841,149.0652
AU90,geonames2d,90,postalcode,-27.4679,153.0281
AU94,geonames2d,94,postalcode,-33.8816,150.9844
AU97,geonames2d,97,postalcode,-33.8816,150.9844
AU99,geonames2d,99,postalcode,-20.7151,148.9316
AU50,geonames2d,50,postalcode,-34.9163,138.5921
AU51,geonames2d,51,postalcode,-34.9198,138.6522
AU52,geonames2d,52,postalcode,-35.9458,139.3913
AU53,geonames2d,53,postalcode,-34.4364,139.7679
AU54,geonames2d,54,postalcode,-33.4256,138.6445
AU55,geonames2d,55,postalcode,-34.1804,137.8849
AU56,geonames2d,56,postalcode,-33.3223,135.5103
AU57,geonames2d,57,postalcode,-30.9714,137.2392
AU58,geonames2d,58,postalcode,-34.9287,138.5986
AU59,geonames2d,59,postalcode,-34.9042,138.5758
AU70,geonames2d,70,postalcode,-42.7708,147.2652
AU71,geonames2d,71,postalcode,-42.8335,147.2225
AU72,geonames2d,72,postalcode,-41.1414,147.2116
AU73,geonames2d,73,postalcode,-41.2616,146.0182
AU74,geonames2d,74,postalcode,-41.968,145.4425
AU78,geonames2d,78,postalcode,-42.8794,147.3294
AU79,geonames2d,79,postalcode,-41.4163,147.0623
AU30,geonames2d,30,postalcode,-37.7491,144.9198
AU31,geonames2d,31,postalcode,-37.882,145.1417
AU32,geonames2d,32,postalcode,-38.2588,143.5135
AU33,geonames2d,33,postalcode,-37.4728,143.1466
AU34,geonames2d,34,postalcode,-36.7278,143.2732
AU38,geonames2d,38,postalcode,-37.9138,146.9346
AU39,geonames2d,39,postalcode,-38.3876,145.7933
AU80,geonames2d,80,postalcode,-37.8147,144.9669
AU81,geonames2d,81,postalcode,-37.814,144.9633
AU82,geonames2d,82,postalcode,-37.814,144.9633
AU83,geonames2d,83,postalcode,-37.814,144.9633
AU86,geonames2d,86,postalcode,-37.8421,145.0694
AU60,geonames2d,60,postalcode,-31.8089,115.8651
AU61,geonames2d,61,postalcode,-32.129,115.8768
AU62,geonames2d,62,postalcode,-33.5438,115.7954
AU63,geonames2d,63,postalcode,-33.5106,117.6514
AU64,geonames2d,64,postalcode,-31.3284,119.7154
AU65,geonames2d,65,postalcode,-29.7556,115.3792
AU66,geonames2d,66,postalcode,-28.534,117.1066
AU67,geonames2d,67,postalcode,-21.0004,118.3973
AU68,geonames2d,68,postalcode,-31.9493,115.8568
AU69,geonames2d,69,postalcode,-31.9816,115.8463
AX22,geonames2d,22,postalcode,60.2262,20.2956
AZAZ,geonames2d,AZ,postalcode,40.3871,47.8736
BD10,geonames2d,10,postalcode,23.729,90.4112
BD11,geonames2d,11,postalcode,23.9996,90.4222
BD12,geonames2d,12,postalcode,23.7849,90.407
BD13,geonames2d,13,postalcode,23.7387,90.2889
BD78,geonames2d,78,postalcode,23.4545,89.7981
BD17,geonames2d,17,postalcode,24.1532,90.4781
BD80,geonames2d,80,postalcode,23.2425,90.4119
BD81,geonames2d,81,postalcode,23.1791,89.8559
BD23,geonames2d,23,postalcode,24.3207,90.9307
BD79,geonames2d,79,postalcode,23.1992,90.1854
BD18,geonames2d,18,postalcode,23.849,89.9101
BD15,geonames2d,15,postalcode,23.5184,90.4005
BD14,geonames2d,14,postalcode,23.7135,90.5546
BD16,geonames2d,16,postalcode,23.9954,90.7012
BD77,geonames2d,77,postalcode,23.7325,89.5692
BD19,geonames2d,19,postalcode,24.2648,90.0078
BD93,geonames2d,93,postalcode,22.7207,89.7106
BD72,geonames2d,72,postalcode,23.6545,88.8658
BD74,geonames2d,74,postalcode,23.1452,89.1822
BD73,geonames2d,73,postalcode,23.4673,89.1332
BD90,geonames2d,90,postalcode,22.8404,89.5392
BD91,geonames2d,91,postalcode,22.8174,89.5648
BD92,geonames2d,92,postalcode,22.7917,89.4173
BD70,geonames2d,70,postalcode,23.8998,89.1085
BD76,geonames2d,76,postalcode,23.383,89.4665
BD71,geonames2d,71,postalcode,23.7431,88.685
BD75,geonames2d,75,postalcode,23.1368,89.638
BD94,geonames2d,94,postalcode,22.5918,89.1555
BD58,geonames2d,58,postalcode,24.7986,89.2818
BD59,geonames2d,59,postalcode,25.0971,89.1033
BD65,geonames2d,65,postalcode,24.9091,88.7179
BD64,geonames2d,64,postalcode,24.3288,89.0308
BD63,geonames2d,63,postalcode,24.691,88.3091
BD66,geonames2d,66,postalcode,24.1075,89.3638
BD60,geonames2d,60,postalcode,24.3644,88.6049
BD61,geonames2d,61,postalcode,24.3663,88.605
BD62,geonames2d,62,postalcode,24.5149,88.6631
BD67,geonames2d,67,postalcode,24.4117,89.5142
BD46,geonames2d,46,postalcode,21.839,92.3415
BD34,geonames2d,34,postalcode,23.9247,91.0928
BD36,geonames2d,36,postalcode,23.2507,90.754
BD40,geonames2d,40,postalcode,22.3455,91.8342
BD41,geonames2d,41,postalcode,22.2225,91.8412
BD42,geonames2d,42,postalcode,22.3948,91.8365
BD43,geonames2d,43,postalcode,22.4567,91.8314
BD35,geonames2d,35,postalcode,23.3716,91.0125
BD47,geonames2d,47,postalcode,21.298,92.1015
BD39,geonames2d,39,postalcode,22.999,91.422
BD44,geonames2d,44,postalcode,23.0222,91.9808
BD37,geonames2d,37,postalcode,23.109,90.9016
BD38,geonames2d,38,postalcode,22.9798,91.1233
BD45,geonames2d,45,postalcode,22.4922,92.2281
BD87,geonames2d,87,postalcode,22.3136,90.1012
BD82,geonames2d,82,postalcode,22.8063,90.3357
BD83,geonames2d,83,postalcode,22.3161,90.7184
BD84,geonames2d,84,postalcode,22.5867,90.1818
BD86,geonames2d,86,postalcode,22.2681,90.394
BD85,geonames2d,85,postalcode,22.5072,90.0438
BD33,geonames2d,33,postalcode,24.3713,91.4413
BD32,geonames2d,32,postalcode,24.514,91.8629
BD30,geonames2d,30,postalcode,24.8937,91.5765
BD31,geonames2d,31,postalcode,24.7905,91.886
BD52,geonames2d,52,postalcode,25.5594,88.9094
BD57,geonames2d,57,postalcode,25.4152,89.4939
BD56,geonames2d,56,postalcode,25.7193,89.6464
BD55,geonames2d,55,postalcode,26.1669,89.1228
BD53,geonames2d,53,postalcode,26.0142,88.9168
BD50,geonames2d,50,postalcode,25.9689,88.6808
BD54,geonames2d,54,postalcode,25.7066,89.2944
BD51,geonames2d,51,postalcode,25.9522,88.2003
BD20,geonames2d,20,postalcode,24.6794,89.9036
BD22,geonames2d,22,postalcode,24.6768,90.5347
BD24,geonames2d,24,postalcode,24.9138,90.7623
BD21,geonames2d,21,postalcode,25.0777,90.0946
BE10,geonames2d,10,postalcode,50.8462,4.3505
BE11,geonames2d,11,postalcode,50.8379,4.3672
BE12,geonames2d,12,postalcode,50.8483,4.3739
BE20,geonames2d,20,postalcode,51.2154,4.4052
BE21,geonames2d,21,postalcode,51.2152,4.4424
BE22,geonames2d,22,postalcode,51.1589,4.7814
BE23,geonames2d,23,postalcode,51.3712,4.8542
BE24,geonames2d,24,postalcode,51.163,5.0
BE25,geonames2d,25,postalcode,51.1326,4.5775
BE26,geonames2d,26,postalcode,51.1788,4.403
BE28,geonames2d,28,postalcode,51.061,4.3857
BE29,geonames2d,29,postalcode,51.3229,4.5516
BE15,geonames2d,15,postalcode,50.7527,4.1533
BE16,geonames2d,16,postalcode,50.7611,4.2346
BE17,geonames2d,17,postalcode,50.8665,4.1821
BE18,geonames2d,18,postalcode,50.9404,4.3882
BE19,geonames2d,19,postalcode,50.9212,4.4945
BE30,geonames2d,30,postalcode,50.8411,4.6235
BE31,geonames2d,31,postalcode,50.9736,4.6796
BE32,geonames2d,32,postalcode,50.9606,4.9167
BE33,geonames2d,33,postalcode,50.8373,4.9162
BE34,geonames2d,34,postalcode,50.8316,5.0613
BE99,geonames2d,99,postalcode,51.1875,3.601
BE35,geonames2d,35,postalcode,50.9751,5.2435
BE36,geonames2d,36,postalcode,51.005,5.6754
BE37,geonames2d,37,postalcode,50.8105,5.5345
BE38,geonames2d,38,postalcode,50.7895,5.2438
BE39,geonames2d,39,postalcode,51.1673,5.4362
BE90,geonames2d,90,postalcode,51.0578,3.7495
BE91,geonames2d,91,postalcode,51.1819,4.1607
BE92,geonames2d,92,postalcode,51.0241,4.0389
BE93,geonames2d,93,postalcode,50.9466,4.0073
BE94,geonames2d,94,postalcode,50.8638,4.001
BE95,geonames2d,95,postalcode,50.8313,3.8819
BE96,geonames2d,96,postalcode,50.845,3.7285
BE97,geonames2d,97,postalcode,50.8692,3.593
BE98,geonames2d,98,postalcode,50.9898,3.6128
BE80,geonames2d,80,postalcode,51.1544,3.2319
BE82,geonames2d,82,postalcode,51.162,3.1719
BE83,geonames2d,83,postalcode,51.2667,3.2348
BE84,geonames2d,84,postalcode,51.1849,2.948
BE85,geonames2d,85,postalcode,50.8079,3.35
BE86,geonames2d,86,postalcode,51.0304,2.773
BE87,geonames2d,87,postalcode,50.9704,3.3546
BE88,geonames2d,88,postalcode,50.9396,3.1359
BE89,geonames2d,89,postalcode,50.8339,2.8627
BE13,geonames2d,13,postalcode,50.7027,4.7701
BE14,geonames2d,14,postalcode,50.634,4.4444
BE60,geonames2d,60,postalcode,50.4203,4.4333
BE61,geonames2d,61,postalcode,50.453,4.3417
BE62,geonames2d,62,postalcode,50.441,4.523
BE64,geonames2d,64,postalcode,50.0646,4.3113
BE65,geonames2d,65,postalcode,50.2329,4.2188
BE70,geonames2d,70,postalcode,50.4639,3.9697
BE71,geonames2d,71,postalcode,50.4508,4.1721
BE73,geonames2d,73,postalcode,50.4233,3.7566
BE75,geonames2d,75,postalcode,50.5976,3.3772
BE76,geonames2d,76,postalcode,50.5395,3.4915
BE77,geonames2d,77,postalcode,50.7173,3.2198
BE78,geonames2d,78,postalcode,50.6535,3.8264
BE79,geonames2d,79,postalcode,50.5535,3.7459
BE40,geonames2d,40,postalcode,50.6367,5.5934
BE41,geonames2d,41,postalcode,50.4963,5.563
BE42,geonames2d,42,postalcode,50.6426,5.1096
BE43,geonames2d,43,postalcode,50.6847,5.3511
BE44,geonames2d,44,postalcode,50.6526,5.4835
BE45,geonames2d,45,postalcode,50.5144,5.3109
BE46,geonames2d,46,postalcode,50.6806,5.7047
BE47,geonames2d,47,postalcode,50.4253,6.1333
BE48,geonames2d,48,postalcode,50.6233,5.8803
BE49,geonames2d,49,postalcode,50.4131,5.8614
BE66,geonames2d,66,postalcode,50.0814,5.7445
BE67,geonames2d,67,postalcode,49.64,5.6574
BE68,geonames2d,68,postalcode,49.8391,5.2516
BE69,geonames2d,69,postalcode,50.2043,5.4078
BE50,geonames2d,50,postalcode,50.4864,4.7651
BE51,geonames2d,51,postalcode,50.4357,4.808
BE53,geonames2d,53,postalcode,50.4374,5.0836
BE55,geonames2d,55,postalcode,50.1475,4.9663
BE56,geonames2d,56,postalcode,50.19,4.5686
BG85,geonames2d,85,postalcode,42.8087,27.2453
BG80,geonames2d,80,postalcode,42.5,27.4667
BG81,geonames2d,81,postalcode,42.4506,27.4031
BG83,geonames2d,83,postalcode,42.2336,27.2126
BG84,geonames2d,84,postalcode,42.7075,26.9016
BG82,geonames2d,82,postalcode,42.5275,27.6936
BG27,geonames2d,27,postalcode,41.9256,23.3295
BG29,geonames2d,29,postalcode,41.5708,23.8394
BG28,geonames2d,28,postalcode,41.5192,23.232
BG42,geonames2d,42,postalcode,41.9949,24.939
BG96,geonames2d,96,postalcode,43.5249,28.2982
BG95,geonames2d,95,postalcode,43.7195,28.0825
BG93,geonames2d,93,postalcode,43.5717,27.7612
BG94,geonames2d,94,postalcode,43.7804,27.5738
BG98,geonames2d,98,postalcode,43.1217,26.8865
BG56,geonames2d,56,postalcode,42.9078,24.7402
BG75,geonames2d,75,postalcode,43.9789,27.2926
BG53,geonames2d,53,postalcode,42.8935,25.4215
BG54,geonames2d,54,postalcode,42.9503,25.0656
BG63,geonames2d,63,postalcode,41.8157,25.5747
BG64,geonames2d,64,postalcode,41.9244,25.7929
BG50,geonames2d,50,postalcode,42.9334,25.8051
BG65,geonames2d,65,postalcode,41.7869,26.1849
BG69,geonames2d,69,postalcode,41.4649,25.7869
BG68,geonames2d,68,postalcode,41.4442,25.367
BG87,geonames2d,87,postalcode,42.1212,26.6199
BG86,geonames2d,86,postalcode,42.4116,26.5585
BG26,geonames2d,26,postalcode,42.2251,23.0477
BG36,geonames2d,36,postalcode,43.7005,23.2408
BG25,geonames2d,25,postalcode,42.3266,22.6592
BG67,geonames2d,67,postalcode,41.6618,25.2396
BG99,geonames2d,99,postalcode,43.4649,27.1877
BG37,geonames2d,37,postalcode,43.9559,22.764
BG41,geonames2d,41,postalcode,42.2531,24.8204
BG66,geonames2d,66,postalcode,41.6943,25.4147
BG55,geonames2d,55,postalcode,43.1377,24.7386
BG57,geonames2d,57,postalcode,43.0448,24.2216
BG35,geonames2d,35,postalcode,43.2569,23.2071
BG34,geonames2d,34,postalcode,43.438,23.1457
BG45,geonames2d,45,postalcode,42.2448,24.2798
BG44,geonames2d,44,postalcode,42.231,24.2215
BG46,geonames2d,46,postalcode,41.98,23.8966
BG48,geonames2d,48,postalcode,41.7199,24.537
BG43,geonames2d,43,postalcode,42.5843,24.7736
BG40,geonames2d,40,postalcode,42.1834,24.6916
BG23,geonames2d,23,postalcode,42.6845,22.9168
BG24,geonames2d,24,postalcode,42.6387,22.744
BG59,geonames2d,59,postalcode,43.5115,24.7839
BG58,geonames2d,58,postalcode,43.4376,24.566
BG32,geonames2d,32,postalcode,43.4256,23.9122
BG72,geonames2d,72,postalcode,43.5116,26.5442
BG73,geonames2d,73,postalcode,43.8257,26.5096
BG74,geonames2d,74,postalcode,43.671,26.85
BG71,geonames2d,71,postalcode,43.5172,25.786
BG70,geonames2d,70,postalcode,43.7879,26.1286
BG79,geonames2d,79,postalcode,43.0797,26.3086
BG21,geonames2d,21,postalcode,42.8099,23.7878
BG22,geonames2d,22,postalcode,42.934,23.0989
BG20,geonames2d,20,postalcode,42.4752,23.7541
BG97,geonames2d,97,postalcode,43.4553,26.9241
BG76,geonames2d,76,postalcode,43.8866,26.92
BG88,geonames2d,88,postalcode,42.6602,26.2682
BG89,geonames2d,89,postalcode,42.6043,26.1854
BG47,geonames2d,47,postalcode,41.5341,24.7388
BG49,geonames2d,49,postalcode,41.5164,24.9738
BG10,geonames2d,10,postalcode,42.6833,23.3167
BG11,geonames2d,11,postalcode,42.6,23.45
BG12,geonames2d,12,postalcode,42.8004,23.4216
BG13,geonames2d,13,postalcode,42.7084,23.1166
BG16,geonames2d,16,postalcode,42.6,23.1833
BG17,geonames2d,17,postalcode,42.7102,23.3575
BG62,geonames2d,62,postalcode,42.2545,25.5597
BG61,geonames2d,61,postalcode,42.6341,25.4689
BG60,geonames2d,60,postalcode,42.3349,25.6376
BG78,geonames2d,78,postalcode,43.3508,26.2421
BG77,geonames2d,77,postalcode,43.2463,26.5949
BG91,geonames2d,91,postalcode,43.1724,27.7416
BG92,geonames2d,92,postalcode,43.2107,27.3996
BG90,geonames2d,90,postalcode,43.2111,27.8611
BG39,geonames2d,39,postalcode,43.6246,22.7319
BG38,geonames2d,38,postalcode,43.8964,22.538
BG31,geonames2d,31,postalcode,43.1329,23.7642
BG30,geonames2d,30,postalcode,43.3251,23.552
BG33,geonames2d,33,postalcode,43.6563,23.8786
BG51,geonames2d,51,postalcode,43.2383,25.7985
BG52,geonames2d,52,postalcode,43.336,25.3079
BMDV,geonames2d,DV,postalcode,32.2979,-64.761
BMFL,geonames2d,FL,postalcode,32.3264,-64.7411
BMHM,geonames2d,HM,postalcode,32.2989,-64.7897
BMCR,geonames2d,CR,postalcode,32.3264,-64.7411
BMHS,geonames2d,HS,postalcode,32.354,-64.7096
BMPG,geonames2d,PG,postalcode,32.2752,-64.7881
BMGE,geonames2d,GE,postalcode,32.3772,-64.6872
BMDD,geonames2d,DD,postalcode,32.3726,-64.6944
BMMA,geonames2d,MA,postalcode,32.2934,-64.8683
BMSB,geonames2d,SB,postalcode,32.2721,-64.8624
BMSN,geonames2d,SN,postalcode,32.2508,-64.8564
BMWK,geonames2d,WK,postalcode,32.2633,-64.8154
BR69,geonames2d,69,postalcode,-4.3254,-64.6043
BR57,geonames2d,57,postalcode,-9.4981,-36.4895
BR68,geonames2d,68,postalcode,-2.6492,-50.072
BR46,geonames2d,46,postalcode,-13.5475,-41.9022
BR48,geonames2d,48,postalcode,-10.9488,-38.7394
BR45,geonames2d,45,postalcode,-14.7975,-39.8331
BR44,geonames2d,44,postalcode,-11.9511,-39.9757
BR47,geonames2d,47,postalcode,-11.9939,-43.7825
BR42,geonames2d,42,postalcode,-12.6991,-38.3598
BR43,geonames2d,43,postalcode,-12.6458,-38.4886
BR40,geonames2d,40,postalcode,-12.8665,-38.4858
BR63,geonames2d,63,postalcode,-6.375,-39.432
BR62,geonames2d,62,postalcode,-4.0747,-39.6267
BR61,geonames2d,61,postalcode,-3.9454,-38.6083
BR60,geonames2d,60,postalcode,-3.7227,-38.5247
BR70,geonames2d,70,postalcode,-15.8072,-47.7735
BR71,geonames2d,71,postalcode,-16.8278,-47.5918
BR72,geonames2d,72,postalcode,-15.9393,-48.2726
BR73,geonames2d,73,postalcode,-14.5147,-47.0908
BR29,geonames2d,29,postalcode,-19.8771,-40.8375
BR79,geonames2d,79,postalcode,-21.246,-54.4839
BR65,geonames2d,65,postalcode,-4.2549,-44.9235
BR78,geonames2d,78,postalcode,-12.9273,-57.5653
BR38,geonames2d,38,postalcode,-18.7622,-47.563
BR35,geonames2d,35,postalcode,-19.6455,-43.426
BR39,geonames2d,39,postalcode,-16.9338,-42.7774
BR37,geonames2d,37,postalcode,-21.6915,-45.7258
BR36,geonames2d,36,postalcode,-21.0562,-43.0143
BR30,geonames2d,30,postalcode,-19.8993,-43.957
BR32,geonames2d,32,postalcode,-20.0134,-44.1748
BR34,geonames2d,34,postalcode,-19.9217,-43.7431
BR33,geonames2d,33,postalcode,-19.6859,-43.9289
BR67,geonames2d,67,postalcode,-1.3601,-48.3486
BR66,geonames2d,66,postalcode,-1.3434,-48.4182
BR58,geonames2d,58,postalcode,-7.0641,-36.6422
BR86,geonames2d,86,postalcode,-23.4252,-51.1967
BR83,geonames2d,83,postalcode,-25.4995,-49.2346
BR85,geonames2d,85,postalcode,-25.3254,-53.1153
BR87,geonames2d,87,postalcode,-23.5176,-52.7709
BR84,geonames2d,84,postalcode,-24.8148,-50.4458
BR80,geonames2d,80,postalcode,-25.5039,-49.2908
BR64,geonames2d,64,postalcode,-6.7278,-42.4031
BR23,geonames2d,23,postalcode,-22.954,-44.1054
BR28,geonames2d,28,postalcode,-21.958,-42.056
BR25,geonames2d,25,postalcode,-22.3472,-43.1017
BR27,geonames2d,27,postalcode,-22.4245,-43.764
BR26,geonames2d,26,postalcode,-22.6241,-43.5519
BR24,geonames2d,24,postalcode,-22.8394,-42.9079
BR20,geonames2d,20,postalcode,-22.9201,-43.3307
BR59,geonames2d,59,postalcode,-5.9774,-36.6169
BR99,geonames2d,99,postalcode,-28.1094,-52.3741
BR96,geonames2d,96,postalcode,-30.6775,-52.5801
BR98,geonames2d,98,postalcode,-27.8947,-53.8502
BR97,geonames2d,97,postalcode,-29.2579,-54.7496
BR95,geonames2d,95,postalcode,-29.2576,-51.3169
BR94,geonames2d,94,postalcode,-29.9762,-50.9518
BR93,geonames2d,93,postalcode,-29.6447,-51.0944
BR92,geonames2d,92,postalcode,-30.1352,-51.4421
BR90,geonames2d,90,postalcode,-30.1146,-51.1639
BR89,geonames2d,89,postalcode,-26.8585,-51.5109
BR88,geonames2d,88,postalcode,-27.9611,-49.355
BR17,geonames2d,17,postalcode,-21.9945,-50.0379
BR15,geonames2d,15,postalcode,-20.6553,-49.8549
BR13,geonames2d,13,postalcode,-22.4769,-47.1921
BR18,geonames2d,18,postalcode,-23.4538,-48.5514
BR19,geonames2d,19,postalcode,-22.3616,-51.131
BR14,geonames2d,14,postalcode,-21.0239,-48.0486
BR16,geonames2d,16,postalcode,-21.469,-50.2947
BR12,geonames2d,12,postalcode,-22.933,-45.5559
BR07,geonames2d,07,postalcode,-23.3396,-46.5775
BR11,geonames2d,11,postalcode,-24.226,-47.0001
BR06,geonames2d,06,postalcode,-23.6306,-46.9017
BR08,geonames2d,08,postalcode,-23.5464,-46.1845
BR09,geonames2d,09,postalcode,-23.7088,-46.4826
BR01,geonames2d,01,postalcode,-23.627,-46.635
BR49,geonames2d,49,postalcode,-10.6232,-37.289
BR75,geonames2d,75,postalcode,-17.4044,-49.7086
BR76,geonames2d,76,postalcode,-15.2775,-50.0564
BR74,geonames2d,74,postalcode,-16.7401,-49.2541
BR53,geonames2d,53,postalcode,-7.339,-34.6229
BR56,geonames2d,56,postalcode,-8.1488,-38.6377
BR55,geonames2d,55,postalcode,-8.3288,-35.8446
BR54,geonames2d,54,postalcode,-8.1151,-35.0585
BR50,geonames2d,50,postalcode,-8.0117,-34.9529
BR77,geonames2d,77,postalcode,-9.2795,-48.2086
BY21,geonames2d,21,postalcode,54.5216,29.5803
BY22,geonames2d,22,postalcode,53.1702,26.649
BY23,geonames2d,23,postalcode,53.6682,25.1685
BY24,geonames2d,24,postalcode,52.3898,29.8109
CAT0,geonames2d,T0,postalcode,54.0098,-113.0714
CAT1,geonames2d,T1,postalcode,50.4131,-112.9819
CAT2,geonames2d,T2,postalcode,51.0117,-114.0422
CAT3,geonames2d,T3,postalcode,51.0864,-114.1347
CAT4,geonames2d,T4,postalcode,52.2003,-113.8773
CAT5,geonames2d,T5,postalcode,53.5894,-113.5104
CAT6,geonames2d,T6,postalcode,53.4846,-113.474
CAT7,geonames2d,T7,postalcode,53.6799,-114.966
CAT8,geonames2d,T8,postalcode,54.1123,-114.7886
CAT9,geonames2d,T9,postalcode,54.3182,-111.744
CAV5,geonames2d,V5,postalcode,49.2467,-123.0412
CAV6,geonames2d,V6,postalcode,49.2542,-123.1186
CAV7,geonames2d,V7,postalcode,49.3016,-123.1069
CAV0,geonames2d,V0,postalcode,51.859,-123.2898
CAV1,geonames2d,V1,postalcode,50.4866,-119.1436
CAV2,geonames2d,V2,postalcode,50.7767,-121.9244
CAV3,geonames2d,V3,postalcode,49.1946,-122.789
CAV4,geonames2d,V4,postalcode,49.2089,-122.3375
CAV8,geonames2d,V8,postalcode,49.6233,-124.3809
CAV9,geonames2d,V9,postalcode,49.1387,-124.2534
CAR0,geonames2d,R0,postalcode,50.9094,-98.4692
CAR1,geonames2d,R1,postalcode,50.0639,-97.2726
CAR2,geonames2d,R2,postalcode,49.9112,-97.1126
CAR3,geonames2d,R3,postalcode,49.8674,-97.1859
CAR4,geonames2d,R4,postalcode,49.8909,-97.4008
CAR5,geonames2d,R5,postalcode,49.6358,-96.806
CAR6,geonames2d,R6,postalcode,49.1868,-98.0212
CAR7,geonames2d,R7,postalcode,50.1726,-99.9887
CAR8,geonames2d,R8,postalcode,55.2558,-99.8604
CAR9,geonames2d,R9,postalcode,53.704,-101.2933
CAE1,geonames2d,E1,postalcode,46.5573,-64.9811
CAE2,geonames2d,E2,postalcode,45.5902,-66.0056
CAE3,geonames2d,E3,postalcode,46.4348,-67.1079
CAE4,geonames2d,E4,postalcode,46.1779,-64.9863
CAE5,geonames2d,E5,postalcode,45.3089,-66.4256
CAE6,geonames2d,E6,postalcode,46.027,-67.0196
CAE7,geonames2d,E7,postalcode,46.782,-67.7872
CAE8,geonames2d,E8,postalcode,47.7048,-65.7425
CAE9,geonames2d,E9,postalcode,46.961,-65.4471
CAA0,geonames2d,A0,postalcode,49.4893,-57.0486
CAA1,geonames2d,A1,postalcode,47.6433,-52.96
CAA2,geonames2d,A2,postalcode,49.6601,-58.9283
CAA5,geonames2d,A5,postalcode,48.1666,-53.9648
CAA8,geonames2d,A8,postalcode,49.1667,-57.4316
CAB0,geonames2d,B0,postalcode,45.1397,-63.7301
CAB1,geonames2d,B1,postalcode,46.1217,-60.2146
CAB2,geonames2d,B2,postalcode,45.2139,-62.5503
CAB3,geonames2d,B3,postalcode,44.6419,-63.6079
CAB4,geonames2d,B4,postalcode,44.9383,-64.0643
CAB5,geonames2d,B5,postalcode,43.8335,-66.1156
CAB6,geonames2d,B6,postalcode,45.4093,-63.2114
CAB9,geonames2d,B9,postalcode,45.6168,-61.3485
CAX0,geonames2d,X0,postalcode,68.3643,-104.4234
CAX1,geonames2d,X1,postalcode,62.456,-114.3525
CAP0,geonames2d,P0,postalcode,47.8577,-84.0168
CAN3,geonames2d,N3,postalcode,43.2446,-80.3204
CAL0,geonames2d,L0,postalcode,44.0676,-79.132
CAK0,geonames2d,K0,postalcode,45.0196,-76.6315
CAL9,geonames2d,L9,postalcode,43.9541,-79.8016
CAL8,geonames2d,L8,postalcode,43.2526,-79.8358
CAM3,geonames2d,M3,postalcode,43.7463,-79.4395
CAM4,geonames2d,M4,postalcode,43.693,-79.3565
CAM5,geonames2d,M5,postalcode,43.6611,-79.3905
CAM6,geonames2d,M6,postalcode,43.6765,-79.4529
CAM7,geonames2d,M7,postalcode,43.7223,-79.3197
CAM8,geonames2d,M8,postalcode,43.6239,-79.5132
CAK1,geonames2d,K1,postalcode,45.4072,-75.6426
CAK2,geonames2d,K2,postalcode,45.3297,-75.8291
CAK4,geonames2d,K4,postalcode,45.3751,-75.4415
CAK6,geonames2d,K6,postalcode,45.0046,-75.0492
CAK7,geonames2d,K7,postalcode,44.6429,-76.4418
CAK8,geonames2d,K8,postalcode,44.8612,-77.3405
CAK9,geonames2d,K9,postalcode,44.269,-78.3561
CAL1,geonames2d,L1,postalcode,43.9101,-78.9071
CAL2,geonames2d,L2,postalcode,43.1151,-79.178
CAL3,geonames2d,L3,postalcode,43.6924,-79.3728
CAL4,geonames2d,L4,postalcode,43.9221,-79.5459
CAL5,geonames2d,L5,postalcode,43.5895,-79.6538
CAL6,geonames2d,L6,postalcode,43.6883,-79.6296
CAL7,geonames2d,L7,postalcode,43.5762,-79.8373
CAM1,geonames2d,M1,postalcode,43.768,-79.2479
CAM2,geonames2d,M2,postalcode,43.7754,-79.3909
CAM9,geonames2d,M9,postalcode,43.7006,-79.5539
CAN0,geonames2d,N0,postalcode,43.2399,-81.1741
CAN1,geonames2d,N1,postalcode,43.4358,-80.2175
CAN2,geonames2d,N2,postalcode,43.49,-80.568
CAN4,geonames2d,N4,postalcode,43.5269,-80.829
CAN5,geonames2d,N5,postalcode,42.9457,-81.1279
CAN6,geonames2d,N6,postalcode,42.9498,-81.2572
CAN7,geonames2d,N7,postalcode,42.9425,-82.1481
CAN8,geonames2d,N8,postalcode,42.2962,-82.8615
CAN9,geonames2d,N9,postalcode,42.2201,-82.9973
CAP1,geonames2d,P1,postalcode,45.7066,-79.3924
CAP2,geonames2d,P2,postalcode,46.6205,-79.9957
CAP3,geonames2d,P3,postalcode,46.5039,-80.9738
CAP4,geonames2d,P4,postalcode,48.4785,-81.3592
CAP5,geonames2d,P5,postalcode,47.3529,-82.2776
CAP6,geonames2d,P6,postalcode,46.5276,-84.337
CAP7,geonames2d,P7,postalcode,48.4189,-89.3509
CAP8,geonames2d,P8,postalcode,49.925,-92.367
CAP9,geonames2d,P9,postalcode,49.1983,-93.8948
CAC0,geonames2d,C0,postalcode,46.312,-63.0852
CAC1,geonames2d,C1,postalcode,46.299,-63.2338
CAG4,geonames2d,G4,postalcode,49.2457,-66.5497
CAG5,geonames2d,G5,postalcode,47.9384,-69.1477
CAG7,geonames2d,G7,postalcode,48.26,-71.18
CAG8,geonames2d,G8,postalcode,47.9796,-72.2665
CAG0,geonames2d,G0,postalcode,47.9477,-70.0869
CAG1,geonames2d,G1,postalcode,46.8215,-71.2569
CAG2,geonames2d,G2,postalcode,46.8573,-71.332
CAG3,geonames2d,G3,postalcode,46.9461,-71.4371
CAG9,geonames2d,G9,postalcode,46.5721,-72.6974
CAJ5,geonames2d,J5,postalcode,45.7227,-73.5823
CAJ0,geonames2d,J0,postalcode,46.8289,-74.0179
CAJ1,geonames2d,J1,postalcode,45.4447,-71.9728
CAH1,geonames2d,H1,postalcode,45.5957,-73.5666
CAH2,geonames2d,H2,postalcode,45.5351,-73.6001
CAH3,geonames2d,H3,postalcode,45.5012,-73.6075
CAH4,geonames2d,H4,postalcode,45.5042,-73.6084
CAH9,geonames2d,H9,postalcode,45.4635,-73.8514
CAJ8,geonames2d,J8,postalcode,45.6666,-75.1393
CAJ9,geonames2d,J9,postalcode,46.9951,-77.2601
CAG6,geonames2d,G6,postalcode,46.3657,-71.3642
CAH7,geonames2d,H7,postalcode,45.593,-73.736
CAJ6,geonames2d,J6,postalcode,45.5492,-73.7323
CAJ7,geonames2d,J7,postalcode,45.6129,-73.9089
CAJ2,geonames2d,J2,postalcode,45.5134,-72.8188
CAJ3,geonames2d,J3,postalcode,45.6162,-73.2282
CAJ4,geonames2d,J4,postalcode,45.5073,-73.4721
CAH0,geonames2d,H0,postalcode,67.8493,-36.7512
CAH5,geonames2d,H5,postalcode,45.5029,-73.5634
CAH8,geonames2d,H8,postalcode,45.448,-73.7028
CAS0,geonames2d,S0,postalcode,52.3099,-105.6672
CAS2,geonames2d,S2,postalcode,50.7834,-104.9511
CAS3,geonames2d,S3,postalcode,51.2167,-102.4677
CAS4,geonames2d,S4,postalcode,50.3078,-104.4369
CAS6,geonames2d,S6,postalcode,52.0212,-105.4201
CAS7,geonames2d,S7,postalcode,52.127,-106.6378
CAS9,geonames2d,S9,postalcode,52.621,-108.6306
CAY0,geonames2d,Y0,postalcode,63.1121,-134.3421
CAY1,geonames2d,Y1,postalcode,60.7161,-135.0537
CH50,geonames2d,50,postalcode,47.4048,8.0478
CH57,geonames2d,57,postalcode,47.3054,8.1432
CH53,geonames2d,53,postalcode,47.5655,8.2506
CH54,geonames2d,54,postalcode,47.4792,8.3196
CH55,geonames2d,55,postalcode,47.3983,8.2393
CH56,geonames2d,56,postalcode,47.2945,8.3042
CH81,geonames2d,81,postalcode,47.4418,8.5095
CH89,geonames2d,89,postalcode,47.3167,8.4366
CH51,geonames2d,51,postalcode,47.4288,8.1464
CH52,geonames2d,52,postalcode,47.4994,8.185
CH43,geonames2d,43,postalcode,47.5344,7.8709
CH60,geonames2d,60,postalcode,47.0078,8.2771
CH46,geonames2d,46,postalcode,47.3391,7.8755
CH48,geonames2d,48,postalcode,47.2821,7.9319
CH90,geonames2d,90,postalcode,47.3983,9.3997
CH91,geonames2d,91,postalcode,47.3523,9.2247
CH94,geonames2d,94,postalcode,47.3287,9.5335
CH23,geonames2d,23,postalcode,47.1684,6.9118
CH25,geonames2d,25,postalcode,47.125,7.2398
CH26,geonames2d,26,postalcode,47.1631,7.0508
CH27,geonames2d,27,postalcode,47.2601,7.2523
CH28,geonames2d,28,postalcode,47.3517,7.2909
CH30,geonames2d,30,postalcode,46.9493,7.4368
CH32,geonames2d,32,postalcode,47.0199,7.2589
CH33,geonames2d,33,postalcode,47.1189,7.5902
CH34,geonames2d,34,postalcode,47.0612,7.6682
CH45,geonames2d,45,postalcode,47.1894,7.5549
CH47,geonames2d,47,postalcode,47.3003,7.651
CH49,geonames2d,49,postalcode,47.1727,7.8042
CH35,geonames2d,35,postalcode,46.9132,7.7131
CH36,geonames2d,36,postalcode,46.7674,7.6351
CH61,geonames2d,61,postalcode,47.0349,8.0028
CH15,geonames2d,15,postalcode,46.8027,6.9118
CH17,geonames2d,17,postalcode,46.8023,7.114
CH31,geonames2d,31,postalcode,46.8505,7.4136
CH16,geonames2d,16,postalcode,46.6156,6.9688
CH37,geonames2d,37,postalcode,46.5774,7.5364
CH38,geonames2d,38,postalcode,46.6699,7.9767
CH40,geonames2d,40,postalcode,47.5553,7.5877
CH41,geonames2d,41,postalcode,47.5035,7.568
CH42,geonames2d,42,postalcode,47.4111,7.5424
CH44,geonames2d,44,postalcode,47.4432,7.8015
CH14,geonames2d,14,postalcode,46.7908,6.687
CH12,geonames2d,12,postalcode,46.2618,6.1517
CH87,geonames2d,87,postalcode,47.1275,8.9677
CH88,geonames2d,88,postalcode,47.1462,8.9641
CH70,geonames2d,70,postalcode,46.8131,9.5304
CH74,geonames2d,74,postalcode,46.6495,9.4901
CH77,geonames2d,77,postalcode,46.3163,10.0845
CH75,geonames2d,75,postalcode,46.6438,10.1185
CH72,geonames2d,72,postalcode,46.9155,9.7236
CH73,geonames2d,73,postalcode,46.9861,9.4751
CH76,geonames2d,76,postalcode,46.3479,9.5813
CH65,geonames2d,65,postalcode,46.22,9.0194
CH71,geonames2d,71,postalcode,46.734,9.1143
CH29,geonames2d,29,postalcode,47.4262,7.074
CH63,geonames2d,63,postalcode,47.0643,8.4729
CH64,geonames2d,64,postalcode,46.9291,8.6096
CH62,geonames2d,62,postalcode,47.1998,8.1302
CH20,geonames2d,20,postalcode,47.0015,6.8994
CH21,geonames2d,21,postalcode,46.9244,6.6183
CH24,geonames2d,24,postalcode,47.0139,6.6637
CH22,geonames2d,22,postalcode,47.0251,6.8625
CH92,geonames2d,92,postalcode,47.4643,9.1911
CH93,geonames2d,93,postalcode,47.5021,9.389
CH86,geonames2d,86,postalcode,47.3105,8.772
CH95,geonames2d,95,postalcode,47.4908,9.0519
CH96,geonames2d,96,postalcode,47.3146,9.1268
CH82,geonames2d,82,postalcode,47.6978,8.7341
CH84,geonames2d,84,postalcode,47.527,8.7212
CH85,geonames2d,85,postalcode,47.5799,9.0751
CH83,geonames2d,83,postalcode,47.4265,8.8047
CH67,geonames2d,67,postalcode,46.4566,8.862
CH68,geonames2d,68,postalcode,45.9363,8.9795
CH66,geonames2d,66,postalcode,46.2358,8.6914
CH69,geonames2d,69,postalcode,46.0239,8.937
CH18,geonames2d,18,postalcode,46.345,6.9465
CH10,geonames2d,10,postalcode,46.5684,6.6664
CH13,geonames2d,13,postalcode,46.6685,6.4639
CH11,geonames2d,11,postalcode,46.5273,6.4009
CH39,geonames2d,39,postalcode,46.3099,7.8428
CH19,geonames2d,19,postalcode,46.1577,7.2735
CH80,geonames2d,80,postalcode,47.3791,8.5391
CL23,geonames2d,23,postalcode,-32.9316,-71.2356
CL24,geonames2d,24,postalcode,-33.102,-71.3878
CL25,geonames2d,25,postalcode,-32.8999,-71.4649
CL26,geonames2d,26,postalcode,-33.5505,-73.3931
CL27,geonames2d,27,postalcode,-31.9211,-81.0721
CL21,geonames2d,21,postalcode,-32.78,-70.5192
CL20,geonames2d,20,postalcode,-32.4048,-71.1729
CL22,geonames2d,22,postalcode,-32.8304,-71.0336
CL65,geonames2d,65,postalcode,-33.0679,-71.3305
CL59,geonames2d,59,postalcode,-45.0231,-71.9118
CL60,geonames2d,60,postalcode,-45.4758,-73.2068
CL61,geonames2d,61,postalcode,-49.1196,-73.3134
CL12,geonames2d,12,postalcode,-24.2739,-69.4097
CL13,geonames2d,13,postalcode,-22.96,-69.5795
CL14,geonames2d,14,postalcode,-23.7438,-68.8543
CL47,geonames2d,47,postalcode,-38.2498,-72.5713
CL48,geonames2d,48,postalcode,-38.689,-72.2821
CL49,geonames2d,49,postalcode,-39.1511,-72.4046
CL50,geonames2d,50,postalcode,-38.8405,-73.0677
CL46,geonames2d,46,postalcode,-37.756,-72.3661
CL15,geonames2d,15,postalcode,-27.1414,-69.8427
CL16,geonames2d,16,postalcode,-28.6728,-70.7422
CL40,geonames2d,40,postalcode,-36.4846,-72.5566
CL41,geonames2d,41,postalcode,-36.8545,-72.9462
CL42,geonames2d,42,postalcode,-37.0464,-73.0543
CL43,geonames2d,43,postalcode,-37.5994,-73.3799
CL44,geonames2d,44,postalcode,-37.5622,-72.4049
CL45,geonames2d,45,postalcode,-37.5453,-72.1972
CL37,geonames2d,37,postalcode,-36.0797,-72.3807
CL38,geonames2d,38,postalcode,-36.6277,-71.7875
CL39,geonames2d,39,postalcode,-36.6923,-72.3822
CL17,geonames2d,17,postalcode,-29.964,-70.8627
CL19,geonames2d,19,postalcode,-31.5537,-71.1326
CL18,geonames2d,18,postalcode,-30.7307,-70.9224
CL28,geonames2d,28,postalcode,-34.0493,-70.711
CL29,geonames2d,29,postalcode,-34.3393,-70.8621
CL30,geonames2d,30,postalcode,-34.3999,-70.9816
CL32,geonames2d,32,postalcode,-34.2955,-71.775
CL31,geonames2d,31,postalcode,-34.6351,-71.4037
CL62,geonames2d,62,postalcode,-52.785,-71.4922
CL63,geonames2d,63,postalcode,-58.0685,-69.816
CL34,geonames2d,34,postalcode,-35.0727,-71.7204
CL35,geonames2d,35,postalcode,-35.473,-71.6494
CL36,geonames2d,36,postalcode,-35.9285,-71.666
CL33,geonames2d,33,postalcode,-35.1226,-71.0069
CL75,geonames2d,75,postalcode,-33.4284,-70.5555
CL76,geonames2d,76,postalcode,-33.3395,-70.4706
CL77,geonames2d,77,postalcode,-33.4593,-70.6003
CL78,geonames2d,78,postalcode,-33.4694,-70.5684
CL79,geonames2d,79,postalcode,-33.5082,-70.5945
CL80,geonames2d,80,postalcode,-33.5959,-70.7004
CL82,geonames2d,82,postalcode,-33.5286,-70.5396
CL83,geonames2d,83,postalcode,-33.4346,-70.6609
CL84,geonames2d,84,postalcode,-33.4504,-70.6563
CL85,geonames2d,85,postalcode,-33.3908,-70.6719
CL86,geonames2d,86,postalcode,-33.4021,-70.7279
CL87,geonames2d,87,postalcode,-33.4454,-70.6792
CL88,geonames2d,88,postalcode,-33.5579,-70.6399
CL89,geonames2d,89,postalcode,-33.4809,-70.668
CL90,geonames2d,90,postalcode,-33.4234,-70.7999
CL91,geonames2d,91,postalcode,-33.4927,-70.6944
CL92,geonames2d,92,postalcode,-33.5035,-70.7648
CL81,geonames2d,81,postalcode,-33.591,-70.5575
CL94,geonames2d,94,postalcode,-33.4953,-70.4932
CL93,geonames2d,93,postalcode,-33.206,-70.7452
CL95,geonames2d,95,postalcode,-33.7448,-70.8705
CL96,geonames2d,96,postalcode,-33.7043,-71.1391
CL97,geonames2d,97,postalcode,-33.6389,-70.9035
CL98,geonames2d,98,postalcode,-33.6671,-71.0324
CL54,geonames2d,54,postalcode,-40.9989,-73.1773
CL55,geonames2d,55,postalcode,-41.5412,-72.9534
CL56,geonames2d,56,postalcode,-41.1599,-73.2806
CL57,geonames2d,57,postalcode,-42.5322,-73.6941
CL52,geonames2d,52,postalcode,-40.166,-72.6784
CL53,geonames2d,53,postalcode,-40.7582,-73.0043
CL58,geonames2d,58,postalcode,-43.0337,-72.2358
CL11,geonames2d,11,postalcode,-20.0921,-69.5438
CL10,geonames2d,10,postalcode,-18.4312,-69.6401
CL51,geonames2d,51,postalcode,-39.8015,-72.7365
CO91,geonames2d,91,postalcode,-1.9506,-71.4272
CO05,geonames2d,05,postalcode,6.5335,-75.5781
CO81,geonames2d,81,postalcode,6.7027,-71.2205
CO08,geonames2d,08,postalcode,10.7677,-74.8774
CO18,geonames2d,18,postalcode,1.4196,-75.4543
CO19,geonames2d,19,postalcode,2.4934,-76.6574
CO20,geonames2d,20,postalcode,9.3883,-73.5206
CO27,geonames2d,27,postalcode,5.8011,-76.8535
CO23,geonames2d,23,postalcode,8.7646,-75.7469
CO95,geonames2d,95,postalcode,2.0192,-72.4698
CO94,geonames2d,94,postalcode,2.9654,-68.4809
CO41,geonames2d,41,postalcode,2.4127,-75.67
CO44,geonames2d,44,postalcode,11.254,-72.7032
CO50,geonames2d,50,postalcode,3.6718,-73.4527
CO52,geonames2d,52,postalcode,1.4303,-77.6429
CO54,geonames2d,54,postalcode,7.8893,-72.8253
CO86,geonames2d,86,postalcode,0.7546,-76.5416
CO63,geonames2d,63,postalcode,4.5156,-75.6896
CO66,geonames2d,66,postalcode,5.0277,-75.8104
CO88,geonames2d,88,postalcode,12.9801,-81.5348
CO68,geonames2d,68,postalcode,6.6116,-73.257
CO70,geonames2d,70,postalcode,9.1917,-75.2137
CO73,geonames2d,73,postalcode,4.2991,-75.0702
CO76,geonames2d,76,postalcode,3.9106,-76.3351
CO97,geonames2d,97,postalcode,0.7172,-70.2624
CO99,geonames2d,99,postalcode,5.0268,-69.6075
CO85,geonames2d,85,postalcode,5.3445,-72.2408
CO25,geonames2d,25,postalcode,4.8158,-74.181
CO11,geonames2d,11,postalcode,4.5962,-74.1165
CO13,geonames2d,13,postalcode,9.4501,-74.755
CO15,geonames2d,15,postalcode,5.6737,-73.2486
CO17,geonames2d,17,postalcode,5.2803,-75.4274
CO47,geonames2d,47,postalcode,10.2213,-74.4134
CR20,geonames2d,20,postalcode,10.058,-84.3849
CR21,geonames2d,21,postalcode,10.521,-84.6139
CR30,geonames2d,30,postalcode,9.8771,-83.8354
CR50,geonames2d,50,postalcode,10.3385,-85.3222
CR51,geonames2d,51,postalcode,10.5068,-85.4777
CR40,geonames2d,40,postalcode,10.0187,-84.1099
CR41,geonames2d,41,postalcode,10.516,-83.9945
CR70,geonames2d,70,postalcode,10.0691,-83.4148
CR60,geonames2d,60,postalcode,9.4008,-84.101
CR61,geonames2d,61,postalcode,8.9203,-83.4799
CR10,geonames2d,10,postalcode,9.8663,-84.1413
CR11,geonames2d,11,postalcode,9.766,-84.0149
CR12,geonames2d,12,postalcode,9.7008,-84.0649
CZ10,geonames2d,10,postalcode,50.0058,14.465
CZ11,geonames2d,11,postalcode,50.3667,16.0417
CZ12,geonames2d,12,postalcode,50.0714,14.4287
CZ13,geonames2d,13,postalcode,50.0818,14.479
CZ14,geonames2d,14,postalcode,50.0708,14.2904
CZ15,geonames2d,15,postalcode,49.9547,14.3732
CZ16,geonames2d,16,postalcode,50.1098,14.3517
CZ17,geonames2d,17,postalcode,50.1095,14.42
CZ18,geonames2d,18,postalcode,49.9376,14.8975
CZ19,geonames2d,19,postalcode,50.0899,14.5196
CZ25,geonames2d,25,postalcode,49.8061,14.6626
CZ26,geonames2d,26,postalcode,49.7306,14.1546
CZ28,geonames2d,28,postalcode,49.9817,15.1333
CZ27,geonames2d,27,postalcode,50.222,14.1189
CZ38,geonames2d,38,postalcode,49.0444,14.1265
CZ29,geonames2d,29,postalcode,50.4138,14.9435
CZ50,geonames2d,50,postalcode,50.3426,15.5204
CZ37,geonames2d,37,postalcode,49.049,14.7407
CZ39,geonames2d,39,postalcode,49.4303,14.7199
CZ34,geonames2d,34,postalcode,49.4835,13.1502
CZ33,geonames2d,33,postalcode,49.6937,13.4021
CZ35,geonames2d,35,postalcode,50.1373,12.5394
CZ36,geonames2d,36,postalcode,50.1832,12.9776
CZ43,geonames2d,43,postalcode,50.4062,13.4598
CZ44,geonames2d,44,postalcode,50.3035,13.6473
CZ30,geonames2d,30,postalcode,49.7535,13.4209
CZ31,geonames2d,31,postalcode,49.7556,13.3278
CZ32,geonames2d,32,postalcode,49.735,13.3764
CZ46,geonames2d,46,postalcode,50.7254,15.0604
CZ47,geonames2d,47,postalcode,50.6563,14.5801
CZ40,geonames2d,40,postalcode,50.7616,14.2397
CZ41,geonames2d,41,postalcode,50.5233,14.1125
CZ58,geonames2d,58,postalcode,49.5467,15.5427
CZ53,geonames2d,53,postalcode,49.9346,15.808
CZ56,geonames2d,56,postalcode,49.9084,16.4477
CZ51,geonames2d,51,postalcode,50.4123,15.7398
CZ54,geonames2d,54,postalcode,50.5011,15.973
CZ55,geonames2d,55,postalcode,50.409,15.9992
CZ57,geonames2d,57,postalcode,49.7901,16.4256
CZ67,geonames2d,67,postalcode,49.1995,16.1639
CZ68,geonames2d,68,postalcode,49.1652,17.2023
CZ60,geonames2d,60,postalcode,48.7667,14.7833
CZ61,geonames2d,61,postalcode,49.2733,15.8998
CZ62,geonames2d,62,postalcode,49.2316,15.9272
CZ63,geonames2d,63,postalcode,49.1417,16.3667
CZ64,geonames2d,64,postalcode,49.2067,16.59
CZ66,geonames2d,66,postalcode,49.1546,16.4425
CZ69,geonames2d,69,postalcode,48.9262,16.9824
CZ76,geonames2d,76,postalcode,49.2429,17.6016
CZ78,geonames2d,78,postalcode,49.799,17.0595
CZ79,geonames2d,79,postalcode,49.8466,17.2374
CZ59,geonames2d,59,postalcode,49.4852,16.1239
CZ73,geonames2d,73,postalcode,49.7267,18.3687
CZ74,geonames2d,74,postalcode,49.7983,17.9387
CZ75,geonames2d,75,postalcode,49.4637,17.7124
CZ77,geonames2d,77,postalcode,49.6097,17.3071
CZ70,geonames2d,70,postalcode,49.9274,17.1199
CZ71,geonames2d,71,postalcode,49.7364,17.7742
CZ72,geonames2d,72,postalcode,49.7244,16.9244
DE01,geonames2d,01,postalcode,51.163,13.8062
DE03,geonames2d,03,postalcode,51.721,14.0841
DE04,geonames2d,04,postalcode,51.3079,12.7346
DE12,geonames2d,12,postalcode,52.4596,13.4613
DE14,geonames2d,14,postalcode,52.4201,12.8259
DE15,geonames2d,15,postalcode,52.2709,14.0708
DE16,geonames2d,16,postalcode,52.9452,13.2447
DE17,geonames2d,17,postalcode,53.6594,13.3358
DE19,geonames2d,19,postalcode,53.4492,11.472
DE10,geonames2d,10,postalcode,52.5093,13.3841
DE11,geonames2d,11,postalcode,52.5179,13.3759
DE13,geonames2d,13,postalcode,52.5695,13.3402
DE70,geonames2d,70,postalcode,48.7728,9.1822
DE71,geonames2d,71,postalcode,48.8356,9.1552
DE72,geonames2d,72,postalcode,48.4129,9.0626
DE73,geonames2d,73,postalcode,48.7558,9.7382
DE74,geonames2d,74,postalcode,49.2053,9.3607
DE75,geonames2d,75,postalcode,48.8858,8.7211
DE89,geonames2d,89,postalcode,48.4438,10.0864
DE97,geonames2d,97,postalcode,49.9441,10.0281
DE68,geonames2d,68,postalcode,49.4563,8.5182
DE69,geonames2d,69,postalcode,49.4248,8.7682
DE76,geonames2d,76,postalcode,49.0825,8.181
DE77,geonames2d,77,postalcode,48.4363,8.0233
DE78,geonames2d,78,postalcode,48.0026,8.6968
DE79,geonames2d,79,postalcode,47.8551,7.8942
DE88,geonames2d,88,postalcode,47.8902,9.6434
DE80,geonames2d,80,postalcode,48.1615,11.5509
DE81,geonames2d,81,postalcode,48.1254,11.5726
DE82,geonames2d,82,postalcode,47.911,11.2502
DE83,geonames2d,83,postalcode,47.8713,12.2803
DE84,geonames2d,84,postalcode,48.4086,12.4327
DE85,geonames2d,85,postalcode,48.4174,11.6308
DE86,geonames2d,86,postalcode,48.3847,10.8237
DE91,geonames2d,91,postalcode,49.4095,10.8577
DE92,geonames2d,92,postalcode,49.4868,12.0245
DE93,geonames2d,93,postalcode,49.0689,12.2909
DE94,geonames2d,94,postalcode,48.7817,13.0883
DE90,geonames2d,90,postalcode,49.4434,11.0471
DE95,geonames2d,95,postalcode,50.0663,11.8184
DE96,geonames2d,96,postalcode,50.1058,11.0058
DE63,geonames2d,63,postalcode,50.0377,9.1072
DE87,geonames2d,87,postalcode,47.8315,10.3999
DE27,geonames2d,27,postalcode,53.1905,8.962
DE28,geonames2d,28,postalcode,53.0894,8.8257
DE35,geonames2d,35,postalcode,50.6933,8.5976
DE36,geonames2d,36,postalcode,50.7071,9.8307
DE55,geonames2d,55,postalcode,49.8439,7.6793
DE60,geonames2d,60,postalcode,50.1216,8.6675
DE61,geonames2d,61,postalcode,50.269,8.6501
DE64,geonames2d,64,postalcode,49.793,8.7508
DE65,geonames2d,65,postalcode,50.2054,8.1773
DE34,geonames2d,34,postalcode,51.2559,9.3405
DE37,geonames2d,37,postalcode,51.5148,10.039
DE59,geonames2d,59,postalcode,51.5588,8.0336
DE20,geonames2d,20,postalcode,53.5622,9.9876
DE21,geonames2d,21,postalcode,53.4516,10.0138
DE22,geonames2d,22,postalcode,53.6022,10.05
DE18,geonames2d,18,postalcode,54.1316,12.5458
DE23,geonames2d,23,postalcode,53.8734,10.7523
DE26,geonames2d,26,postalcode,53.4221,7.648
DE29,geonames2d,29,postalcode,52.9448,10.85
DE30,geonames2d,30,postalcode,52.3815,9.721
DE31,geonames2d,31,postalcode,52.3189,9.3457
DE38,geonames2d,38,postalcode,52.1499,10.675
DE48,geonames2d,48,postalcode,52.1087,7.4195
DE49,geonames2d,49,postalcode,52.5343,7.7932
DE40,geonames2d,40,postalcode,51.2225,6.8153
DE41,geonames2d,41,postalcode,51.1703,6.4972
DE42,geonames2d,42,postalcode,51.2328,7.1413
DE45,geonames2d,45,postalcode,51.4978,7.0503
DE46,geonames2d,46,postalcode,51.6624,6.7626
DE47,geonames2d,47,postalcode,51.4605,6.5471
DE50,geonames2d,50,postalcode,50.9327,6.871
DE51,geonames2d,51,postalcode,50.973,7.2448
DE52,geonames2d,52,postalcode,50.8176,6.2577
DE53,geonames2d,53,postalcode,50.5428,7.0328
DE44,geonames2d,44,postalcode,51.5106,7.3488
DE32,geonames2d,32,postalcode,52.1411,8.801
DE33,geonames2d,33,postalcode,51.8951,8.575
DE57,geonames2d,57,postalcode,50.7703,7.8354
DE58,geonames2d,58,postalcode,51.3328,7.5833
DE54,geonames2d,54,postalcode,49.9763,6.6159
DE56,geonames2d,56,postalcode,50.3272,7.5599
DE66,geonames2d,66,postalcode,49.3598,7.3288
DE67,geonames2d,67,postalcode,49.5526,7.9856
DE24,geonames2d,24,postalcode,54.3606,9.868
DE25,geonames2d,25,postalcode,54.1866,9.2286
DE02,geonames2d,02,postalcode,51.1805,14.6106
DE07,geonames2d,07,postalcode,50.7618,11.7832
DE08,geonames2d,08,postalcode,50.5916,12.4688
DE09,geonames2d,09,postalcode,50.7934,13.0148
DE06,geonames2d,06,postalcode,51.5404,11.9373
DE39,geonames2d,39,postalcode,52.3467,11.6473
DE98,geonames2d,98,postalcode,50.5603,10.6392
DE99,geonames2d,99,postalcode,51.0883,10.905
DK79,geonames2d,79,postalcode,56.7619,8.6836
DK77,geonames2d,77,postalcode,56.9162,8.611
DK93,geonames2d,93,postalcode,57.1592,10.1831
DK94,geonames2d,94,postalcode,57.2083,9.7304
DK97,geonames2d,97,postalcode,57.323,10.0722
DK98,geonames2d,98,postalcode,57.4832,10.1235
DK99,geonames2d,99,postalcode,57.5447,10.4827
DK92,geonames2d,92,postalcode,56.9733,9.9233
DK95,geonames2d,95,postalcode,56.7591,9.9019
DK96,geonames2d,96,postalcode,56.7722,9.4249
DK89,geonames2d,89,postalcode,56.4866,10.2607
DK90,geonames2d,90,postalcode,57.048,9.9187
DK86,geonames2d,86,postalcode,56.126,9.685
DK87,geonames2d,87,postalcode,55.8742,9.7029
DK69,geonames2d,69,postalcode,56.1419,8.4606
DK72,geonames2d,72,postalcode,55.8348,8.8754
DK73,geonames2d,73,postalcode,55.9116,9.2627
DK74,geonames2d,74,postalcode,56.1757,9.0321
DK75,geonames2d,75,postalcode,56.3703,8.6756
DK78,geonames2d,78,postalcode,56.5536,8.9353
DK76,geonames2d,76,postalcode,56.5116,8.3635
DK84,geonames2d,84,postalcode,56.2592,10.1404
DK85,geonames2d,85,postalcode,56.3706,10.5374
DK83,geonames2d,83,postalcode,56.1003,10.1423
DK88,geonames2d,88,postalcode,56.3822,9.6543
DK80,geonames2d,80,postalcode,56.1567,10.2108
DK82,geonames2d,82,postalcode,56.1697,10.2042
DK71,geonames2d,71,postalcode,55.758,9.4862
DK68,geonames2d,68,postalcode,55.7079,8.436
DK54,geonames2d,54,postalcode,55.4545,10.1625
DK55,geonames2d,55,postalcode,55.382,10.2694
DK56,geonames2d,56,postalcode,55.2107,10.1198
DK57,geonames2d,57,postalcode,55.153,10.5014
DK58,geonames2d,58,postalcode,55.2013,10.687
DK52,geonames2d,52,postalcode,55.3902,10.5201
DK53,geonames2d,53,postalcode,55.471,10.6045
DK50,geonames2d,50,postalcode,55.3959,10.3883
DK59,geonames2d,59,postalcode,54.8763,10.643
DK60,geonames2d,60,postalcode,55.4839,9.4787
DK61,geonames2d,61,postalcode,55.2538,9.4898
DK65,geonames2d,65,postalcode,55.2229,9.18
DK66,geonames2d,66,postalcode,55.5209,9.0117
DK63,geonames2d,63,postalcode,54.9065,9.4087
DK64,geonames2d,64,postalcode,54.994,9.7903
DK62,geonames2d,62,postalcode,55.0209,9.0139
DK67,geonames2d,67,postalcode,55.4224,8.653
DK70,geonames2d,70,postalcode,55.5838,9.7265
DK09,geonames2d,09,postalcode,56.8122,10.6456
DK10,geonames2d,10,postalcode,55.6759,12.5655
DK11,geonames2d,11,postalcode,55.6759,12.5655
DK12,geonames2d,12,postalcode,55.6759,12.5655
DK13,geonames2d,13,postalcode,55.6759,12.5655
DK14,geonames2d,14,postalcode,55.6759,12.5655
DK15,geonames2d,15,postalcode,55.6758,12.5655
DK16,geonames2d,16,postalcode,55.6759,12.5655
DK17,geonames2d,17,postalcode,55.6759,12.5655
DK18,geonames2d,18,postalcode,55.6794,12.5346
DK20,geonames2d,20,postalcode,55.6794,12.5346
DK21,geonames2d,21,postalcode,55.6759,12.5655
DK22,geonames2d,22,postalcode,55.6759,12.5655
DK23,geonames2d,23,postalcode,55.6759,12.5655
DK24,geonames2d,24,postalcode,55.6759,12.5655
DK25,geonames2d,25,postalcode,55.6581,12.5241
DK26,geonames2d,26,postalcode,55.6367,12.3402
DK27,geonames2d,27,postalcode,55.6973,12.4652
DK28,geonames2d,28,postalcode,55.7728,12.494
DK29,geonames2d,29,postalcode,55.8349,12.5451
DK19,geonames2d,19,postalcode,55.6794,12.5346
DK35,geonames2d,35,postalcode,55.8185,12.2979
DK08,geonames2d,08,postalcode,55.6471,12.2742
DK40,geonames2d,40,postalcode,55.6628,12.0502
DK34,geonames2d,34,postalcode,55.9179,12.3912
DK30,geonames2d,30,postalcode,55.9985,12.5506
DK31,geonames2d,31,postalcode,56.0819,12.4768
DK32,geonames2d,32,postalcode,56.061,12.2221
DK33,geonames2d,33,postalcode,55.9457,12.0468
DK36,geonames2d,36,postalcode,55.8223,12.0862
DK37,geonames2d,37,postalcode,55.156,14.9177
DK41,geonames2d,41,postalcode,55.4438,11.7559
DK43,geonames2d,43,postalcode,55.5977,11.8023
DK46,geonames2d,46,postalcode,55.3768,12.1389
DK45,geonames2d,45,postalcode,55.7995,11.5044
DK42,geonames2d,42,postalcode,55.4005,11.3979
DK44,geonames2d,44,postalcode,55.6576,11.3576
DK47,geonames2d,47,postalcode,55.0658,12.0214
DK48,geonames2d,48,postalcode,54.7491,11.8047
DK49,geonames2d,49,postalcode,54.8106,11.3683
DO10,geonames2d,10,postalcode,18.6433,-70.1854
DO11,geonames2d,11,postalcode,18.6606,-70.1611
DZ01,geonames2d,01,postalcode,28.2798,0.0715
DZ02,geonames2d,02,postalcode,36.244,1.3086
DZ03,geonames2d,03,postalcode,33.9649,2.3157
DZ04,geonames2d,04,postalcode,35.821,7.2756
DZ05,geonames2d,05,postalcode,35.4458,6.1143
DZ06,geonames2d,06,postalcode,36.5807,4.8179
DZ07,geonames2d,07,postalcode,34.7202,5.7276
DZ08,geonames2d,08,postalcode,30.6425,-1.8628
DZ09,geonames2d,09,postalcode,36.5276,3.0617
DZ10,geonames2d,10,postalcode,36.3392,3.864
DZ11,geonames2d,11,postalcode,23.657,5.0412
DZ12,geonames2d,12,postalcode,35.2531,7.947
DZ13,geonames2d,13,postalcode,34.9021,-1.4402
DZ14,geonames2d,14,postalcode,35.1752,1.4501
DZ15,geonames2d,15,postalcode,36.6588,4.2922
DZ16,geonames2d,16,postalcode,36.7468,3.1818
DZ17,geonames2d,17,postalcode,34.7899,3.2022
DZ18,geonames2d,18,postalcode,36.7219,5.9173
DZ19,geonames2d,19,postalcode,36.1113,5.4542
DZ20,geonames2d,20,postalcode,34.8929,0.095
DZ21,geonames2d,21,postalcode,36.8284,6.8058
DZ22,geonames2d,22,postalcode,35.0736,-0.58
DZ23,geonames2d,23,postalcode,36.8499,7.6041
DZ24,geonames2d,24,postalcode,36.4028,7.4312
DZ25,geonames2d,25,postalcode,36.3397,6.7009
DZ26,geonames2d,26,postalcode,36.0755,2.917
DZ27,geonames2d,27,postalcode,35.9263,0.2301
DZ28,geonames2d,28,postalcode,35.4342,4.3761
DZ29,geonames2d,29,postalcode,35.3974,0.2725
DZ30,geonames2d,30,postalcode,32.6045,5.8697
DZ31,geonames2d,31,postalcode,35.7041,-0.5428
DZ32,geonames2d,32,postalcode,33.352,0.6659
DZ33,geonames2d,33,postalcode,28.244,7.9606
DZ34,geonames2d,34,postalcode,36.0758,4.8899
DZ35,geonames2d,35,postalcode,36.7181,3.5754
DZ36,geonames2d,36,postalcode,36.7771,8.2259
DZ37,geonames2d,37,postalcode,27.8929,-6.7402
DZ38,geonames2d,38,postalcode,35.6877,1.9931
DZ39,geonames2d,39,postalcode,33.5104,6.6972
DZ40,geonames2d,40,postalcode,35.1964,7.0267
DZ41,geonames2d,41,postalcode,36.1973,7.9811
DZ42,geonames2d,42,postalcode,36.5487,2.3379
DZ43,geonames2d,43,postalcode,36.3368,6.1761
DZ44,geonames2d,44,postalcode,36.1877,2.0936
DZ45,geonames2d,45,postalcode,33.085,-0.4457
DZ46,geonames2d,46,postalcode,35.3449,-1.1229
DZ47,geonames2d,47,postalcode,32.4778,3.843
DZ48,geonames2d,48,postalcode,35.7846,0.7142
ES04,geonames2d,04,postalcode,37.1956,-2.2727
ES11,geonames2d,11,postalcode,36.4889,-5.8337
ES14,geonames2d,14,postalcode,37.7439,-4.6422
ES18,geonames2d,18,postalcode,37.1445,-3.4528
ES21,geonames2d,21,postalcode,37.6197,-6.8075
ES23,geonames2d,23,postalcode,37.9518,-3.3912
ES29,geonames2d,29,postalcode,36.7605,-4.5653
ES41,geonames2d,41,postalcode,37.4239,-5.7455
ES22,geonames2d,22,postalcode,42.2878,-0.0056
ES44,geonames2d,44,postalcode,40.6633,-0.8757
ES42,geonames2d,42,postalcode,41.6373,-2.5918
ES50,geonames2d,50,postalcode,41.6193,-1.2039
ES33,geonames2d,33,postalcode,43.3559,-5.9816
ES39,geonames2d,39,postalcode,43.236,-3.9734
ES51,geonames2d,51,postalcode,35.8893,-5.3198
ES05,geonames2d,05,postalcode,40.587,-5.0364
ES01,geonames2d,01,postalcode,42.8505,-2.715
ES09,geonames2d,09,postalcode,42.5678,-3.532
ES26,geonames2d,26,postalcode,42.3333,-2.5901
ES34,geonames2d,34,postalcode,42.4842,-4.5233
ES24,geonames2d,24,postalcode,42.6255,-5.9015
ES37,geonames2d,37,postalcode,40.8312,-5.94
ES40,geonames2d,40,postalcode,41.1813,-3.9873
ES47,geonames2d,47,postalcode,41.6456,-4.8037
ES49,geonames2d,49,postalcode,41.7657,-6.0501
ES02,geonames2d,02,postalcode,38.7394,-1.9971
ES13,geonames2d,13,postalcode,38.9529,-3.8963
ES16,geonames2d,16,postalcode,39.9634,-2.2146
ES19,geonames2d,19,postalcode,40.8288,-2.7078
ES28,geonames2d,28,postalcode,40.4859,-3.715
ES45,geonames2d,45,postalcode,39.8475,-4.2649
ES35,geonames2d,35,postalcode,28.1371,-15.2475
ES38,geonames2d,38,postalcode,28.3548,-16.9138
ES08,geonames2d,08,postalcode,41.6209,2.0413
ES43,geonames2d,43,postalcode,41.1778,1.1805
ES17,geonames2d,17,postalcode,42.1213,2.7231
ES25,geonames2d,25,postalcode,42.0846,1.1294
ES06,geonames2d,06,postalcode,38.7358,-6.2381
ES10,geonames2d,10,postalcode,39.8631,-6.1198
ES15,geonames2d,15,postalcode,43.0944,-8.5034
ES27,geonames2d,27,postalcode,42.9453,-7.4948
ES32,geonames2d,32,postalcode,42.2822,-7.7884
ES36,geonames2d,36,postalcode,42.4458,-8.5814
ES07,geonames2d,07,postalcode,39.5466,2.8937
ES03,geonames2d,03,postalcode,38.463,-0.4646
ES30,geonames2d,30,postalcode,37.8586,-1.2715
ES52,geonames2d,52,postalcode,35.2937,-2.9383
ES31,geonames2d,31,postalcode,42.8192,-1.6782
ES48,geonames2d,48,postalcode,43.2584,-2.8229
ES20,geonames2d,20,postalcode,43.1743,-2.1788
ES12,geonames2d,12,postalcode,40.173,-0.1985
ES46,geonames2d,46,postalcode,39.3552,-0.6024
FI00,geonames2d,00,postalcode,60.2413,24.9926
FI01,geonames2d,01,postalcode,60.3137,24.9535
FI02,geonames2d,02,postalcode,60.1858,24.6307
FI03,geonames2d,03,postalcode,60.4481,24.2919
FI04,geonames2d,04,postalcode,60.4995,25.1574
FI05,geonames2d,05,postalcode,60.5866,24.8477
FI06,geonames2d,06,postalcode,60.3514,25.6053
FI07,geonames2d,07,postalcode,60.4896,25.9074
FI08,geonames2d,08,postalcode,60.2644,24.0339
FI09,geonames2d,09,postalcode,60.3657,23.9069
FI10,geonames2d,10,postalcode,60.018,23.5594
FI47,geonames2d,47,postalcode,60.9214,26.4519
FI21,geonames2d,21,postalcode,60.4618,22.261
FI23,geonames2d,23,postalcode,60.7454,21.5878
FI25,geonames2d,25,postalcode,60.2423,23.0153
FI24,geonames2d,24,postalcode,60.3942,23.1149
FI31,geonames2d,31,postalcode,60.8968,23.4865
FI20,geonames2d,20,postalcode,60.4483,22.2815
FI27,geonames2d,27,postalcode,61.1142,22.0155
FI32,geonames2d,32,postalcode,61.0504,22.7865
FI26,geonames2d,26,postalcode,61.1062,21.5275
FI29,geonames2d,29,postalcode,61.6186,21.8547
FI28,geonames2d,28,postalcode,61.4931,21.7596
FI38,geonames2d,38,postalcode,61.619,22.6611
FI39,geonames2d,39,postalcode,61.8606,23.0701
FI12,geonames2d,12,postalcode,60.7631,24.6152
FI13,geonames2d,13,postalcode,61.0076,24.4621
FI14,geonames2d,14,postalcode,61.0736,24.5189
FI16,geonames2d,16,postalcode,60.9034,25.5934
FI11,geonames2d,11,postalcode,60.7394,24.7716
FI30,geonames2d,30,postalcode,60.8145,23.6167
FI37,geonames2d,37,postalcode,61.316,23.6738
FI33,geonames2d,33,postalcode,61.4938,23.7518
FI34,geonames2d,34,postalcode,61.981,23.7322
FI35,geonames2d,35,postalcode,61.8112,24.5535
FI36,geonames2d,36,postalcode,61.438,24.3294
FI42,geonames2d,42,postalcode,62.1603,24.7246
FI15,geonames2d,15,postalcode,60.9861,25.6771
FI17,geonames2d,17,postalcode,61.3625,25.3308
FI18,geonames2d,18,postalcode,61.2067,26.0489
FI19,geonames2d,19,postalcode,61.5062,26.052
FI45,geonames2d,45,postalcode,60.895,26.7001
FI46,geonames2d,46,postalcode,60.8219,26.9571
FI48,geonames2d,48,postalcode,60.4987,26.9188
FI49,geonames2d,49,postalcode,60.5872,27.2291
FI53,geonames2d,53,postalcode,61.0587,28.1914
FI54,geonames2d,54,postalcode,61.0224,27.983
FI55,geonames2d,55,postalcode,61.1972,28.7738
FI56,geonames2d,56,postalcode,61.335,28.8863
FI59,geonames2d,59,postalcode,61.6944,29.689
FI50,geonames2d,50,postalcode,61.6939,27.2449
FI51,geonames2d,51,postalcode,61.9147,27.2228
FI52,geonames2d,52,postalcode,61.49,27.13
FI77,geonames2d,77,postalcode,62.4004,27.1068
FI57,geonames2d,57,postalcode,61.8695,28.8708
FI58,geonames2d,58,postalcode,61.9207,28.8893
FI79,geonames2d,79,postalcode,62.4306,28.2201
FI76,geonames2d,76,postalcode,62.285,27.1613
FI78,geonames2d,78,postalcode,62.3153,27.8972
FI71,geonames2d,71,postalcode,62.9833,27.6658
FI72,geonames2d,72,postalcode,63.1073,26.5834
FI73,geonames2d,73,postalcode,63.2226,28.194
FI74,geonames2d,74,postalcode,63.65,27.0765
FI70,geonames2d,70,postalcode,62.8995,27.6627
FI75,geonames2d,75,postalcode,63.6282,29.0039
FI80,geonames2d,80,postalcode,62.6333,29.7895
FI81,geonames2d,81,postalcode,63.0246,30.2037
FI82,geonames2d,82,postalcode,62.3679,30.3991
FI83,geonames2d,83,postalcode,62.8358,29.3181
FI40,geonames2d,40,postalcode,62.2329,25.7465
FI41,geonames2d,41,postalcode,62.2946,25.8094
FI43,geonames2d,43,postalcode,62.904,24.9541
FI44,geonames2d,44,postalcode,62.932,25.8076
FI61,geonames2d,61,postalcode,62.6032,22.5952
FI64,geonames2d,64,postalcode,62.3232,21.5527
FI60,geonames2d,60,postalcode,62.7711,22.8456
FI62,geonames2d,62,postalcode,63.1232,23.3655
FI66,geonames2d,66,postalcode,63.0603,21.9709
FI63,geonames2d,63,postalcode,62.664,23.8033
FI65,geonames2d,65,postalcode,63.128,21.586
FI68,geonames2d,68,postalcode,63.7128,23.1506
FI69,geonames2d,69,postalcode,63.5406,24.1839
FI67,geonames2d,67,postalcode,63.8358,23.1395
FI90,geonames2d,90,postalcode,65.0382,25.4865
FI91,geonames2d,91,postalcode,64.8809,26.2015
FI93,geonames2d,93,postalcode,65.6079,27.7846
FI95,geonames2d,95,postalcode,66.3501,24.404
FI86,geonames2d,86,postalcode,64.1199,25.1977
FI92,geonames2d,92,postalcode,64.5191,25.2594
FI85,geonames2d,85,postalcode,63.9429,24.7313
FI84,geonames2d,84,postalcode,64.0613,24.7027
FI88,geonames2d,88,postalcode,64.2778,28.3571
FI89,geonames2d,89,postalcode,64.9347,28.6393
FI87,geonames2d,87,postalcode,64.2433,27.7575
FI96,geonames2d,96,postalcode,66.512,25.7401
FI97,geonames2d,97,postalcode,66.4173,26.556
FI94,geonames2d,94,postalcode,65.7568,24.563
FI98,geonames2d,98,postalcode,66.9146,28.0702
FI99,geonames2d,99,postalcode,68.0588,25.677
FM96,geonames2d,96,postalcode,7.1383,151.5031
FO10,geonames2d,10,postalcode,62.0167,-6.7667
FO11,geonames2d,11,postalcode,62.0167,-6.7667
FO16,geonames2d,16,postalcode,61.9833,-6.75
FO17,geonames2d,17,postalcode,61.9958,-6.8583
FO18,geonames2d,18,postalcode,62.046,-6.7995
FO21,geonames2d,21,postalcode,61.8425,-6.8078
FO22,geonames2d,22,postalcode,61.8333,-6.65
FO23,geonames2d,23,postalcode,61.7944,-6.6889
FO24,geonames2d,24,postalcode,61.9,-6.8667
FO26,geonames2d,26,postalcode,61.7667,-6.8
FO27,geonames2d,27,postalcode,62.0167,-6.6667
FO28,geonames2d,28,postalcode,61.9667,-6.9083
FO33,geonames2d,33,postalcode,62.1167,-7.0333
FO34,geonames2d,34,postalcode,62.1167,-7.0667
FO35,geonames2d,35,postalcode,62.1487,-7.1554
FO36,geonames2d,36,postalcode,62.05,-7.1333
FO37,geonames2d,37,postalcode,62.0511,-7.1939
FO38,geonames2d,38,postalcode,62.0928,-7.4015
FO40,geonames2d,40,postalcode,62.2,-6.9833
FO41,geonames2d,41,postalcode,62.1056,-6.9167
FO42,geonames2d,42,postalcode,62.15,-6.9333
FO43,geonames2d,43,postalcode,62.2167,-7.05
FO44,geonames2d,44,postalcode,62.2833,-7.1083
FO45,geonames2d,45,postalcode,62.1833,-6.9667
FO46,geonames2d,46,postalcode,62.2389,-7.0222
FO47,geonames2d,47,postalcode,62.2833,-6.9567
FO48,geonames2d,48,postalcode,62.175,-6.8083
FO49,geonames2d,49,postalcode,62.1267,-6.7933
FO51,geonames2d,51,postalcode,62.1935,-6.735
FO52,geonames2d,52,postalcode,62.2167,-6.6833
FO53,geonames2d,53,postalcode,62.244,-6.8139
FO60,geonames2d,60,postalcode,62.1167,-6.7167
FO61,geonames2d,61,postalcode,62.1167,-6.7167
FO62,geonames2d,62,postalcode,62.1291,-6.7084
FO64,geonames2d,64,postalcode,62.0833,-6.675
FO65,geonames2d,65,postalcode,62.0944,-6.7278
FO66,geonames2d,66,postalcode,62.1667,-6.75
FO69,geonames2d,69,postalcode,62.275,-6.8333
FO70,geonames2d,70,postalcode,62.2265,-6.589
FO71,geonames2d,71,postalcode,62.2265,-6.589
FO72,geonames2d,72,postalcode,62.2389,-6.5389
FO73,geonames2d,73,postalcode,62.3,-6.525
FO74,geonames2d,74,postalcode,62.3,-6.5
FO75,geonames2d,75,postalcode,62.3667,-6.5333
FO76,geonames2d,76,postalcode,62.3111,-6.2944
FO78,geonames2d,78,postalcode,62.275,-6.6334
FO79,geonames2d,79,postalcode,62.3222,-6.7389
FO80,geonames2d,80,postalcode,61.5556,-6.8111
FO81,geonames2d,81,postalcode,61.5556,-6.8111
FO82,geonames2d,82,postalcode,61.55,-6.8
FO85,geonames2d,85,postalcode,61.6,-6.95
FO86,geonames2d,86,postalcode,61.6333,-6.9167
FO87,geonames2d,87,postalcode,61.5167,-6.8667
FO90,geonames2d,90,postalcode,61.4732,-6.8118
FO91,geonames2d,91,postalcode,61.4732,-6.8118
FO92,geonames2d,92,postalcode,61.4389,-6.7444
FO95,geonames2d,95,postalcode,61.4833,-6.7333
FO96,geonames2d,96,postalcode,61.5167,-6.7333
FO97,geonames2d,97,postalcode,61.4,-6.7
FR75,geonames2d,75,postalcode,48.8602,2.3423
FR77,geonames2d,77,postalcode,48.678,2.8267
FR78,geonames2d,78,postalcode,48.8412,1.9606
FR91,geonames2d,91,postalcode,48.6273,2.3029
FR94,geonames2d,94,postalcode,48.7888,2.4231
FR92,geonames2d,92,postalcode,48.8638,2.2552
FR93,geonames2d,93,postalcode,48.9028,2.4427
FR95,geonames2d,95,postalcode,49.0313,2.2303
FR18,geonames2d,18,postalcode,47.0369,2.4988
FR28,geonames2d,28,postalcode,48.4207,1.4064
FR36,geonames2d,36,postalcode,46.7891,1.6251
FR37,geonames2d,37,postalcode,47.295,0.6777
FR41,geonames2d,41,postalcode,47.6371,1.3109
FR45,geonames2d,45,postalcode,47.9521,2.2271
FR21,geonames2d,21,postalcode,47.3666,4.8199
FR25,geonames2d,25,postalcode,47.2401,6.3486
FR01,geonames2d,01,postalcode,46.0811,5.3575
FR39,geonames2d,39,postalcode,46.7415,5.6738
FR58,geonames2d,58,postalcode,47.1392,3.4395
FR70,geonames2d,70,postalcode,47.6266,6.1062
FR71,geonames2d,71,postalcode,46.6173,4.6317
FR89,geonames2d,89,postalcode,47.857,3.5788
FR90,geonames2d,90,postalcode,47.6263,6.9189
FR14,geonames2d,14,postalcode,49.1307,-0.347
FR27,geonames2d,27,postalcode,49.1258,1.0201
FR50,geonames2d,50,postalcode,49.1214,-1.3542
FR61,geonames2d,61,postalcode,48.6321,0.0937
FR76,geonames2d,76,postalcode,49.6346,0.9581
FR02,geonames2d,02,postalcode,49.5439,3.5216
FR59,geonames2d,59,postalcode,50.4978,3.1991
FR62,geonames2d,62,postalcode,50.4658,2.371
FR60,geonames2d,60,postalcode,49.4037,2.4265
FR80,geonames2d,80,postalcode,49.9385,2.3082
FR08,geonames2d,08,postalcode,49.6199,4.667
FR10,geonames2d,10,postalcode,48.3065,4.1586
FR51,geonames2d,51,postalcode,48.993,4.1781
FR52,geonames2d,52,postalcode,48.122,5.2406
FR54,geonames2d,54,postalcode,48.786,6.1546
FR55,geonames2d,55,postalcode,49.0124,5.3789
FR57,geonames2d,57,postalcode,49.0694,6.5724
FR67,geonames2d,67,postalcode,48.6503,7.5916
FR68,geonames2d,68,postalcode,47.8112,7.2907
FR88,geonames2d,88,postalcode,48.2226,6.3447
FR44,geonames2d,44,postalcode,47.2772,-1.6319
FR49,geonames2d,49,postalcode,47.3914,-0.5693
FR53,geonames2d,53,postalcode,48.1248,-0.672
FR72,geonames2d,72,postalcode,48.0307,0.2204
FR85,geonames2d,85,postalcode,46.6716,-1.2898
FR22,geonames2d,22,postalcode,48.4844,-2.8277
FR29,geonames2d,29,postalcode,48.2643,-4.1337
FR35,geonames2d,35,postalcode,48.1835,-1.6545
FR56,geonames2d,56,postalcode,47.7886,-2.8401
FR16,geonames2d,16,postalcode,45.6914,0.1324
FR17,geonames2d,17,postalcode,45.8264,-0.7247
FR19,geonames2d,19,postalcode,45.3031,1.822
FR23,geonames2d,23,postalcode,46.1028,2.023
FR24,geonames2d,24,postalcode,45.07,0.7454
FR33,geonames2d,33,postalcode,44.8238,-0.4226
FR40,geonames2d,40,postalcode,43.8171,-0.7426
FR47,geonames2d,47,postalcode,44.3747,0.4932
FR64,geonames2d,64,postalcode,43.3326,-0.6849
FR79,geonames2d,79,postalcode,46.4873,-0.3345
FR86,geonames2d,86,postalcode,46.6132,0.3924
FR87,geonames2d,87,postalcode,45.8766,1.2334
FR09,geonames2d,09,postalcode,42.9712,1.527
FR11,geonames2d,11,postalcode,43.1333,2.3494
FR12,geonames2d,12,postalcode,44.306,2.6083
FR30,geonames2d,30,postalcode,43.9955,4.2348
FR31,geonames2d,31,postalcode,43.4068,1.2199
FR32,geonames2d,32,postalcode,43.6627,0.4683
FR34,geonames2d,34,postalcode,43.5763,3.5732
FR46,geonames2d,46,postalcode,44.6247,1.6139
FR48,geonames2d,48,postalcode,44.5379,3.4953
FR65,geonames2d,65,postalcode,43.1411,0.1917
FR66,geonames2d,66,postalcode,42.6134,2.6635
FR81,geonames2d,81,postalcode,43.7995,2.1242
FR82,geonames2d,82,postalcode,44.0576,1.2319
FR03,geonames2d,03,postalcode,46.3536,3.1781
FR42,geonames2d,42,postalcode,45.6705,4.2333
FR07,geonames2d,07,postalcode,44.7985,4.4952
FR15,geonames2d,15,postalcode,45.0296,2.6533
FR43,geonames2d,43,postalcode,45.1331,3.7635
FR05,geonames2d,05,postalcode,44.5797,6.1325
FR26,geonames2d,26,postalcode,44.737,5.085
FR38,geonames2d,38,postalcode,45.3168,5.4996
FR73,geonames2d,73,postalcode,45.5462,6.217
FR63,geonames2d,63,postalcode,45.739,3.167
FR69,geonames2d,69,postalcode,45.8003,4.7734
FR74,geonames2d,74,postalcode,46.0408,6.28
FR04,geonames2d,04,postalcode,44.0661,6.1364
FR06,geonames2d,06,postalcode,43.7356,7.1453
FR13,geonames2d,13,postalcode,43.4306,5.2832
FR83,geonames2d,83,postalcode,43.3295,6.2104
FR84,geonames2d,84,postalcode,43.9936,5.0192
FR20,geonames2d,20,postalcode,42.25,9.1426
FR98,geonames2d,98,postalcode,10.2922,-109.2072
GBDN,geonames2d,DN,postalcode,53.5328,-0.742
GBHU,geonames2d,HU,postalcode,53.7822,-0.3035
GBYO,geonames2d,YO,postalcode,54.1099,-0.7964
GBLE,geonames2d,LE,postalcode,52.6418,-1.0275
GBPE,geonames2d,PE,postalcode,52.7592,0.0459
GBCW,geonames2d,CW,postalcode,53.1432,-2.4745
GBDY,geonames2d,DY,postalcode,52.4101,-2.2524
GBLD,geonames2d,LD,postalcode,52.1454,-3.3273
GBSY,geonames2d,SY,postalcode,52.6223,-3.0818
GBTF,geonames2d,TF,postalcode,52.7343,-2.4541
GBWR,geonames2d,WR,postalcode,52.1708,-2.21
GBWV,geonames2d,WV,postalcode,52.5565,-2.3031
GBBA,geonames2d,BA,postalcode,51.1848,-2.4321
GBRG,geonames2d,RG,postalcode,51.4033,-1.1009
GBSN,geonames2d,SN,postalcode,51.4633,-1.9016
GBSP,geonames2d,SP,postalcode,51.0975,-1.8208
GBPO,geonames2d,PO,postalcode,50.7799,-1.0544
GBBS,geonames2d,BS,postalcode,51.4138,-2.6772
GBHR,geonames2d,HR,postalcode,52.0756,-2.7322
GBB7,geonames2d,B7,postalcode,52.6072,-1.7298
GBDE,geonames2d,DE,postalcode,52.9665,-1.5687
GBSK,geonames2d,SK,postalcode,53.2987,-2.0293
GBST,geonames2d,ST,postalcode,52.9358,-2.1147
GBWS,geonames2d,WS,postalcode,52.6755,-1.923
GBCB,geonames2d,CB,postalcode,52.1926,0.2006
GBCO,geonames2d,CO,postalcode,51.9436,0.8525
GBIP,geonames2d,IP,postalcode,52.2496,1.0793
GBNR,geonames2d,NR,postalcode,52.6678,1.2646
GBCR,geonames2d,CR,postalcode,51.3409,-0.0945
GBGU,geonames2d,GU,postalcode,51.1517,-0.7494
GBKT,geonames2d,KT,postalcode,51.3448,-0.3609
GBRH,geonames2d,RH,postalcode,51.0839,-0.2645
GBSM,geonames2d,SM,postalcode,51.3602,-0.1872
GBTN,geonames2d,TN,postalcode,51.0863,0.4632
GBTW,geonames2d,TW,postalcode,51.4478,-0.3958
GBB4,geonames2d,B4,postalcode,52.357,-1.8578
GBB5,geonames2d,B5,postalcode,52.2488,-1.8703
GBB8,geonames2d,B8,postalcode,52.3345,-1.8757
GBB9,geonames2d,B9,postalcode,52.3359,-1.8354
GBCV,geonames2d,CV,postalcode,52.3435,-1.5111
GBGL,geonames2d,GL,postalcode,51.8225,-2.155
GBNN,geonames2d,NN,postalcode,52.2622,-0.8962
GBOX,geonames2d,OX,postalcode,51.8147,-1.3137
GBBN,geonames2d,BN,postalcode,50.8543,-0.1074
GBB3,geonames2d,B3,postalcode,52.4453,-1.8903
GBB6,geonames2d,B6,postalcode,52.3896,-2.0424
GBBR,geonames2d,BR,postalcode,51.3802,0.0724
GBDA,geonames2d,DA,postalcode,51.418,0.2666
GBE1,geonames2d,E1,postalcode,51.5283,-0.0112
GBE2,geonames2d,E2,postalcode,51.5427,-0.0326
GBE3,geonames2d,E3,postalcode,51.5277,-0.0266
GBE4,geonames2d,E4,postalcode,51.6303,0.0005
GBE5,geonames2d,E5,postalcode,51.5599,-0.0545
GBE6,geonames2d,E6,postalcode,51.5265,0.0493
GBE7,geonames2d,E7,postalcode,51.5413,0.0074
GBE8,geonames2d,E8,postalcode,51.548,-0.0629
GBE9,geonames2d,E9,postalcode,51.5332,-0.046
GBEC,geonames2d,EC,postalcode,51.5173,-0.1052
GBEN,geonames2d,EN,postalcode,51.6906,-0.0882
GBHA,geonames2d,HA,postalcode,51.5894,-0.3502
GBIG,geonames2d,IG,postalcode,51.5939,0.0656
GBN1,geonames2d,N1,postalcode,51.5813,-0.1065
GBN2,geonames2d,N2,postalcode,51.6119,-0.1419
GBN3,geonames2d,N3,postalcode,51.6006,-0.1943
GBN4,geonames2d,N4,postalcode,51.5693,-0.1069
GBN5,geonames2d,N5,postalcode,51.55,-0.1
GBN6,geonames2d,N6,postalcode,51.5657,-0.159
GBN7,geonames2d,N7,postalcode,51.5491,-0.1205
GBN8,geonames2d,N8,postalcode,51.5812,-0.1069
GBNW,geonames2d,NW,postalcode,51.5526,-0.1984
GBRM,geonames2d,RM,postalcode,51.5549,0.2363
GBSE,geonames2d,SE,postalcode,51.4654,-0.0394
GBSW,geonames2d,SW,postalcode,51.4681,-0.1695
GBUB,geonames2d,UB,postalcode,51.5305,-0.4368
GBW1,geonames2d,W1,postalcode,51.5067,-0.1696
GBW2,geonames2d,W2,postalcode,51.5141,-0.1886
GBW3,geonames2d,W3,postalcode,51.5105,-0.2657
GBW4,geonames2d,W4,postalcode,51.4927,-0.258
GBW5,geonames2d,W5,postalcode,51.5163,-0.2852
GBW6,geonames2d,W6,postalcode,51.4925,-0.2204
GBW7,geonames2d,W7,postalcode,51.5118,-0.3359
GBW8,geonames2d,W8,postalcode,51.5011,-0.1985
GBW9,geonames2d,W9,postalcode,51.5244,-0.1846
GBWC,geonames2d,WC,postalcode,51.5139,-0.1242
GBDT,geonames2d,DT,postalcode,50.8003,-2.478
GBEX,geonames2d,EX,postalcode,50.8777,-3.815
GBPL,geonames2d,PL,postalcode,50.4841,-4.4545
GBTA,geonames2d,TA,postalcode,51.0589,-3.0788
GBTQ,geonames2d,TQ,postalcode,50.4358,-3.6903
GBCA,geonames2d,CA,postalcode,54.7207,-2.9379
GBDH,geonames2d,DH,postalcode,54.814,-1.662
GBNE,geonames2d,NE,postalcode,55.1862,-1.8306
GBTD,geonames2d,TD,postalcode,55.6025,-2.4888
GBTR,geonames2d,TR,postalcode,50.1963,-5.2427
GBHP,geonames2d,HP,postalcode,51.7411,-0.7557
GBLU,geonames2d,LU,postalcode,51.895,-0.5646
GBMK,geonames2d,MK,postalcode,52.0708,-0.6618
GBSL,geonames2d,SL,postalcode,51.5116,-0.6529
GBWD,geonames2d,WD,postalcode,51.6643,-0.4085
GBSG,geonames2d,SG,postalcode,51.9664,-0.1234
GBLA,geonames2d,LA,postalcode,54.2095,-2.8577
GBNG,geonames2d,NG,postalcode,53.0059,-0.8583
GBS1,geonames2d,S1,postalcode,53.3262,-1.4606
GBS2,geonames2d,S2,postalcode,53.3497,-1.3333
GBS3,geonames2d,S3,postalcode,53.3972,-1.594
GBS4,geonames2d,S4,postalcode,53.2168,-1.3843
GBS8,geonames2d,S8,postalcode,53.3217,-1.1973
GBBH,geonames2d,BH,postalcode,50.7617,-1.9405
GBCM,geonames2d,CM,postalcode,51.7702,0.4191
GBSS,geonames2d,SS,postalcode,51.5646,0.613
GBSO,geonames2d,SO,postalcode,50.9735,-1.3702
GBAL,geonames2d,AL,postalcode,51.7833,-0.2842
GBCT,geonames2d,CT,postalcode,51.2431,1.1834
GBME,geonames2d,ME,postalcode,51.3159,0.6263
GBLN,geonames2d,LN,postalcode,53.2701,-0.2505
GBBD,geonames2d,BD,postalcode,53.9499,-2.0113
GBDL,geonames2d,DL,postalcode,54.4645,-1.7349
GBHG,geonames2d,HG,postalcode,54.0973,-1.5991
GBLS,geonames2d,LS,postalcode,53.8482,-1.4783
GBTS,geonames2d,TS,postalcode,54.564,-1.1834
GBWF,geonames2d,WF,postalcode,53.675,-1.4448
GBBB,geonames2d,BB,postalcode,53.8122,-2.3417
GBBL,geonames2d,BL,postalcode,53.6035,-2.4104
GBFY,geonames2d,FY,postalcode,53.8301,-3.0031
GBL3,geonames2d,L3,postalcode,53.5035,-2.9166
GBL4,geonames2d,L4,postalcode,53.5925,-2.8281
GBOL,geonames2d,OL,postalcode,53.6138,-2.1152
GBPR,geonames2d,PR,postalcode,53.7744,-2.7524
GBWN,geonames2d,WN,postalcode,53.5394,-2.6636
GBSR,geonames2d,SR,postalcode,54.8631,-1.3774
GBHD,geonames2d,HD,postalcode,53.6218,-1.7872
GBHX,geonames2d,HX,postalcode,53.7105,-1.9372
GBS7,geonames2d,S7,postalcode,53.5473,-1.4672
GBB1,geonames2d,B1,postalcode,52.4624,-1.9002
GBB2,geonames2d,B2,postalcode,52.4795,-1.8526
GBS6,geonames2d,S6,postalcode,53.4435,-1.335
GBS9,geonames2d,S9,postalcode,53.4227,-1.4036
GBCH,geonames2d,CH,postalcode,53.2421,-3.0349
GBL1,geonames2d,L1,postalcode,53.3991,-2.9173
GBL2,geonames2d,L2,postalcode,53.4384,-2.9468
GBL5,geonames2d,L5,postalcode,53.4106,-2.9779
GBL6,geonames2d,L6,postalcode,53.4253,-2.9728
GBL7,geonames2d,L7,postalcode,53.4239,-2.9762
GBL8,geonames2d,L8,postalcode,53.4399,-2.9735
GBL9,geonames2d,L9,postalcode,53.4616,-2.9534
GBWA,geonames2d,WA,postalcode,53.3664,-2.5804
GBM1,geonames2d,M1,postalcode,53.4626,-2.2246
GBM2,geonames2d,M2,postalcode,53.4938,-2.3229
GBM3,geonames2d,M3,postalcode,53.4585,-2.2712
GBM4,geonames2d,M4,postalcode,53.4802,-2.3279
GBM5,geonames2d,M5,postalcode,53.4779,-2.2896
GBM6,geonames2d,M6,postalcode,53.4848,-2.258
GBM7,geonames2d,M7,postalcode,53.5056,-2.2623
GBM8,geonames2d,M8,postalcode,53.4986,-2.2385
GBM9,geonames2d,M9,postalcode,53.4809,-2.2374
GBLL,geonames2d,LL,postalcode,53.0685,-3.8892
GBDG,geonames2d,DG,postalcode,55.0127,-3.9382
GBNP,geonames2d,NP,postalcode,51.7768,-3.0424
GBGY,geonames2d,GY,postalcode,49.4951,-2.4837
GBBT,geonames2d,BT,postalcode,54.6151,-6.4087
GBAB,geonames2d,AB,postalcode,57.3396,-2.5603
GBEH,geonames2d,EH,postalcode,55.89,-3.1636
GBG5,geonames2d,G5,postalcode,55.8485,-4.3156
GBG7,geonames2d,G7,postalcode,55.7871,-4.2382
GBG9,geonames2d,G9,postalcode,55.8667,-4.25
GBIV,geonames2d,IV,postalcode,57.6505,-4.7464
GBKY,geonames2d,KY,postalcode,56.2198,-3.1379
GBPA,geonames2d,PA,postalcode,56.0858,-5.5166
GBPH,geonames2d,PH,postalcode,56.7175,-4.1982
GBDD,geonames2d,DD,postalcode,56.6316,-2.7972
GBFK,geonames2d,FK,postalcode,56.1971,-4.0991
GBG8,geonames2d,G8,postalcode,56.0305,-4.6527
GBKA,geonames2d,KA,postalcode,55.476,-4.6735
GBML,geonames2d,ML,postalcode,55.6936,-3.7874
GBG6,geonames2d,G6,postalcode,55.9801,-4.213
GBG4,geonames2d,G4,postalcode,55.826,-4.2664
GBKW,geonames2d,KW,postalcode,58.6634,-3.2956
GBG3,geonames2d,G3,postalcode,55.8613,-4.1829
GBZE,geonames2d,ZE,postalcode,60.3601,-1.2718
GBG1,geonames2d,G1,postalcode,55.8834,-4.3227
GBG2,geonames2d,G2,postalcode,55.8827,-4.2648
GBHS,geonames2d,HS,postalcode,57.8558,-6.8234
GBCF,geonames2d,CF,postalcode,51.5573,-3.4138
GBSA,geonames2d,SA,postalcode,51.8556,-4.4059
GBIM,geonames2d,IM,postalcode,54.1922,-4.5576
GBJE,geonames2d,JE,postalcode,49.2019,-2.1231
GF97,geonames2d,97,postalcode,4.9162,-52.6263
GGGY,geonames2d,GY,postalcode,49.515,-2.5
GL24,geonames2d,24,postalcode,90.0,0.0
GL39,geonames2d,39,postalcode,67.4063,-47.4243
GP97,geonames2d,97,postalcode,16.191,-61.5594
GT16,geonames2d,16,postalcode,15.4735,-90.056
GT15,geonames2d,15,postalcode,15.0516,-90.4148
GT04,geonames2d,04,postalcode,14.6723,-90.9101
GT20,geonames2d,20,postalcode,14.6948,-89.4834
GT05,geonames2d,05,postalcode,14.3112,-90.9221
GT01,geonames2d,01,postalcode,14.629,-90.5218
GT02,geonames2d,02,postalcode,14.8515,-90.1145
GT13,geonames2d,13,postalcode,15.5279,-91.653
GT18,geonames2d,18,postalcode,15.5667,-88.9233
GT21,geonames2d,21,postalcode,14.583,-89.8896
GT22,geonames2d,22,postalcode,14.2244,-89.9219
GT17,geonames2d,17,postalcode,16.7663,-89.8155
GT09,geonames2d,09,postalcode,14.8502,-91.6208
GT14,geonames2d,14,postalcode,15.1986,-90.9345
GT11,geonames2d,11,postalcode,14.529,-91.7284
GT03,geonames2d,03,postalcode,14.5728,-90.7305
GT12,geonames2d,12,postalcode,14.9726,-91.8772
GT06,geonames2d,06,postalcode,14.2565,-90.3257
GT07,geonames2d,07,postalcode,14.7568,-91.2261
GT10,geonames2d,10,postalcode,14.467,-91.378
GT08,geonames2d,08,postalcode,14.9962,-91.3953
GT19,geonames2d,19,postalcode,14.9636,-89.6023
GU96,geonames2d,96,postalcode,13.4306,144.7707
HR10,geonames2d,10,postalcode,45.7822,16.0039
HR20,geonames2d,20,postalcode,42.821,17.7287
HR21,geonames2d,21,postalcode,43.4915,16.6648
HR22,geonames2d,22,postalcode,43.8337,16.0385
HR23,geonames2d,23,postalcode,44.154,15.4947
HR31,geonames2d,31,postalcode,45.5529,18.3895
HR32,geonames2d,32,postalcode,45.2263,18.885
HR33,geonames2d,33,postalcode,45.7179,17.6528
HR34,geonames2d,34,postalcode,45.394,17.6039
HR35,geonames2d,35,postalcode,45.2177,17.7227
HR40,geonames2d,40,postalcode,46.3917,16.4459
HR42,geonames2d,42,postalcode,46.2369,16.2856
HR43,geonames2d,43,postalcode,45.7515,16.9536
HR44,geonames2d,44,postalcode,45.3568,16.401
HR47,geonames2d,47,postalcode,45.3571,15.5
HR48,geonames2d,48,postalcode,46.0793,16.6665
HR49,geonames2d,49,postalcode,46.0945,15.9224
HR51,geonames2d,51,postalcode,45.2261,14.7407
HR52,geonames2d,52,postalcode,45.2184,13.8888
HR53,geonames2d,53,postalcode,44.6917,15.4179
HU71,geonames2d,71,postalcode,46.3594,18.6068
HU73,geonames2d,73,postalcode,46.2616,18.2065
HU76,geonames2d,76,postalcode,46.0964,18.2006
HU77,geonames2d,77,postalcode,45.9984,18.4995
HU78,geonames2d,78,postalcode,45.866,18.1577
HU79,geonames2d,79,postalcode,46.0035,17.813
HU55,geonames2d,55,postalcode,46.9527,21.0115
HU56,geonames2d,56,postalcode,46.6787,21.0391
HU57,geonames2d,57,postalcode,46.6311,21.2893
HU58,geonames2d,58,postalcode,46.363,20.9722
HU59,geonames2d,59,postalcode,46.5533,20.7089
HU60,geonames2d,60,postalcode,46.9064,19.582
HU61,geonames2d,61,postalcode,46.6076,19.7926
HU62,geonames2d,62,postalcode,46.6097,19.3233
HU63,geonames2d,63,postalcode,46.5437,19.0123
HU64,geonames2d,64,postalcode,46.2412,19.3677
HU65,geonames2d,65,postalcode,46.0852,18.9583
HU10,geonames2d,10,postalcode,47.5016,19.0704
HU11,geonames2d,11,postalcode,47.5009,19.0781
HU12,geonames2d,12,postalcode,47.4991,19.0855
HU15,geonames2d,15,postalcode,47.5,19.0833
HU34,geonames2d,34,postalcode,47.8529,20.7114
HU35,geonames2d,35,postalcode,47.9804,20.9354
HU36,geonames2d,36,postalcode,48.2093,20.3643
HU37,geonames2d,37,postalcode,48.339,20.7081
HU38,geonames2d,38,postalcode,48.3822,21.0981
HU39,geonames2d,39,postalcode,48.2933,21.5179
HU66,geonames2d,66,postalcode,46.6308,20.2633
HU67,geonames2d,67,postalcode,46.3103,20.0346
HU68,geonames2d,68,postalcode,46.426,20.3555
HU69,geonames2d,69,postalcode,46.2571,20.5991
HU20,geonames2d,20,postalcode,47.5634,18.8927
HU24,geonames2d,24,postalcode,47.1284,18.8162
HU70,geonames2d,70,postalcode,46.6806,18.5566
HU80,geonames2d,80,postalcode,47.2972,18.3778
HU81,geonames2d,81,postalcode,47.0621,18.2509
HU85,geonames2d,85,postalcode,47.3434,17.4991
HU90,geonames2d,90,postalcode,47.6076,17.7819
HU91,geonames2d,91,postalcode,47.6493,17.449
HU92,geonames2d,92,postalcode,47.8833,17.2761
HU93,geonames2d,93,postalcode,47.5208,17.1264
HU94,geonames2d,94,postalcode,47.5932,16.7305
HU40,geonames2d,40,postalcode,47.765,21.2414
HU41,geonames2d,41,postalcode,47.2069,21.4794
HU42,geonames2d,42,postalcode,47.5749,21.7558
HU30,geonames2d,30,postalcode,47.8449,19.6854
HU32,geonames2d,32,postalcode,47.8389,20.0396
HU33,geonames2d,33,postalcode,47.8257,20.3561
HU50,geonames2d,50,postalcode,47.1984,20.2355
HU51,geonames2d,51,postalcode,47.5033,20.0
HU52,geonames2d,52,postalcode,47.3298,20.4881
HU53,geonames2d,53,postalcode,47.4262,20.7802
HU54,geonames2d,54,postalcode,46.9494,20.3585
HU25,geonames2d,25,postalcode,47.7201,18.6459
HU28,geonames2d,28,postalcode,47.5513,18.2747
HU29,geonames2d,29,postalcode,47.6693,18.1035
HU21,geonames2d,21,postalcode,47.6419,19.3396
HU26,geonames2d,26,postalcode,47.9258,19.1897
HU31,geonames2d,31,postalcode,48.0952,19.7539
HU22,geonames2d,22,postalcode,47.4007,19.4861
HU23,geonames2d,23,postalcode,47.2336,19.1389
HU27,geonames2d,27,postalcode,47.2054,19.7769
HU72,geonames2d,72,postalcode,46.4667,18.0513
HU74,geonames2d,74,postalcode,46.3894,17.7949
HU75,geonames2d,75,postalcode,46.1928,17.4661
HU86,geonames2d,86,postalcode,46.7465,17.8323
HU87,geonames2d,87,postalcode,46.6286,17.1666
HU88,geonames2d,88,postalcode,46.4509,16.8708
HU43,geonames2d,43,postalcode,47.8359,22.161
HU44,geonames2d,44,postalcode,48.0633,21.6597
HU45,geonames2d,45,postalcode,48.0643,22.0099
HU46,geonames2d,46,postalcode,48.2891,22.1746
HU47,geonames2d,47,postalcode,47.9074,22.5569
HU48,geonames2d,48,postalcode,48.1464,22.3377
HU49,geonames2d,49,postalcode,48.033,22.6517
HU95,geonames2d,95,postalcode,47.2394,17.1531
HU96,geonames2d,96,postalcode,47.2939,16.9165
HU97,geonames2d,97,postalcode,47.2402,16.6471
HU98,geonames2d,98,postalcode,47.0107,16.8505
HU99,geonames2d,99,postalcode,46.9259,16.4723
HU82,geonames2d,82,postalcode,46.9412,17.725
HU83,geonames2d,83,postalcode,46.8826,17.2546
HU84,geonames2d,84,postalcode,47.1886,17.5695
HU89,geonames2d,89,postalcode,46.773,16.73
IEA4,geonames2d,A4,postalcode,53.537,-6.3226
IEA6,geonames2d,A6,postalcode,53.0579,-6.0563
IEA7,geonames2d,A7,postalcode,54.1167,-6.7333
IEA8,geonames2d,A8,postalcode,53.5896,-6.6392
IEA9,geonames2d,A9,postalcode,53.5034,-6.2353
IEC1,geonames2d,C1,postalcode,53.555,-6.7917
IED0,geonames2d,D0,postalcode,53.3514,-6.2497
IED1,geonames2d,D1,postalcode,53.3462,-6.2724
IED2,geonames2d,D2,postalcode,53.3215,-6.3804
IED6,geonames2d,D6,postalcode,53.3087,-6.3012
IEE2,geonames2d,E2,postalcode,52.4463,-7.9037
IEE3,geonames2d,E3,postalcode,52.4113,-7.7844
IEE4,geonames2d,E4,postalcode,52.7719,-7.9994
IEE5,geonames2d,E5,postalcode,52.9511,-7.8017
IEE9,geonames2d,E9,postalcode,52.355,-7.7039
IEF1,geonames2d,F1,postalcode,53.7939,-8.9196
IEF2,geonames2d,F2,postalcode,53.9222,-9.3278
IEF3,geonames2d,F3,postalcode,53.7,-9.0
IEF4,geonames2d,F4,postalcode,53.7,-8.3416
IEF5,geonames2d,F5,postalcode,54.025,-8.4084
IEF9,geonames2d,F9,postalcode,54.6324,-7.9918
IEH1,geonames2d,H1,postalcode,54.1033,-7.2148
IEH2,geonames2d,H2,postalcode,54.1833,-7.2333
IEH5,geonames2d,H5,postalcode,53.4221,-8.5347
IEH6,geonames2d,H6,postalcode,53.2467,-8.655
IEH7,geonames2d,H7,postalcode,53.4891,-10.0191
IEH9,geonames2d,H9,postalcode,53.2719,-9.0489
IEK3,geonames2d,K3,postalcode,53.5488,-6.1482
IEK4,geonames2d,K4,postalcode,53.5274,-6.1642
IEK5,geonames2d,K5,postalcode,53.5242,-6.105
IEK6,geonames2d,K6,postalcode,53.4597,-6.2181
IEK7,geonames2d,K7,postalcode,53.3574,-6.4486
IEN3,geonames2d,N3,postalcode,53.5741,-7.8677
IEN4,geonames2d,N4,postalcode,53.9469,-8.09
IEN9,geonames2d,N9,postalcode,53.5333,-7.35
IEP1,geonames2d,P1,postalcode,52.2076,-8.0971
IEP2,geonames2d,P2,postalcode,51.8863,-8.2399
IEP3,geonames2d,P3,postalcode,51.9389,-8.4224
IEP4,geonames2d,P4,postalcode,51.7642,-8.7576
IEP5,geonames2d,P5,postalcode,52.2416,-8.6583
IEP6,geonames2d,P6,postalcode,52.2008,-8.272
IEP7,geonames2d,P7,postalcode,51.7151,-9.0962
IEP8,geonames2d,P8,postalcode,51.5866,-9.0686
IER1,geonames2d,R1,postalcode,52.9914,-6.9803
IER2,geonames2d,R2,postalcode,52.7003,-6.9618
IER3,geonames2d,R3,postalcode,53.1542,-7.3944
IER4,geonames2d,R4,postalcode,53.2184,-7.4815
IER5,geonames2d,R5,postalcode,53.1515,-6.8724
IER9,geonames2d,R9,postalcode,52.7475,-7.0892
IET1,geonames2d,T1,postalcode,51.8728,-8.4902
IET2,geonames2d,T2,postalcode,51.8972,-8.4702
IET3,geonames2d,T3,postalcode,51.9886,-8.4797
IET4,geonames2d,T4,postalcode,51.9158,-8.3997
IET5,geonames2d,T5,postalcode,52.0114,-8.3442
IEV1,geonames2d,V1,postalcode,52.6718,-9.1738
IEV2,geonames2d,V2,postalcode,51.9486,-10.2222
IEV3,geonames2d,V3,postalcode,52.4232,-9.0311
IEV4,geonames2d,V4,postalcode,52.4492,-9.0611
IEV9,geonames2d,V9,postalcode,52.4184,-9.3268
IEW1,geonames2d,W1,postalcode,53.1819,-6.7967
IEW2,geonames2d,W2,postalcode,53.385,-6.5936
IEW3,geonames2d,W3,postalcode,53.1406,-7.0664
IEW9,geonames2d,W9,postalcode,53.2158,-6.6669
IEX4,geonames2d,X4,postalcode,52.2097,-7.4258
IEX9,geonames2d,X9,postalcode,52.2583,-7.1119
IEY1,geonames2d,Y1,postalcode,52.7931,-6.1414
IEY2,geonames2d,Y2,postalcode,52.5877,-6.4252
IEY3,geonames2d,Y3,postalcode,52.3655,-6.6971
IMIM,geonames2d,IM,postalcode,54.2362,-4.5398
IN74,geonames2d,74,postalcode,22.7076,88.4805
IN53,geonames2d,53,postalcode,17.6276,82.5371
IN52,geonames2d,52,postalcode,15.7257,80.0956
IN51,geonames2d,51,postalcode,14.4363,78.3589
IN50,geonames2d,50,postalcode,17.7728,78.9331
IN78,geonames2d,78,postalcode,26.344,92.6649
IN14,geonames2d,14,postalcode,31.1479,75.6489
IN16,geonames2d,16,postalcode,30.7546,76.737
IN39,geonames2d,39,postalcode,21.8204,73.2172
IN11,geonames2d,11,postalcode,28.6391,77.1705
IN37,geonames2d,37,postalcode,23.2299,69.7241
IN38,geonames2d,38,postalcode,23.2925,72.8728
IN36,geonames2d,36,postalcode,22.1157,71.1072
IN13,geonames2d,13,postalcode,29.777,76.8338
IN12,geonames2d,12,postalcode,28.8743,76.2386
IN17,geonames2d,17,postalcode,31.6451,76.8227
IN19,geonames2d,19,postalcode,34.0687,74.9811
IN18,geonames2d,18,postalcode,33.0048,74.946
IN67,geonames2d,67,postalcode,11.4052,75.9169
IN68,geonames2d,68,postalcode,9.8595,76.525
IN69,geonames2d,69,postalcode,8.8679,76.7966
IN42,geonames2d,42,postalcode,20.492,74.7103
IN44,geonames2d,44,postalcode,20.6436,78.3371
IN43,geonames2d,43,postalcode,19.4553,76.6378
IN40,geonames2d,40,postalcode,18.2121,73.491
IN41,geonames2d,41,postalcode,18.2057,74.9381
IN79,geonames2d,79,postalcode,24.897,92.9043
IN59,geonames2d,59,postalcode,15.9021,75.0225
IN58,geonames2d,58,postalcode,15.9196,76.0576
IN57,geonames2d,57,postalcode,13.2027,76.0411
IN56,geonames2d,56,postalcode,13.161,77.664
IN76,geonames2d,76,postalcode,20.1751,83.7175
IN77,geonames2d,77,postalcode,21.8985,84.4481
IN75,geonames2d,75,postalcode,20.9157,85.5382
IN60,geonames2d,60,postalcode,12.1154,79.574
IN15,geonames2d,15,postalcode,30.3269,74.7595
IN33,geonames2d,33,postalcode,28.2127,74.8255
IN34,geonames2d,34,postalcode,26.3042,73.0028
IN30,geonames2d,30,postalcode,26.4458,75.1474
IN32,geonames2d,32,postalcode,25.7857,76.3502
IN31,geonames2d,31,postalcode,24.8137,74.2584
IN63,geonames2d,63,postalcode,11.7918,78.4165
IN62,geonames2d,62,postalcode,9.815,78.1521
IN64,geonames2d,64,postalcode,11.0033,77.0488
IN61,geonames2d,61,postalcode,10.7179,79.3311
IN73,geonames2d,73,postalcode,25.4648,88.3116
IN71,geonames2d,71,postalcode,23.2736,87.9963
IN70,geonames2d,70,postalcode,22.6448,88.3419
IN72,geonames2d,72,postalcode,22.9134,87.4869
IN84,geonames2d,84,postalcode,26.1248,85.3398
IN85,geonames2d,85,postalcode,25.7931,86.9373
IN81,geonames2d,81,postalcode,24.7903,86.6944
IN80,geonames2d,80,postalcode,25.2867,84.9495
IN82,geonames2d,82,postalcode,24.3689,84.9327
IN47,geonames2d,47,postalcode,25.1935,78.5259
IN48,geonames2d,48,postalcode,23.4023,80.4379
IN46,geonames2d,46,postalcode,23.1038,77.5887
IN45,geonames2d,45,postalcode,22.8399,75.7124
IN24,geonames2d,24,postalcode,29.1344,78.8601
IN25,geonames2d,25,postalcode,29.1219,77.6688
IN20,geonames2d,20,postalcode,27.3485,79.0718
IN28,geonames2d,28,postalcode,26.5158,78.5272
IN26,geonames2d,26,postalcode,28.7432,80.1575
IN27,geonames2d,27,postalcode,26.7182,82.9189
IN22,geonames2d,22,postalcode,26.2252,82.0935
IN21,geonames2d,21,postalcode,25.5563,81.0002
IN23,geonames2d,23,postalcode,25.4495,82.7736
IN49,geonames2d,49,postalcode,21.3811,82.131
IN83,geonames2d,83,postalcode,23.0442,85.3872
IS10,geonames2d,10,postalcode,64.1333,-21.8962
IS11,geonames2d,11,postalcode,64.1488,-21.8053
IS12,geonames2d,12,postalcode,64.1363,-21.8984
IS13,geonames2d,13,postalcode,64.1264,-21.7977
IS15,geonames2d,15,postalcode,64.1256,-21.8061
IS17,geonames2d,17,postalcode,64.1517,-21.99
IS19,geonames2d,19,postalcode,63.9816,-22.3847
IS20,geonames2d,20,postalcode,64.1012,-21.8684
IS21,geonames2d,21,postalcode,64.09,-21.9209
IS22,geonames2d,22,postalcode,64.073,-21.9684
IS23,geonames2d,23,postalcode,63.9881,-22.558
IS24,geonames2d,24,postalcode,63.9387,-22.5707
IS25,geonames2d,25,postalcode,64.0699,-22.6511
IS26,geonames2d,26,postalcode,63.9739,-22.5208
IS27,geonames2d,27,postalcode,64.2116,-21.7266
IS30,geonames2d,30,postalcode,64.3233,-22.0688
IS31,geonames2d,31,postalcode,64.5383,-21.9206
IS32,geonames2d,32,postalcode,64.6644,-21.2915
IS34,geonames2d,34,postalcode,65.2257,-22.8239
IS35,geonames2d,35,postalcode,64.9043,-23.5605
IS36,geonames2d,36,postalcode,64.9176,-23.8856
IS37,geonames2d,37,postalcode,65.1094,-21.7639
IS38,geonames2d,38,postalcode,65.4461,-22.1899
IS40,geonames2d,40,postalcode,66.0747,-23.135
IS41,geonames2d,41,postalcode,66.1352,-23.1849
IS42,geonames2d,42,postalcode,66.0447,-23.2507
IS43,geonames2d,43,postalcode,66.1304,-23.528
IS45,geonames2d,45,postalcode,65.5978,-23.996
IS46,geonames2d,46,postalcode,65.6559,-23.7123
IS47,geonames2d,47,postalcode,65.879,-23.4929
IS50,geonames2d,50,postalcode,65.7681,-21.864
IS51,geonames2d,51,postalcode,65.7077,-21.6706
IS52,geonames2d,52,postalcode,65.8486,-21.489
IS53,geonames2d,53,postalcode,65.3971,-20.9435
IS54,geonames2d,54,postalcode,65.7139,-20.288
IS55,geonames2d,55,postalcode,65.7461,-19.6394
IS56,geonames2d,56,postalcode,65.7835,-19.4242
IS57,geonames2d,57,postalcode,66.0514,-19.0166
IS58,geonames2d,58,postalcode,66.152,-18.9081
IS60,geonames2d,60,postalcode,65.6857,-18.0963
IS61,geonames2d,61,postalcode,66.2452,-18.0942
IS62,geonames2d,62,postalcode,66.0025,-18.5671
IS63,geonames2d,63,postalcode,65.9784,-18.3778
IS64,geonames2d,64,postalcode,65.923,-17.4051
IS65,geonames2d,65,postalcode,65.7215,-17.3606
IS66,geonames2d,66,postalcode,65.6207,-16.9823
IS67,geonames2d,67,postalcode,66.3515,-16.2753
IS68,geonames2d,68,postalcode,66.1446,-15.1556
IS69,geonames2d,69,postalcode,65.7566,-14.8278
IS70,geonames2d,70,postalcode,65.2669,-14.3948
IS71,geonames2d,71,postalcode,65.2243,-14.0192
IS72,geonames2d,72,postalcode,65.5255,-13.8038
IS73,geonames2d,73,postalcode,65.0523,-14.1167
IS74,geonames2d,74,postalcode,65.1482,-13.6837
IS75,geonames2d,75,postalcode,64.8821,-13.9469
IS76,geonames2d,76,postalcode,64.7246,-14.1458
IS78,geonames2d,78,postalcode,64.1317,-15.7069
IS80,geonames2d,80,postalcode,63.9344,-20.9964
IS81,geonames2d,81,postalcode,63.9282,-21.2847
IS82,geonames2d,82,postalcode,63.8505,-21.1039
IS84,geonames2d,84,postalcode,64.176,-20.5282
IS85,geonames2d,85,postalcode,63.8348,-20.4008
IS86,geonames2d,86,postalcode,63.7507,-20.2245
IS87,geonames2d,87,postalcode,63.4194,-19.0097
IS88,geonames2d,88,postalcode,63.7893,-18.0527
IS90,geonames2d,90,postalcode,63.4417,-20.2702
IT67,geonames2d,67,postalcode,42.1325,13.5317
IT66,geonames2d,66,postalcode,42.134,14.3777
IT65,geonames2d,65,postalcode,42.3637,14.0401
IT64,geonames2d,64,postalcode,42.6598,13.7658
IT75,geonames2d,75,postalcode,40.424,16.4504
IT85,geonames2d,85,postalcode,40.4728,15.851
IT87,geonames2d,87,postalcode,39.4859,16.2524
IT88,geonames2d,88,postalcode,38.9547,16.5826
IT89,geonames2d,89,postalcode,38.3378,15.9938
IT83,geonames2d,83,postalcode,40.9586,14.9345
IT82,geonames2d,82,postalcode,41.1731,14.7068
IT81,geonames2d,81,postalcode,41.208,14.159
IT80,geonames2d,80,postalcode,40.8219,14.3335
IT84,geonames2d,84,postalcode,40.4784,15.0667
IT40,geonames2d,40,postalcode,44.4348,11.3143
IT47,geonames2d,47,postalcode,44.0384,12.2742
IT44,geonames2d,44,postalcode,44.8034,11.7826
IT41,geonames2d,41,postalcode,44.506,10.8743
IT29,geonames2d,29,postalcode,44.9035,9.6321
IT43,geonames2d,43,postalcode,44.6745,10.1071
IT48,geonames2d,48,postalcode,44.3638,12.0295
IT42,geonames2d,42,postalcode,44.623,10.5705
IT34,geonames2d,34,postalcode,45.775,13.6256
IT33,geonames2d,33,postalcode,46.094,13.0347
IT16,geonames2d,16,postalcode,44.4321,9.0861
IT18,geonames2d,18,postalcode,43.9079,7.8252
IT19,geonames2d,19,postalcode,44.1478,9.8212
IT12,geonames2d,12,postalcode,44.5163,7.7374
IT17,geonames2d,17,postalcode,44.2533,8.3053
IT24,geonames2d,24,postalcode,45.7456,9.7393
IT25,geonames2d,25,postalcode,45.6352,10.2626
IT22,geonames2d,22,postalcode,45.864,9.1258
IT26,geonames2d,26,postalcode,45.2371,9.8359
IT23,geonames2d,23,postalcode,46.0583,9.6124
IT20,geonames2d,20,postalcode,45.5131,9.1823
IT46,geonames2d,46,postalcode,45.1123,10.7568
IT27,geonames2d,27,postalcode,45.1155,9.0941
IT21,geonames2d,21,postalcode,45.8034,8.783
IT03,geonames2d,03,postalcode,41.6073,13.5645
IT04,geonames2d,04,postalcode,41.4156,13.181
IT02,geonames2d,02,postalcode,42.3356,12.9081
IT00,geonames2d,00,postalcode,41.9123,12.5899
IT01,geonames2d,01,postalcode,42.4354,12.1012
IT60,geonames2d,60,postalcode,43.5192,13.1927
IT63,geonames2d,63,postalcode,42.9642,13.5979
IT62,geonames2d,62,postalcode,43.2147,13.2926
IT61,geonames2d,61,postalcode,43.7545,12.7329
IT86,geonames2d,86,postalcode,41.6533,14.4973
IT15,geonames2d,15,postalcode,44.8699,8.6232
IT14,geonames2d,14,postalcode,44.8922,8.181
IT13,geonames2d,13,postalcode,45.5532,8.1709
IT28,geonames2d,28,postalcode,45.8115,8.4607
IT10,geonames2d,10,postalcode,45.1571,7.5721
IT70,geonames2d,70,postalcode,40.9908,16.8847
IT72,geonames2d,72,postalcode,40.6563,17.6193
IT76,geonames2d,76,postalcode,41.2297,16.1942
IT71,geonames2d,71,postalcode,41.5334,15.4744
IT73,geonames2d,73,postalcode,40.1281,18.2315
IT74,geonames2d,74,postalcode,40.4851,17.2842
IT92,geonames2d,92,postalcode,37.4443,13.5047
IT93,geonames2d,93,postalcode,37.4501,13.9654
IT95,geonames2d,95,postalcode,37.5881,15.0037
IT94,geonames2d,94,postalcode,37.5979,14.3923
IT98,geonames2d,98,postalcode,38.1383,15.2086
IT90,geonames2d,90,postalcode,37.9989,13.5
IT97,geonames2d,97,postalcode,36.885,14.6893
IT96,geonames2d,96,postalcode,37.0499,15.0664
IT91,geonames2d,91,postalcode,37.901,12.6667
IT08,geonames2d,08,postalcode,40.3023,9.3148
IT09,geonames2d,09,postalcode,39.5381,8.8359
IT07,geonames2d,07,postalcode,40.749,8.8768
IT52,geonames2d,52,postalcode,43.5304,11.8093
IT50,geonames2d,50,postalcode,43.7794,11.2273
IT58,geonames2d,58,postalcode,42.7983,11.2513
IT57,geonames2d,57,postalcode,43.1671,10.4172
IT55,geonames2d,55,postalcode,43.9805,10.4308
IT54,geonames2d,54,postalcode,44.1986,10.0354
IT56,geonames2d,56,postalcode,43.5805,10.6294
IT59,geonames2d,59,postalcode,43.9187,11.0886
IT51,geonames2d,51,postalcode,43.9516,10.8422
IT53,geonames2d,53,postalcode,43.2112,11.4682
IT39,geonames2d,39,postalcode,46.6469,11.3924
IT38,geonames2d,38,postalcode,46.1098,11.1123
IT06,geonames2d,06,postalcode,43.049,12.5129
IT05,geonames2d,05,postalcode,42.6392,12.3949
IT11,geonames2d,11,postalcode,45.7396,7.437
IT32,geonames2d,32,postalcode,46.2577,12.1685
IT35,geonames2d,35,postalcode,45.3722,11.823
IT45,geonames2d,45,postalcode,45.0218,11.8474
IT31,geonames2d,31,postalcode,45.7862,12.2042
IT30,geonames2d,30,postalcode,45.5006,12.3749
IT36,geonames2d,36,postalcode,45.6457,11.4965
IT37,geonames2d,37,postalcode,45.4083,11.0429
JEJE,geonames2d,JE,postalcode,49.2,-2.1333
JP49,geonames2d,49,postalcode,35.1176,136.8889
JP44,geonames2d,44,postalcode,34.99,137.1211
JP47,geonames2d,47,postalcode,35.0286,136.9743
JP48,geonames2d,48,postalcode,35.0065,137.0997
JP45,geonames2d,45,postalcode,35.0597,137.0014
JP46,geonames2d,46,postalcode,35.0394,137.0826
JP43,geonames2d,43,postalcode,34.9604,138.3796
JP01,geonames2d,01,postalcode,39.7407,140.2892
JP03,geonames2d,03,postalcode,40.6803,140.8326
JP27,geonames2d,27,postalcode,35.7286,139.9943
JP29,geonames2d,29,postalcode,35.3001,140.0994
JP28,geonames2d,28,postalcode,35.5115,140.2029
JP26,geonames2d,26,postalcode,35.6441,140.0591
JP79,geonames2d,79,postalcode,33.784,132.9115
JP91,geonames2d,91,postalcode,35.9999,136.2028
JP92,geonames2d,92,postalcode,36.7271,136.7016
JP82,geonames2d,82,postalcode,33.6487,130.8145
JP83,geonames2d,83,postalcode,33.3689,130.5937
JP81,geonames2d,81,postalcode,33.695,130.2615
JP80,geonames2d,80,postalcode,33.8604,130.8285
JP87,geonames2d,87,postalcode,33.2637,131.45
JP96,geonames2d,96,postalcode,37.4667,140.2903
JP97,geonames2d,97,postalcode,37.2643,140.8266
JP50,geonames2d,50,postalcode,35.7124,136.9735
JP37,geonames2d,37,postalcode,36.3877,139.0721
JP38,geonames2d,38,postalcode,36.4926,138.2597
JP73,geonames2d,73,postalcode,34.3795,132.5502
JP72,geonames2d,72,postalcode,34.5678,133.094
JP08,geonames2d,08,postalcode,43.0292,143.9727
JP09,geonames2d,09,postalcode,43.7392,143.3486
JP04,geonames2d,04,postalcode,42.5231,141.6024
JP06,geonames2d,06,postalcode,42.9819,142.5507
JP07,geonames2d,07,postalcode,43.3393,142.7189
JP05,geonames2d,05,postalcode,42.5726,142.2669
JP00,geonames2d,00,postalcode,42.9259,142.6081
JP67,geonames2d,67,postalcode,34.8426,134.8487
JP66,geonames2d,66,postalcode,34.9488,135.1204
JP65,geonames2d,65,postalcode,34.6499,135.0665
JP56,geonames2d,56,postalcode,34.8031,135.5372
JP30,geonames2d,30,postalcode,36.1273,140.1616
JP31,geonames2d,31,postalcode,36.2871,140.4285
JP93,geonames2d,93,postalcode,36.7079,137.1656
JP02,geonames2d,02,postalcode,39.5974,141.2843
JP76,geonames2d,76,postalcode,34.3181,133.9702
JP89,geonames2d,89,postalcode,30.7014,130.3003
JP25,geonames2d,25,postalcode,35.3732,139.2957
JP23,geonames2d,23,postalcode,35.3715,139.6392
JP24,geonames2d,24,postalcode,35.4212,139.4862
JP22,geonames2d,22,postalcode,35.4881,139.5939
JP21,geonames2d,21,postalcode,35.5652,139.6369
JP78,geonames2d,78,postalcode,33.3705,133.3474
JP86,geonames2d,86,postalcode,32.6859,130.6907
JP62,geonames2d,62,postalcode,35.2851,135.419
JP60,geonames2d,60,postalcode,34.9807,135.8357
JP61,geonames2d,61,postalcode,35.0953,135.587
JP52,geonames2d,52,postalcode,35.1306,136.1227
JP51,geonames2d,51,postalcode,34.6871,136.4133
JP64,geonames2d,64,postalcode,34.1029,135.3752
JP98,geonames2d,98,postalcode,38.5212,141.111
JP88,geonames2d,88,postalcode,31.9584,131.3169
JP39,geonames2d,39,postalcode,36.0969,138.0257
JP94,geonames2d,94,postalcode,37.3773,138.6845
JP85,geonames2d,85,postalcode,33.0818,129.6636
JP84,geonames2d,84,postalcode,33.3173,130.1072
JP63,geonames2d,63,postalcode,34.5162,135.8108
JP95,geonames2d,95,postalcode,37.8362,139.0124
JP70,geonames2d,70,postalcode,34.7985,133.8787
JP71,geonames2d,71,postalcode,34.717,133.6433
JP58,geonames2d,58,postalcode,34.546,135.5855
JP59,geonames2d,59,postalcode,34.4956,135.4321
JP57,geonames2d,57,postalcode,34.7338,135.6105
JP54,geonames2d,54,postalcode,34.6602,135.5225
JP53,geonames2d,53,postalcode,34.7126,135.5195
JP55,geonames2d,55,postalcode,34.6504,135.4783
JP36,geonames2d,36,postalcode,36.0548,139.4201
JP33,geonames2d,33,postalcode,35.8821,139.6744
JP35,geonames2d,35,postalcode,35.9158,139.5176
JP34,geonames2d,34,postalcode,35.9617,139.7217
JP68,geonames2d,68,postalcode,35.451,133.7867
JP69,geonames2d,69,postalcode,35.1372,132.6114
JP42,geonames2d,42,postalcode,35.0273,138.4679
JP41,geonames2d,41,postalcode,35.0779,138.8521
JP32,geonames2d,32,postalcode,36.6368,139.8419
JP77,geonames2d,77,postalcode,34.017,134.2983
JP20,geonames2d,20,postalcode,35.7062,139.5495
JP19,geonames2d,19,postalcode,35.6464,139.4917
JP13,geonames2d,13,postalcode,35.6838,139.8296
JP16,geonames2d,16,postalcode,35.701,139.6817
JP14,geonames2d,14,postalcode,35.5956,139.719
JP15,geonames2d,15,postalcode,35.6475,139.6756
JP17,geonames2d,17,postalcode,35.7473,139.687
JP18,geonames2d,18,postalcode,35.7032,139.5568
JP10,geonames2d,10,postalcode,35.2014,139.6779
JP11,geonames2d,11,postalcode,35.733,139.759
JP12,geonames2d,12,postalcode,35.7697,139.8119
JP99,geonames2d,99,postalcode,38.48,140.1321
JP74,geonames2d,74,postalcode,34.0376,131.7224
JP75,geonames2d,75,postalcode,34.073,131.1402
JP40,geonames2d,40,postalcode,35.5228,138.7082
JP90,geonames2d,90,postalcode,26.1804,127.5048
KR63,geonames2d,63,postalcode,33.427,126.5115
KR54,geonames2d,54,postalcode,35.9028,126.9279
KR55,geonames2d,55,postalcode,35.7285,127.3345
KR56,geonames2d,56,postalcode,35.5482,126.8172
KR28,geonames2d,28,postalcode,36.6366,127.5205
KR27,geonames2d,27,postalcode,36.9868,127.8388
KR29,geonames2d,29,postalcode,36.2484,127.7072
KR24,geonames2d,24,postalcode,38.0635,127.9516
KR26,geonames2d,26,postalcode,37.2975,128.2679
KR25,geonames2d,25,postalcode,37.6586,128.6985
KR48,geonames2d,48,postalcode,35.1431,129.0901
KR49,geonames2d,49,postalcode,35.0899,129.0089
KR47,geonames2d,47,postalcode,35.1761,129.0608
KR46,geonames2d,46,postalcode,35.2136,129.0435
KR03,geonames2d,03,postalcode,37.5855,126.9414
KR04,geonames2d,04,postalcode,37.5509,126.9942
KR05,geonames2d,05,postalcode,37.5219,127.1188
KR02,geonames2d,02,postalcode,37.5925,127.0601
KR01,geonames2d,01,postalcode,37.6441,127.0461
KR07,geonames2d,07,postalcode,37.5309,126.8762
KR08,geonames2d,08,postalcode,37.4869,126.8914
KR06,geonames2d,06,postalcode,37.497,127.0232
KR22,geonames2d,22,postalcode,37.4988,126.6427
KR21,geonames2d,21,postalcode,37.4703,126.713
KR23,geonames2d,23,postalcode,37.6214,126.267
KR16,geonames2d,16,postalcode,37.2943,127.0286
KR13,geonames2d,13,postalcode,37.4223,127.0997
KR11,geonames2d,11,postalcode,37.816,127.0845
KR14,geonames2d,14,postalcode,37.4618,126.8303
KR17,geonames2d,17,postalcode,37.1151,127.1935
KR18,geonames2d,18,postalcode,37.1819,126.9618
KR15,geonames2d,15,postalcode,37.325,126.8198
KR10,geonames2d,10,postalcode,37.6894,126.7689
KR12,geonames2d,12,postalcode,37.5548,127.3273
KR37,geonames2d,37,postalcode,36.1904,128.9744
KR38,geonames2d,38,postalcode,35.8545,128.9433
KR39,geonames2d,39,postalcode,36.1169,128.3342
KR36,geonames2d,36,postalcode,36.7075,128.7613
KR40,geonames2d,40,postalcode,36.2075,128.8724
KR41,geonames2d,41,postalcode,35.8883,128.6072
KR42,geonames2d,42,postalcode,35.8338,128.5742
KR43,geonames2d,43,postalcode,35.6782,128.4414
KR58,geonames2d,58,postalcode,34.858,126.5725
KR59,geonames2d,59,postalcode,34.6341,127.1558
KR57,geonames2d,57,postalcode,35.1522,127.1219
KR31,geonames2d,31,postalcode,36.8294,126.9292
KR32,geonames2d,32,postalcode,36.4496,126.9248
KR33,geonames2d,33,postalcode,36.2665,126.7813
KR61,geonames2d,61,postalcode,35.1589,126.8991
KR62,geonames2d,62,postalcode,35.1639,126.8181
KR34,geonames2d,34,postalcode,36.3537,127.4034
KR35,geonames2d,35,postalcode,36.3209,127.3837
KR52,geonames2d,52,postalcode,35.158,128.1166
KR53,geonames2d,53,postalcode,34.8656,128.5465
KR50,geonames2d,50,postalcode,35.4213,128.608
KR51,geonames2d,51,postalcode,35.2088,128.6396
KR44,geonames2d,44,postalcode,35.543,129.3205
KR45,geonames2d,45,postalcode,35.4107,129.3184
KR30,geonames2d,30,postalcode,36.5707,127.2842
LI94,geonames2d,94,postalcode,47.1776,9.5405
LK50,geonames2d,50,postalcode,8.2586,80.4976
LK32,geonames2d,32,postalcode,7.2444,81.647
LK30,geonames2d,30,postalcode,7.707,81.6415
LK90,geonames2d,90,postalcode,6.9961,81.0175
LK96,geonames2d,96,postalcode,6.7819,80.8931
LK00,geonames2d,00,postalcode,6.9455,79.9306
LK01,geonames2d,01,postalcode,6.948,79.8642
LK10,geonames2d,10,postalcode,6.8809,80.0205
LK80,geonames2d,80,postalcode,6.207,80.2223
LK11,geonames2d,11,postalcode,7.1242,80.0181
LK82,geonames2d,82,postalcode,6.1963,80.9502
LK40,geonames2d,40,postalcode,9.6684,80.0074
LK71,geonames2d,71,postalcode,7.1583,80.331
LK60,geonames2d,60,postalcode,7.6047,80.2387
LK12,geonames2d,12,postalcode,6.5755,80.0924
LK20,geonames2d,20,postalcode,7.2303,80.6609
LK41,geonames2d,41,postalcode,8.9833,79.9
LK81,geonames2d,81,postalcode,6.134,80.5542
LK70,geonames2d,70,postalcode,6.6208,80.5281
LK91,geonames2d,91,postalcode,6.8601,81.293
LK42,geonames2d,42,postalcode,9.1762,80.5686
LK21,geonames2d,21,postalcode,7.6207,80.6546
LK22,geonames2d,22,postalcode,6.985,80.7162
LK51,geonames2d,51,postalcode,7.9007,80.7776
LK61,geonames2d,61,postalcode,7.7473,79.8734
LK31,geonames2d,31,postalcode,8.5071,81.1579
LK43,geonames2d,43,postalcode,8.7514,80.4971
LT00,geonames2d,00,postalcode,55.9175,21.0686
LT01,geonames2d,01,postalcode,54.6824,25.2864
LT02,geonames2d,02,postalcode,54.6591,25.2613
LT03,geonames2d,03,postalcode,54.6747,25.259
LT04,geonames2d,04,postalcode,54.6826,25.2121
LT05,geonames2d,05,postalcode,54.7145,25.2211
LT06,geonames2d,06,postalcode,54.7221,25.2119
LT07,geonames2d,07,postalcode,54.7181,25.2487
LT08,geonames2d,08,postalcode,54.7239,25.2808
LT09,geonames2d,09,postalcode,54.7057,25.2939
LT10,geonames2d,10,postalcode,54.7104,25.3173
LT11,geonames2d,11,postalcode,54.6858,25.3577
LT12,geonames2d,12,postalcode,54.7312,25.2335
LT13,geonames2d,13,postalcode,54.6589,25.4801
LT14,geonames2d,14,postalcode,54.7179,25.2471
LT15,geonames2d,15,postalcode,54.8253,25.508
LT17,geonames2d,17,postalcode,54.2878,25.3068
LT18,geonames2d,18,postalcode,55.1228,26.0314
LT19,geonames2d,19,postalcode,55.0366,24.8866
LT20,geonames2d,20,postalcode,55.2473,24.8284
LT21,geonames2d,21,postalcode,54.6285,24.748
LT25,geonames2d,25,postalcode,54.6629,25.1474
LT26,geonames2d,26,postalcode,54.7854,24.663
LT27,geonames2d,27,postalcode,54.682,25.1765
LT28,geonames2d,28,postalcode,55.5269,25.6943
LT29,geonames2d,29,postalcode,55.5301,25.0749
LT30,geonames2d,30,postalcode,55.3868,26.4008
LT31,geonames2d,31,postalcode,55.6,26.4167
LT32,geonames2d,32,postalcode,55.7053,26.0527
LT33,geonames2d,33,postalcode,55.1724,25.4286
LT35,geonames2d,35,postalcode,55.7083,24.4417
LT36,geonames2d,36,postalcode,55.7333,24.35
LT37,geonames2d,37,postalcode,55.7333,24.35
LT38,geonames2d,38,postalcode,55.648,24.4046
LT39,geonames2d,39,postalcode,56.0559,24.3702
LT40,geonames2d,40,postalcode,55.8601,24.9505
LT41,geonames2d,41,postalcode,56.0975,24.8754
LT42,geonames2d,42,postalcode,55.9541,25.5213
LT44,geonames2d,44,postalcode,54.9,23.9
LT45,geonames2d,45,postalcode,54.9,23.9
LT46,geonames2d,46,postalcode,54.9,23.9
LT47,geonames2d,47,postalcode,54.9,23.9
LT48,geonames2d,48,postalcode,54.9,23.9
LT49,geonames2d,49,postalcode,54.9,23.9
LT50,geonames2d,50,postalcode,54.9,23.9
LT51,geonames2d,51,postalcode,54.9,23.9
LT52,geonames2d,52,postalcode,54.9,23.9
LT53,geonames2d,53,postalcode,54.9617,23.7727
LT54,geonames2d,54,postalcode,55.0686,23.8064
LT55,geonames2d,55,postalcode,55.1343,24.2945
LT56,geonames2d,56,postalcode,54.8351,24.3739
LT57,geonames2d,57,postalcode,55.2883,23.9747
LT58,geonames2d,58,postalcode,55.3554,23.9293
LT59,geonames2d,59,postalcode,54.6481,23.9927
LT60,geonames2d,60,postalcode,55.3982,23.1292
LT62,geonames2d,62,postalcode,54.4,24.05
LT63,geonames2d,63,postalcode,54.4,24.05
LT64,geonames2d,64,postalcode,54.4034,24.0924
LT65,geonames2d,65,postalcode,54.2377,24.4452
LT66,geonames2d,66,postalcode,54.0167,23.9667
LT67,geonames2d,67,postalcode,54.1861,23.6547
LT68,geonames2d,68,postalcode,54.5667,23.35
LT69,geonames2d,69,postalcode,54.5839,23.3959
LT70,geonames2d,70,postalcode,54.7735,23.093
LT71,geonames2d,71,postalcode,54.9545,23.1832
LT72,geonames2d,72,postalcode,55.1845,22.136
LT73,geonames2d,73,postalcode,55.3535,22.3823
LT74,geonames2d,74,postalcode,55.1314,22.8396
LT75,geonames2d,75,postalcode,55.5225,22.2629
LT76,geonames2d,76,postalcode,55.9333,23.3167
LT78,geonames2d,78,postalcode,55.9333,23.3167
LT79,geonames2d,79,postalcode,55.9333,23.3167
LT80,geonames2d,80,postalcode,55.924,23.2286
LT81,geonames2d,81,postalcode,56.0284,23.0363
LT82,geonames2d,82,postalcode,55.7201,23.661
LT83,geonames2d,83,postalcode,56.0804,23.8833
LT84,geonames2d,84,postalcode,56.2927,23.5567
LT85,geonames2d,85,postalcode,56.2437,22.8153
LT86,geonames2d,86,postalcode,55.6507,22.8633
LT87,geonames2d,87,postalcode,55.9814,22.2472
LT88,geonames2d,88,postalcode,55.9033,22.3794
LT89,geonames2d,89,postalcode,56.2852,22.3311
LT90,geonames2d,90,postalcode,55.8959,21.8889
LT91,geonames2d,91,postalcode,55.7172,21.1175
LT93,geonames2d,93,postalcode,55.3719,21.0647
LT94,geonames2d,94,postalcode,55.7172,21.1175
LT96,geonames2d,96,postalcode,55.6398,21.488
LT97,geonames2d,97,postalcode,55.9865,21.3819
LT98,geonames2d,98,postalcode,56.2109,21.6219
LT99,geonames2d,99,postalcode,55.3448,21.6477
LUL-,geonames2d,L-,postalcode,49.6468,6.0972
LVLV,geonames2d,LV,postalcode,56.5002,26.5703
MC98,geonames2d,98,postalcode,43.7323,7.4215
MDMD,geonames2d,MD,postalcode,47.3118,28.3994
MH96,geonames2d,96,postalcode,11.1405,166.4103
MK10,geonames2d,10,postalcode,41.9471,21.4678
MK12,geonames2d,12,postalcode,41.8764,20.9561
MK13,geonames2d,13,postalcode,42.1566,21.9065
MK14,geonames2d,14,postalcode,41.4466,22.0786
MK20,geonames2d,20,postalcode,41.7458,22.1958
MK22,geonames2d,22,postalcode,41.8721,22.0758
MK23,geonames2d,23,postalcode,41.8544,22.6
MK24,geonames2d,24,postalcode,41.4736,22.5627
MK60,geonames2d,60,postalcode,41.1172,20.8019
MK62,geonames2d,62,postalcode,41.5264,21.0991
MK63,geonames2d,63,postalcode,41.2252,20.7113
MK65,geonames2d,65,postalcode,41.5722,21.1657
MK70,geonames2d,70,postalcode,41.0311,21.3403
MK72,geonames2d,72,postalcode,41.0902,21.3844
MK73,geonames2d,73,postalcode,41.0186,21.0637
MK75,geonames2d,75,postalcode,41.3388,21.451
MP96,geonames2d,96,postalcode,14.7838,145.5193
MQ97,geonames2d,97,postalcode,14.6269,-61.0533
MTAT,geonames2d,AT,postalcode,35.8917,14.4319
MTBZ,geonames2d,BZ,postalcode,35.8972,14.4528
MTBR,geonames2d,BR,postalcode,35.8861,14.5242
MTBK,geonames2d,BK,postalcode,35.8972,14.4653
MTBB,geonames2d,BB,postalcode,35.8222,14.5228
MTBM,geonames2d,BM,postalcode,35.8806,14.5217
MTDG,geonames2d,DG,postalcode,35.8597,14.3833
MTFG,geonames2d,FG,postalcode,35.8728,14.5203
MTFR,geonames2d,FR,postalcode,35.8917,14.5042
MTFN,geonames2d,FN,postalcode,36.0375,14.2361
MTGS,geonames2d,GS,postalcode,36.046,14.2539
MTKM,geonames2d,KM,postalcode,36.0267,14.2861
MTGR,geonames2d,GR,postalcode,36.0681,14.2014
MTGH,geonames2d,GH,postalcode,35.9236,14.455
MTGX,geonames2d,GX,postalcode,35.8458,14.5167
MTGD,geonames2d,GD,postalcode,35.8514,14.5033
MTGZ,geonames2d,GZ,postalcode,35.9056,14.4928
MTHM,geonames2d,HM,postalcode,35.8869,14.4883
MTIK,geonames2d,IK,postalcode,35.9097,14.4556
MTMD,geonames2d,MD,postalcode,35.8872,14.4053
MTMG,geonames2d,MG,postalcode,35.9194,14.3639
MTMQ,geonames2d,MQ,postalcode,35.845,14.4675
MTMS,geonames2d,MS,postalcode,35.8906,14.488
MTMT,geonames2d,MT,postalcode,35.8835,14.4447
MTIS,geonames2d,IS,postalcode,35.8878,14.5169
MTKK,geonames2d,KK,postalcode,35.8676,14.5085
MTSC,geonames2d,SC,postalcode,35.8911,14.5328
MTKC,geonames2d,KC,postalcode,36.0439,14.2161
MTLJ,geonames2d,LJ,postalcode,35.9014,14.4422
MTLQ,geonames2d,LQ,postalcode,35.8597,14.4833
MTMR,geonames2d,MR,postalcode,35.8764,14.4922
MTMX,geonames2d,MX,postalcode,35.9355,14.3885
MTML,geonames2d,ML,postalcode,35.9583,14.3514
MTXL,geonames2d,XL,postalcode,36.0292,14.2256
MTND,geonames2d,ND,postalcode,36.0486,14.2944
MTNX,geonames2d,NX,postalcode,35.9333,14.4375
MTPL,geonames2d,PL,postalcode,35.8736,14.5061
MTPB,geonames2d,PB,postalcode,35.9306,14.4764
MTPT,geonames2d,PT,postalcode,35.8925,14.4939
MTQL,geonames2d,QL,postalcode,36.0375,14.3167
MTQR,geonames2d,QR,postalcode,35.8555,14.459
MTRB,geonames2d,RB,postalcode,35.8826,14.3978
MTVC,geonames2d,VC,postalcode,36.0453,14.2417
MTSF,geonames2d,SF,postalcode,35.8347,14.4917
MTSG,geonames2d,SG,postalcode,35.8787,14.4507
MTST,geonames2d,ST,postalcode,35.9172,14.4894
MTSL,geonames2d,SL,postalcode,35.9409,14.4021
MTSP,geonames2d,SP,postalcode,35.9375,14.3986
MTSV,geonames2d,SV,postalcode,35.8903,14.4778
MTSN,geonames2d,SN,postalcode,36.0231,14.2514
MTSW,geonames2d,SW,postalcode,35.9217,14.4694
MTTX,geonames2d,TX,postalcode,35.8667,14.5131
MTXB,geonames2d,XB,postalcode,35.8994,14.4961
MTVL,geonames2d,VL,postalcode,35.8983,14.5125
MTXR,geonames2d,XR,postalcode,36.0542,14.2667
MTXW,geonames2d,XW,postalcode,36.0333,14.2611
MTXJ,geonames2d,XJ,postalcode,35.8847,14.5486
MTZB,geonames2d,ZB,postalcode,35.9384,14.4074
MTMF,geonames2d,MF,postalcode,36.0667,14.2444
MTZT,geonames2d,ZT,postalcode,35.8578,14.5333
MTZR,geonames2d,ZR,postalcode,35.8222,14.4833
MX20,geonames2d,20,postalcode,21.9651,-102.311
MX22,geonames2d,22,postalcode,32.0001,-116.5703
MX21,geonames2d,21,postalcode,32.4583,-115.428
MX23,geonames2d,23,postalcode,24.49,-110.6972
MX24,geonames2d,24,postalcode,18.915,-90.6824
MX32,geonames2d,32,postalcode,31.128,-106.2021
MX33,geonames2d,33,postalcode,27.1655,-106.6076
MX31,geonames2d,31,postalcode,28.9013,-106.9596
MX30,geonames2d,30,postalcode,15.7456,-92.7283
MX29,geonames2d,29,postalcode,17.0102,-92.7679
MX25,geonames2d,25,postalcode,25.8436,-101.149
MX26,geonames2d,26,postalcode,28.3652,-100.9268
MX27,geonames2d,27,postalcode,25.7341,-103.1028
MX28,geonames2d,28,postalcode,19.1811,-103.8891
MX02,geonames2d,02,postalcode,22.9108,-101.7816
MX04,geonames2d,04,postalcode,20.107,-101.072
MX05,geonames2d,05,postalcode,19.3679,-99.468
MX07,geonames2d,07,postalcode,19.2503,-97.7895
MX08,geonames2d,08,postalcode,23.2316,-101.6247
MX09,geonames2d,09,postalcode,20.523,-98.2353
MX10,geonames2d,10,postalcode,19.3316,-99.198
MX12,geonames2d,12,postalcode,19.2058,-99.0383
MX01,geonames2d,01,postalcode,19.2994,-99.1471
MX13,geonames2d,13,postalcode,19.2753,-99.0855
MX14,geonames2d,14,postalcode,19.3151,-99.1614
MX16,geonames2d,16,postalcode,19.2564,-99.078
MX03,geonames2d,03,postalcode,23.1829,-102.1798
MX06,geonames2d,06,postalcode,21.2376,-100.1138
MX11,geonames2d,11,postalcode,19.3537,-99.1926
MX15,geonames2d,15,postalcode,19.3755,-99.166
MX34,geonames2d,34,postalcode,24.0881,-105.2717
MX35,geonames2d,35,postalcode,25.5881,-104.6882
MX39,geonames2d,39,postalcode,17.1782,-99.6082
MX41,geonames2d,41,postalcode,17.3343,-98.7368
MX40,geonames2d,40,postalcode,18.1001,-100.4226
MX36,geonames2d,36,postalcode,20.7224,-101.5152
MX38,geonames2d,38,postalcode,20.3719,-100.8713
MX37,geonames2d,37,postalcode,21.1777,-100.9451
MX43,geonames2d,43,postalcode,20.4884,-98.5181
MX42,geonames2d,42,postalcode,20.3845,-99.1314
MX45,geonames2d,45,postalcode,20.609,-103.356
MX46,geonames2d,46,postalcode,21.408,-103.9152
MX49,geonames2d,49,postalcode,19.5944,-102.9857
MX47,geonames2d,47,postalcode,21.1311,-102.269
MX48,geonames2d,48,postalcode,20.1218,-104.7185
MX44,geonames2d,44,postalcode,20.6005,-103.2958
MX50,geonames2d,50,postalcode,19.5887,-99.818
MX55,geonames2d,55,postalcode,19.6408,-99.0106
MX51,geonames2d,51,postalcode,18.9224,-100.0856
MX52,geonames2d,52,postalcode,19.2653,-99.4715
MX56,geonames2d,56,postalcode,19.3144,-98.8712
MX54,geonames2d,54,postalcode,19.6801,-99.2587
MX53,geonames2d,53,postalcode,19.4806,-99.2889
MX57,geonames2d,57,postalcode,19.3787,-99.0641
MX58,geonames2d,58,postalcode,19.741,-101.3045
MX60,geonames2d,60,postalcode,18.8289,-102.5598
MX61,geonames2d,61,postalcode,19.314,-100.9922
MX59,geonames2d,59,postalcode,20.0502,-102.4048
MX62,geonames2d,62,postalcode,18.8057,-99.0965
MX63,geonames2d,63,postalcode,21.738,-104.8974
MX65,geonames2d,65,postalcode,26.1871,-100.1791
MX66,geonames2d,66,postalcode,25.7364,-100.3156
MX67,geonames2d,67,postalcode,25.1506,-100.0314
MX64,geonames2d,64,postalcode,25.5621,-100.2653
MX68,geonames2d,68,postalcode,17.6056,-96.535
MX70,geonames2d,70,postalcode,16.3494,-95.879
MX69,geonames2d,69,postalcode,17.5153,-97.7248
MX71,geonames2d,71,postalcode,16.6356,-97.2801
MX75,geonames2d,75,postalcode,18.7962,-97.5389
MX73,geonames2d,73,postalcode,19.9847,-97.6887
MX74,geonames2d,74,postalcode,18.6364,-98.3564
MX72,geonames2d,72,postalcode,19.0429,-98.2305
MX76,geonames2d,76,postalcode,20.7363,-100.0273
MX77,geonames2d,77,postalcode,19.8665,-88.0392
MX81,geonames2d,81,postalcode,25.9154,-108.573
MX80,geonames2d,80,postalcode,24.928,-107.4033
MX82,geonames2d,82,postalcode,23.3927,-106.2689
MX78,geonames2d,78,postalcode,22.6374,-100.9704
MX79,geonames2d,79,postalcode,21.877,-99.5292
MX84,geonames2d,84,postalcode,30.7606,-110.1852
MX85,geonames2d,85,postalcode,27.3437,-109.733
MX83,geonames2d,83,postalcode,29.342,-111.4584
MX86,geonames2d,86,postalcode,17.9446,-92.617
MX87,geonames2d,87,postalcode,24.5801,-98.4951
MX89,geonames2d,89,postalcode,22.5444,-98.2643
MX88,geonames2d,88,postalcode,26.3755,-98.7098
MX90,geonames2d,90,postalcode,19.4108,-98.2032
MX91,geonames2d,91,postalcode,19.4303,-96.7262
MX96,geonames2d,96,postalcode,17.8141,-94.5252
MX95,geonames2d,95,postalcode,18.413,-95.704
MX94,geonames2d,94,postalcode,18.9231,-96.8913
MX93,geonames2d,93,postalcode,20.1652,-97.1478
MX92,geonames2d,92,postalcode,21.1557,-97.9003
MX97,geonames2d,97,postalcode,20.8363,-89.2346
MX99,geonames2d,99,postalcode,22.4741,-103.1814
MX98,geonames2d,98,postalcode,22.9513,-102.3845
MY79,geonames2d,79,postalcode,1.606,103.5779
MY80,geonames2d,80,postalcode,1.4712,103.7515
MY81,geonames2d,81,postalcode,1.6341,103.6674
MY82,geonames2d,82,postalcode,1.5922,103.3384
MY83,geonames2d,83,postalcode,1.8215,103.1198
MY84,geonames2d,84,postalcode,2.0662,102.81
MY85,geonames2d,85,postalcode,2.2443,103.0935
MY86,geonames2d,86,postalcode,2.0754,103.4766
MY05,geonames2d,05,postalcode,6.1062,100.3709
MY06,geonames2d,06,postalcode,6.0742,100.434
MY07,geonames2d,07,postalcode,6.2968,99.8876
MY08,geonames2d,08,postalcode,5.7569,100.5072
MY09,geonames2d,09,postalcode,5.557,100.624
MY14,geonames2d,14,postalcode,5.3375,100.4602
MY34,geonames2d,34,postalcode,4.877,100.7344
MY15,geonames2d,15,postalcode,6.1081,102.2485
MY16,geonames2d,16,postalcode,6.0091,102.2869
MY17,geonames2d,17,postalcode,5.899,102.1017
MY18,geonames2d,18,postalcode,5.5252,102.1415
MY50,geonames2d,50,postalcode,3.1401,101.6876
MY51,geonames2d,51,postalcode,3.1663,101.6857
MY52,geonames2d,52,postalcode,3.1805,101.6633
MY53,geonames2d,53,postalcode,3.1764,101.6973
MY54,geonames2d,54,postalcode,3.1638,101.7201
MY55,geonames2d,55,postalcode,3.1384,101.6946
MY56,geonames2d,56,postalcode,3.0994,101.7333
MY57,geonames2d,57,postalcode,3.1221,101.6912
MY58,geonames2d,58,postalcode,3.1227,101.6849
MY59,geonames2d,59,postalcode,3.1333,101.6809
MY60,geonames2d,60,postalcode,3.1456,101.645
MY68,geonames2d,68,postalcode,3.2017,101.7006
MY87,geonames2d,87,postalcode,5.2915,115.2458
MY75,geonames2d,75,postalcode,2.21,102.2576
MY76,geonames2d,76,postalcode,2.2684,102.2317
MY77,geonames2d,77,postalcode,2.2695,102.4149
MY78,geonames2d,78,postalcode,2.3613,102.1435
MY70,geonames2d,70,postalcode,2.7194,101.9506
MY71,geonames2d,71,postalcode,2.681,101.9626
MY72,geonames2d,72,postalcode,2.853,102.2723
MY73,geonames2d,73,postalcode,2.6646,102.435
MY25,geonames2d,25,postalcode,3.8059,103.2958
MY26,geonames2d,26,postalcode,3.615,103.0126
MY27,geonames2d,27,postalcode,3.9046,102.1293
MY28,geonames2d,28,postalcode,3.439,102.3018
MY39,geonames2d,39,postalcode,4.378,101.4902
MY49,geonames2d,49,postalcode,3.7188,101.7403
MY69,geonames2d,69,postalcode,3.422,101.7892
MY62,geonames2d,62,postalcode,2.9276,101.6955
MY01,geonames2d,01,postalcode,6.4437,100.1995
MY02,geonames2d,02,postalcode,6.4105,100.2333
MY10,geonames2d,10,postalcode,5.4164,100.33
MY11,geonames2d,11,postalcode,5.377,100.2912
MY12,geonames2d,12,postalcode,5.4204,100.3811
MY13,geonames2d,13,postalcode,5.4165,100.4193
MY30,geonames2d,30,postalcode,4.6101,101.1058
MY31,geonames2d,31,postalcode,4.4941,101.0912
MY32,geonames2d,32,postalcode,4.4366,100.8463
MY33,geonames2d,33,postalcode,4.9913,100.978
MY35,geonames2d,35,postalcode,4.0505,101.312
MY36,geonames2d,36,postalcode,4.1102,100.9382
MY88,geonames2d,88,postalcode,5.9398,116.1941
MY89,geonames2d,89,postalcode,5.6951,116.1219
MY90,geonames2d,90,postalcode,5.8361,117.9934
MY91,geonames2d,91,postalcode,4.6015,118.1316
MY40,geonames2d,40,postalcode,3.105,101.5214
MY41,geonames2d,41,postalcode,3.0445,101.4501
MY42,geonames2d,42,postalcode,2.984,101.4936
MY43,geonames2d,43,postalcode,2.9847,101.7493
MY44,geonames2d,44,postalcode,3.339,101.5806
MY45,geonames2d,45,postalcode,3.4343,101.2468
MY46,geonames2d,46,postalcode,3.1059,101.6107
MY47,geonames2d,47,postalcode,3.0857,101.6038
MY48,geonames2d,48,postalcode,3.2642,101.5517
MY63,geonames2d,63,postalcode,2.9239,101.6636
MY64,geonames2d,64,postalcode,2.8239,101.687
MY93,geonames2d,93,postalcode,1.556,110.3915
MY94,geonames2d,94,postalcode,1.389,110.525
MY95,geonames2d,95,postalcode,1.4765,111.4045
MY96,geonames2d,96,postalcode,2.1899,112.0128
MY97,geonames2d,97,postalcode,3.0738,112.9533
MY98,geonames2d,98,postalcode,3.739,113.8225
MY20,geonames2d,20,postalcode,5.2814,103.129
MY21,geonames2d,21,postalcode,5.27,103.0777
MY22,geonames2d,22,postalcode,5.6421,102.6778
MY23,geonames2d,23,postalcode,4.7418,103.2762
MY24,geonames2d,24,postalcode,4.3684,103.3719
NC98,geonames2d,98,postalcode,-21.4504,165.862
NL94,geonames2d,94,postalcode,52.9738,6.6014
NL77,geonames2d,77,postalcode,52.5959,6.588
NL78,geonames2d,78,postalcode,52.789,6.864
NL79,geonames2d,79,postalcode,52.7308,6.4012
NL95,geonames2d,95,postalcode,52.9595,6.9294
NL96,geonames2d,96,postalcode,53.1572,6.8865
NL93,geonames2d,93,postalcode,53.124,6.3929
NL97,geonames2d,97,postalcode,53.2296,6.5883
NL83,geonames2d,83,postalcode,52.7841,5.9878
NL84,geonames2d,84,postalcode,52.9547,6.0205
NL92,geonames2d,92,postalcode,53.1685,6.0786
NL98,geonames2d,98,postalcode,53.2513,6.3357
NL91,geonames2d,91,postalcode,53.3497,5.9677
NL88,geonames2d,88,postalcode,53.2302,5.4784
NL89,geonames2d,89,postalcode,53.2013,5.8054
NL90,geonames2d,90,postalcode,53.2041,5.7575
NL85,geonames2d,85,postalcode,52.9169,5.6881
NL86,geonames2d,86,postalcode,53.0317,5.641
NL87,geonames2d,87,postalcode,53.0417,5.4813
NL70,geonames2d,70,postalcode,51.9231,6.332
NL71,geonames2d,71,postalcode,51.9999,6.6531
NL38,geonames2d,38,postalcode,52.2413,5.5009
NL73,geonames2d,73,postalcode,52.2035,5.9962
NL68,geonames2d,68,postalcode,51.9789,5.8869
NL37,geonames2d,37,postalcode,52.1507,5.3386
NL65,geonames2d,65,postalcode,51.8101,5.8887
NL66,geonames2d,66,postalcode,51.8682,5.706
NL69,geonames2d,69,postalcode,51.9804,6.0894
NL40,geonames2d,40,postalcode,51.9,5.4376
NL41,geonames2d,41,postalcode,51.9062,5.1977
NL67,geonames2d,67,postalcode,52.0259,5.6612
NL80,geonames2d,80,postalcode,52.4886,6.0219
NL81,geonames2d,81,postalcode,52.3855,6.1928
NL72,geonames2d,72,postalcode,52.1249,6.2941
NL53,geonames2d,53,postalcode,51.7718,5.4476
NL39,geonames2d,39,postalcode,52.0226,5.3697
NL74,geonames2d,74,postalcode,52.2675,6.3797
NL42,geonames2d,42,postalcode,51.8212,4.996
NL99,geonames2d,99,postalcode,53.35,6.6787
NL63,geonames2d,63,postalcode,50.8751,5.9107
NL61,geonames2d,61,postalcode,51.0143,5.8413
NL59,geonames2d,59,postalcode,51.3755,6.0905
NL58,geonames2d,58,postalcode,51.5583,6.0009
NL64,geonames2d,64,postalcode,50.9094,5.9831
NL62,geonames2d,62,postalcode,50.8325,5.7822
NL60,geonames2d,60,postalcode,51.2198,5.8469
NL57,geonames2d,57,postalcode,51.4553,5.7291
NL51,geonames2d,51,postalcode,51.6149,5.0237
NL46,geonames2d,46,postalcode,51.52,4.2659
NL56,geonames2d,56,postalcode,51.4569,5.4765
NL54,geonames2d,54,postalcode,51.6488,5.6814
NL52,geonames2d,52,postalcode,51.6802,5.3089
NL48,geonames2d,48,postalcode,51.5699,4.7404
NL55,geonames2d,55,postalcode,51.3811,5.3771
NL49,geonames2d,49,postalcode,51.6629,4.8112
NL50,geonames2d,50,postalcode,51.5466,5.1045
NL47,geonames2d,47,postalcode,51.5807,4.5034
NL14,geonames2d,14,postalcode,52.4188,4.9318
NL15,geonames2d,15,postalcode,52.4758,4.803
NL16,geonames2d,16,postalcode,52.6799,5.074
NL18,geonames2d,18,postalcode,52.6223,4.755
NL11,geonames2d,11,postalcode,52.3524,4.9247
NL10,geonames2d,10,postalcode,52.3728,4.8827
NL19,geonames2d,19,postalcode,52.5072,4.6543
NL12,geonames2d,12,postalcode,52.2532,5.1927
NL20,geonames2d,20,postalcode,52.3894,4.6363
NL21,geonames2d,21,postalcode,52.2944,4.607
NL17,geonames2d,17,postalcode,52.8172,4.8334
NL13,geonames2d,13,postalcode,52.3612,5.1939
NL24,geonames2d,24,postalcode,52.1239,4.6401
NL36,geonames2d,36,postalcode,52.1704,4.9811
NL34,geonames2d,34,postalcode,52.0518,4.9643
NL35,geonames2d,35,postalcode,52.0939,5.1049
NL44,geonames2d,44,postalcode,51.4848,3.8888
NL45,geonames2d,45,postalcode,51.3108,3.8059
NL43,geonames2d,43,postalcode,51.5707,3.7058
NL29,geonames2d,29,postalcode,51.9,4.6475
NL23,geonames2d,23,postalcode,52.1649,4.5228
NL27,geonames2d,27,postalcode,52.057,4.5349
NL32,geonames2d,32,postalcode,51.8096,4.2862
NL26,geonames2d,26,postalcode,52.0025,4.3292
NL33,geonames2d,33,postalcode,51.8201,4.7079
NL28,geonames2d,28,postalcode,51.9904,4.7433
NL22,geonames2d,22,postalcode,52.1263,4.3911
NL25,geonames2d,25,postalcode,52.0711,4.2902
NL31,geonames2d,31,postalcode,51.9067,4.3362
NL30,geonames2d,30,postalcode,51.92,4.4828
NL76,geonames2d,76,postalcode,52.4061,6.6965
NL75,geonames2d,75,postalcode,52.2598,6.8931
NL82,geonames2d,82,postalcode,52.5319,5.7235
NO17,geonames2d,17,postalcode,59.1991,11.269
NO15,geonames2d,15,postalcode,59.4443,10.6804
NO16,geonames2d,16,postalcode,59.2129,10.9447
NO18,geonames2d,18,postalcode,59.5573,11.236
NO19,geonames2d,19,postalcode,59.8794,11.3379
NO14,geonames2d,14,postalcode,59.8196,10.8036
NO13,geonames2d,13,postalcode,59.8924,10.549
NO20,geonames2d,20,postalcode,60.1147,11.1041
NO21,geonames2d,21,postalcode,60.2523,11.5509
NO00,geonames2d,00,postalcode,59.9127,10.7461
NO01,geonames2d,01,postalcode,59.9127,10.7461
NO02,geonames2d,02,postalcode,59.9127,10.7461
NO03,geonames2d,03,postalcode,59.9127,10.7461
NO04,geonames2d,04,postalcode,59.9127,10.7461
NO05,geonames2d,05,postalcode,59.9127,10.7461
NO06,geonames2d,06,postalcode,59.9127,10.7461
NO07,geonames2d,07,postalcode,59.9127,10.7461
NO08,geonames2d,08,postalcode,59.9127,10.7461
NO09,geonames2d,09,postalcode,59.9127,10.7461
NO10,geonames2d,10,postalcode,59.9127,10.7461
NO11,geonames2d,11,postalcode,59.9127,10.7461
NO12,geonames2d,12,postalcode,59.9127,10.7461
NO22,geonames2d,22,postalcode,60.2636,12.0679
NO23,geonames2d,23,postalcode,60.82,11.0376
NO26,geonames2d,26,postalcode,61.5358,9.7245
NO24,geonames2d,24,postalcode,61.2149,11.7135
NO25,geonames2d,25,postalcode,62.2774,10.7076
NO28,geonames2d,28,postalcode,60.7784,10.5396
NO35,geonames2d,35,postalcode,60.3557,9.5698
NO27,geonames2d,27,postalcode,60.3228,10.5892
NO29,geonames2d,29,postalcode,61.0265,9.0954
NO30,geonames2d,30,postalcode,59.691,10.2035
NO36,geonames2d,36,postalcode,59.7378,9.318
NO33,geonames2d,33,postalcode,59.911,9.8238
NO34,geonames2d,34,postalcode,59.7451,10.3742
NO31,geonames2d,31,postalcode,59.2875,10.4029
NO32,geonames2d,32,postalcode,59.1093,10.1267
NO39,geonames2d,39,postalcode,59.1202,9.6636
NO37,geonames2d,37,postalcode,59.1513,9.5434
NO38,geonames2d,38,postalcode,59.4231,8.5669
NO49,geonames2d,49,postalcode,58.6731,9.0362
NO48,geonames2d,48,postalcode,58.4451,8.6676
NO47,geonames2d,47,postalcode,58.5323,7.9429
NO46,geonames2d,46,postalcode,58.1561,7.9875
NO45,geonames2d,45,postalcode,58.1533,7.2143
NO44,geonames2d,44,postalcode,58.4026,6.7192
NO43,geonames2d,43,postalcode,58.7401,5.786
NO40,geonames2d,40,postalcode,58.9605,5.704
NO41,geonames2d,41,postalcode,59.1237,5.9609
NO55,geonames2d,55,postalcode,59.4609,5.4564
NO42,geonames2d,42,postalcode,59.3727,5.6769
NO50,geonames2d,50,postalcode,60.393,5.3242
NO51,geonames2d,51,postalcode,60.4129,5.2866
NO52,geonames2d,52,postalcode,60.3266,5.4051
NO58,geonames2d,58,postalcode,60.393,5.3242
NO54,geonames2d,54,postalcode,59.8253,5.6056
NO56,geonames2d,56,postalcode,60.1895,5.8515
NO57,geonames2d,57,postalcode,60.547,6.5815
NO53,geonames2d,53,postalcode,60.3431,5.1113
NO59,geonames2d,59,postalcode,60.7345,5.1751
NO69,geonames2d,69,postalcode,61.3519,5.2441
NO68,geonames2d,68,postalcode,61.3875,6.6625
NO67,geonames2d,67,postalcode,61.9033,5.7774
NO64,geonames2d,64,postalcode,62.7805,7.2078
NO60,geonames2d,60,postalcode,62.4172,6.0084
NO65,geonames2d,65,postalcode,63.1081,7.7673
NO61,geonames2d,61,postalcode,62.1693,6.0606
NO62,geonames2d,62,postalcode,62.4396,6.7258
NO63,geonames2d,63,postalcode,62.5848,7.3831
NO66,geonames2d,66,postalcode,62.9918,8.4841
NO80,geonames2d,80,postalcode,67.3021,14.3561
NO81,geonames2d,81,postalcode,66.852,13.7591
NO85,geonames2d,85,postalcode,68.4183,17.2274
NO79,geonames2d,79,postalcode,64.9353,11.7879
NO89,geonames2d,89,postalcode,65.4832,12.182
NO88,geonames2d,88,postalcode,65.9881,12.5585
NO86,geonames2d,86,postalcode,66.0672,13.7521
NO87,geonames2d,87,postalcode,66.403,12.9096
NO82,geonames2d,82,postalcode,67.562,15.5369
NO84,geonames2d,84,postalcode,68.7588,15.3161
NO94,geonames2d,94,postalcode,68.7597,16.6551
NO83,geonames2d,83,postalcode,68.1802,14.0293
NO90,geonames2d,90,postalcode,69.5703,19.2318
NO91,geonames2d,91,postalcode,69.8376,20.0514
NO92,geonames2d,92,postalcode,69.6489,18.9551
NO93,geonames2d,93,postalcode,69.1839,17.8977
NO99,geonames2d,99,postalcode,70.0963,29.959
NO98,geonames2d,98,postalcode,70.1202,28.8793
NO96,geonames2d,96,postalcode,70.7366,23.8931
NO95,geonames2d,95,postalcode,70.0494,22.8247
NO97,geonames2d,97,postalcode,70.5567,26.0809
NO70,geonames2d,70,postalcode,63.4112,10.3936
NO74,geonames2d,74,postalcode,63.4305,10.3951
NO77,geonames2d,77,postalcode,64.0812,11.299
NO78,geonames2d,78,postalcode,64.5423,12.0817
NO72,geonames2d,72,postalcode,63.437,9.427
NO71,geonames2d,71,postalcode,63.7729,9.9201
NO73,geonames2d,73,postalcode,63.0484,10.0878
NO75,geonames2d,75,postalcode,63.3839,11.0012
NO76,geonames2d,76,postalcode,63.7383,11.2677
NZ06,geonames2d,06,postalcode,-36.853,174.6593
NZ07,geonames2d,07,postalcode,-36.7744,174.6978
NZ08,geonames2d,08,postalcode,-36.7159,174.5058
NZ09,geonames2d,09,postalcode,-36.409,174.7627
NZ10,geonames2d,10,postalcode,-36.8762,174.8007
NZ11,geonames2d,11,postalcode,-36.8514,174.7655
NZ12,geonames2d,12,postalcode,-36.8725,174.7268
NZ13,geonames2d,13,postalcode,-36.8916,174.7467
NZ14,geonames2d,14,postalcode,-36.9091,174.7407
NZ15,geonames2d,15,postalcode,-36.8932,174.8143
NZ16,geonames2d,16,postalcode,-36.912,174.8268
NZ17,geonames2d,17,postalcode,-36.8689,174.8232
NZ18,geonames2d,18,postalcode,-36.7871,175.037
NZ19,geonames2d,19,postalcode,-36.7833,175.0833
NZ20,geonames2d,20,postalcode,-36.9398,174.8869
NZ21,geonames2d,21,postalcode,-36.9952,174.8838
NZ22,geonames2d,22,postalcode,-37.0368,174.9179
NZ23,geonames2d,23,postalcode,-37.2006,174.8582
NZ25,geonames2d,25,postalcode,-37.045,175.0
NZ26,geonames2d,26,postalcode,-37.2527,174.8411
NZ30,geonames2d,30,postalcode,-38.2423,176.3022
NZ31,geonames2d,31,postalcode,-37.8363,176.5122
NZ34,geonames2d,34,postalcode,-37.9876,175.7132
NZ36,geonames2d,36,postalcode,-37.3422,175.7833
NZ72,geonames2d,72,postalcode,-41.5136,173.9158
NZ73,geonames2d,73,postalcode,-42.6475,173.0876
NZ74,geonames2d,74,postalcode,-43.1928,172.5901
NZ75,geonames2d,75,postalcode,-43.5979,172.4058
NZ76,geonames2d,76,postalcode,-43.5684,172.3754
NZ77,geonames2d,77,postalcode,-43.789,171.711
NZ79,geonames2d,79,postalcode,-44.3096,170.9977
NZ80,geonames2d,80,postalcode,-43.5331,172.6331
NZ81,geonames2d,81,postalcode,-43.533,172.6355
NZ82,geonames2d,82,postalcode,-43.5605,172.6448
NZ84,geonames2d,84,postalcode,-43.5375,172.5467
NZ85,geonames2d,85,postalcode,-43.4886,172.5961
NZ86,geonames2d,86,postalcode,-43.5175,172.6959
NZ88,geonames2d,88,postalcode,-43.5544,172.7326
NZ89,geonames2d,89,postalcode,-43.6489,172.7484
NZ94,geonames2d,94,postalcode,-45.1155,170.6724
NZ40,geonames2d,40,postalcode,-38.2765,178.0342
NZ33,geonames2d,33,postalcode,-38.1648,175.807
NZ41,geonames2d,41,postalcode,-39.3887,176.9707
NZ42,geonames2d,42,postalcode,-39.992,176.5405
NZ39,geonames2d,39,postalcode,-38.5835,175.1732
NZ44,geonames2d,44,postalcode,-40.3442,175.5745
NZ45,geonames2d,45,postalcode,-39.8133,174.9634
NZ46,geonames2d,46,postalcode,-39.4646,174.4352
NZ47,geonames2d,47,postalcode,-39.9098,175.6602
NZ48,geonames2d,48,postalcode,-40.3479,175.4399
NZ49,geonames2d,49,postalcode,-40.4107,175.9973
NZ55,geonames2d,55,postalcode,-40.6764,175.2152
NZ71,geonames2d,71,postalcode,-41.1054,173.2385
NZ70,geonames2d,70,postalcode,-41.3544,173.0769
NZ01,geonames2d,01,postalcode,-35.7106,174.3115
NZ02,geonames2d,02,postalcode,-35.3011,174.0559
NZ03,geonames2d,03,postalcode,-35.913,173.8587
NZ04,geonames2d,04,postalcode,-35.2148,173.4805
NZ05,geonames2d,05,postalcode,-36.1015,174.3153
NZ90,geonames2d,90,postalcode,-45.8593,170.4565
NZ92,geonames2d,92,postalcode,-46.1984,169.7981
NZ93,geonames2d,93,postalcode,-44.978,169.3438
NZ95,geonames2d,95,postalcode,-45.9455,169.5471
NZ97,geonames2d,97,postalcode,-45.863,168.6557
NZ96,geonames2d,96,postalcode,-45.8686,167.8468
NZ98,geonames2d,98,postalcode,-46.4138,168.4575
NZ43,geonames2d,43,postalcode,-39.1238,174.2626
NZ24,geonames2d,24,postalcode,-37.2471,175.1035
NZ32,geonames2d,32,postalcode,-37.7911,175.2085
NZ35,geonames2d,35,postalcode,-36.9925,175.6033
NZ37,geonames2d,37,postalcode,-37.5349,175.153
NZ38,geonames2d,38,postalcode,-38.0399,175.2106
NZ50,geonames2d,50,postalcode,-41.1735,174.9218
NZ51,geonames2d,51,postalcode,-41.145,175.0209
NZ52,geonames2d,52,postalcode,-41.0329,174.9217
NZ53,geonames2d,53,postalcode,-41.0843,175.03
NZ57,geonames2d,57,postalcode,-41.1598,175.4297
NZ58,geonames2d,58,postalcode,-40.9558,175.7779
NZ60,geonames2d,60,postalcode,-41.2808,174.7759
NZ61,geonames2d,61,postalcode,-41.2879,174.7779
NZ62,geonames2d,62,postalcode,-41.3219,174.8031
NZ64,geonames2d,64,postalcode,-41.2374,174.7979
NZ69,geonames2d,69,postalcode,-41.2883,174.7102
NZ78,geonames2d,78,postalcode,-42.3929,171.3318
PH04,geonames2d,04,postalcode,14.5918,121.0504
PH05,geonames2d,05,postalcode,14.6886,120.9875
PH08,geonames2d,08,postalcode,14.6389,121.0529
PH09,geonames2d,09,postalcode,13.2947,123.7933
PH10,geonames2d,10,postalcode,13.8405,121.5737
PH11,geonames2d,11,postalcode,14.6793,121.1375
PH12,geonames2d,12,postalcode,14.2822,121.5748
PH13,geonames2d,13,postalcode,13.9508,121.1579
PH14,geonames2d,14,postalcode,14.4827,121.1227
PH15,geonames2d,15,postalcode,14.5865,121.0371
PH16,geonames2d,16,postalcode,14.5908,121.0281
PH17,geonames2d,17,postalcode,14.7963,121.3692
PH18,geonames2d,18,postalcode,13.3781,121.6826
PH19,geonames2d,19,postalcode,14.5159,121.1268
PH20,geonames2d,20,postalcode,14.9893,120.688
PH21,geonames2d,21,postalcode,14.5065,120.6119
PH22,geonames2d,22,postalcode,14.7972,120.7081
PH23,geonames2d,23,postalcode,15.2788,120.8252
PH24,geonames2d,24,postalcode,16.1359,120.4955
PH25,geonames2d,25,postalcode,16.1601,120.5717
PH26,geonames2d,26,postalcode,16.8026,120.8007
PH27,geonames2d,27,postalcode,16.893,120.7081
PH28,geonames2d,28,postalcode,16.8937,120.8286
PH29,geonames2d,29,postalcode,18.0728,120.6603
PH30,geonames2d,30,postalcode,14.8494,120.8932
PH31,geonames2d,31,postalcode,15.3434,121.0936
PH32,geonames2d,32,postalcode,15.3435,122.0315
PH33,geonames2d,33,postalcode,16.4683,121.5796
PH34,geonames2d,34,postalcode,16.4554,121.5923
PH35,geonames2d,35,postalcode,17.894,121.5378
PH36,geonames2d,36,postalcode,16.8126,121.0888
PH37,geonames2d,37,postalcode,16.1726,121.1296
PH38,geonames2d,38,postalcode,17.6893,121.3229
PH39,geonames2d,39,postalcode,20.4515,121.9141
PH40,geonames2d,40,postalcode,14.389,121.3139
PH41,geonames2d,41,postalcode,14.2111,121.037
PH42,geonames2d,42,postalcode,14.0089,121.2729
PH43,geonames2d,43,postalcode,14.1286,121.8477
PH44,geonames2d,44,postalcode,13.4333,123.1807
PH45,geonames2d,45,postalcode,13.1847,123.424
PH46,geonames2d,46,postalcode,14.197,122.8474
PH47,geonames2d,47,postalcode,13.0111,123.7198
PH48,geonames2d,48,postalcode,13.4761,123.8696
PH49,geonames2d,49,postalcode,13.5689,121.8097
PH50,geonames2d,50,postalcode,11.1576,122.7834
PH51,geonames2d,51,postalcode,13.818,120.9741
PH52,geonames2d,52,postalcode,13.2275,121.3889
PH53,geonames2d,53,postalcode,10.5734,119.4093
PH54,geonames2d,54,postalcode,12.639,123.1633
PH55,geonames2d,55,postalcode,13.0131,122.0319
PH56,geonames2d,56,postalcode,11.2347,122.5517
PH57,geonames2d,57,postalcode,11.1284,122.3756
PH58,geonames2d,58,postalcode,11.3011,122.6989
PH60,geonames2d,60,postalcode,10.4925,123.4688
PH61,geonames2d,61,postalcode,10.4238,122.9439
PH62,geonames2d,62,postalcode,9.5692,123.3988
PH63,geonames2d,63,postalcode,10.3042,123.8307
PH64,geonames2d,64,postalcode,12.9,123.8436
PH65,geonames2d,65,postalcode,11.1074,124.3477
PH66,geonames2d,66,postalcode,10.6227,124.6472
PH67,geonames2d,67,postalcode,11.8089,124.8146
PH68,geonames2d,68,postalcode,11.7519,125.2286
PH70,geonames2d,70,postalcode,8.1988,123.3144
PH71,geonames2d,71,postalcode,8.432,122.9099
PH72,geonames2d,72,postalcode,9.2942,123.3945
PH73,geonames2d,73,postalcode,6.5886,122.0189
PH74,geonames2d,74,postalcode,6.4373,121.0752
PH75,geonames2d,75,postalcode,5.255,119.8488
PH80,geonames2d,80,postalcode,6.4892,125.4394
PH81,geonames2d,81,postalcode,7.4943,125.8982
PH82,geonames2d,82,postalcode,9.6825,124.4713
PH83,geonames2d,83,postalcode,9.2256,125.6989
PH84,geonames2d,84,postalcode,10.1619,125.024
PH85,geonames2d,85,postalcode,8.3327,125.8751
PH86,geonames2d,86,postalcode,10.1608,124.8182
PH87,geonames2d,87,postalcode,8.0635,124.9181
PH90,geonames2d,90,postalcode,8.7649,124.6038
PH91,geonames2d,91,postalcode,9.8213,124.7299
PH92,geonames2d,92,postalcode,8.3969,123.8472
PH93,geonames2d,93,postalcode,7.9891,124.2147
PH94,geonames2d,94,postalcode,7.5014,124.7652
PH95,geonames2d,95,postalcode,6.2575,124.96
PH96,geonames2d,96,postalcode,7.1431,124.2762
PH97,geonames2d,97,postalcode,7.8538,124.2661
PH98,geonames2d,98,postalcode,6.5913,124.5729
PK10,geonames2d,10,postalcode,32.2443,72.8269
PK11,geonames2d,11,postalcode,33.3306,73.0694
PK12,geonames2d,12,postalcode,31.9077,71.546
PK13,geonames2d,13,postalcode,33.7944,73.343
PK14,geonames2d,14,postalcode,35.0637,74.448
PK15,geonames2d,15,postalcode,34.1421,73.176
PK16,geonames2d,16,postalcode,34.1244,74.0533
PK17,geonames2d,17,postalcode,34.6579,72.0592
PK18,geonames2d,18,postalcode,34.0937,71.6075
PK19,geonames2d,19,postalcode,34.7579,72.4662
PK20,geonames2d,20,postalcode,34.7458,73.3333
PK21,geonames2d,21,postalcode,33.8914,72.6057
PK22,geonames2d,22,postalcode,33.4182,72.6619
PK23,geonames2d,23,postalcode,33.7972,71.8178
PK24,geonames2d,24,postalcode,33.4679,71.3762
PK25,geonames2d,25,postalcode,33.8644,71.733
PK26,geonames2d,26,postalcode,33.1163,70.6664
PK27,geonames2d,27,postalcode,33.2801,71.0722
PK28,geonames2d,28,postalcode,32.6633,70.6443
PK29,geonames2d,29,postalcode,31.3442,70.5179
PK30,geonames2d,30,postalcode,31.8744,71.2494
PK31,geonames2d,31,postalcode,31.2978,71.7937
PK32,geonames2d,32,postalcode,30.2157,70.5114
PK33,geonames2d,33,postalcode,29.304,70.4167
PK34,geonames2d,34,postalcode,29.909,70.8772
PK35,geonames2d,35,postalcode,31.2567,72.3375
PK36,geonames2d,36,postalcode,30.8491,72.6013
PK37,geonames2d,37,postalcode,30.9564,72.2278
PK38,geonames2d,38,postalcode,31.8465,73.1631
PK39,geonames2d,39,postalcode,31.9329,73.4158
PK40,geonames2d,40,postalcode,31.9686,72.4307
PK41,geonames2d,41,postalcode,32.2252,72.1925
PK42,geonames2d,42,postalcode,31.9932,71.6502
PK43,geonames2d,43,postalcode,33.2162,72.2373
PK44,geonames2d,44,postalcode,33.7235,73.0648
PK45,geonames2d,45,postalcode,32.9471,72.9714
PK46,geonames2d,46,postalcode,33.4405,72.8542
PK47,geonames2d,47,postalcode,33.0268,72.9333
PK48,geonames2d,48,postalcode,32.4801,72.472
PK49,geonames2d,49,postalcode,32.671,73.0153
PK50,geonames2d,50,postalcode,32.3766,73.5724
PK51,geonames2d,51,postalcode,32.1484,74.149
PK52,geonames2d,52,postalcode,32.1653,73.8714
PK53,geonames2d,53,postalcode,31.4749,73.8085
PK54,geonames2d,54,postalcode,31.502,74.3752
PK55,geonames2d,55,postalcode,31.223,73.9831
PK56,geonames2d,56,postalcode,30.7934,73.4771
PK57,geonames2d,57,postalcode,30.47,72.6832
PK58,geonames2d,58,postalcode,30.4559,72.1146
PK59,geonames2d,59,postalcode,29.9977,71.7203
PK60,geonames2d,60,postalcode,30.1507,71.5263
PK61,geonames2d,61,postalcode,30.2058,72.4102
PK62,geonames2d,62,postalcode,29.9245,72.5941
PK63,geonames2d,63,postalcode,29.4296,71.3149
PK64,geonames2d,64,postalcode,28.3669,70.2043
PK65,geonames2d,65,postalcode,27.8637,69.2773
PK66,geonames2d,66,postalcode,27.75,68.9462
PK67,geonames2d,67,postalcode,27.2184,68.6158
PK68,geonames2d,68,postalcode,26.6857,69.4137
PK69,geonames2d,69,postalcode,26.889,69.6183
PK70,geonames2d,70,postalcode,26.2279,68.803
PK71,geonames2d,71,postalcode,27.698,69.0776
PK72,geonames2d,72,postalcode,25.9792,69.2011
PK73,geonames2d,73,postalcode,25.6164,68.2802
PK76,geonames2d,76,postalcode,27.2254,68.5299
PK77,geonames2d,77,postalcode,28.1099,68.8013
PK78,geonames2d,78,postalcode,28.0622,68.9201
PK79,geonames2d,79,postalcode,28.3163,69.404
PK80,geonames2d,80,postalcode,28.5557,68.3661
PK81,geonames2d,81,postalcode,29.0722,67.7988
PK82,geonames2d,82,postalcode,28.031,65.8633
PK83,geonames2d,83,postalcode,29.9,69.25
PK84,geonames2d,84,postalcode,30.6665,69.1607
PK85,geonames2d,85,postalcode,31.3601,68.7052
PK86,geonames2d,86,postalcode,29.6722,66.452
PK87,geonames2d,87,postalcode,30.23,67.3765
PK88,geonames2d,88,postalcode,29.2433,66.6409
PK89,geonames2d,89,postalcode,28.3529,66.8628
PK90,geonames2d,90,postalcode,25.5651,66.9089
PK91,geonames2d,91,postalcode,25.1875,63.3116
PK92,geonames2d,92,postalcode,26.1609,62.6006
PK93,geonames2d,93,postalcode,28.6792,65.8354
PK94,geonames2d,94,postalcode,29.0564,65.4161
PK95,geonames2d,95,postalcode,29.0979,64.3793
PK96,geonames2d,96,postalcode,29.8456,67.9565
PK97,geonames2d,97,postalcode,30.3756,69.3452
PL56,geonames2d,56,postalcode,51.456,17.0316
PL59,geonames2d,59,postalcode,51.2243,15.8257
PL79,geonames2d,79,postalcode,52.3199,15.0397
PL52,geonames2d,52,postalcode,51.0639,17.0132
PL58,geonames2d,58,postalcode,50.8186,16.3284
PL67,geonames2d,67,postalcode,51.7487,15.9226
PL54,geonames2d,54,postalcode,51.1284,16.9287
PL57,geonames2d,57,postalcode,50.5991,16.9169
PL50,geonames2d,50,postalcode,51.1026,17.0402
PL55,geonames2d,55,postalcode,51.137,16.9207
PL51,geonames2d,51,postalcode,51.1379,17.081
PL36,geonames2d,36,postalcode,49.9901,21.988
PL53,geonames2d,53,postalcode,51.0938,17.0075
PL69,geonames2d,69,postalcode,52.3659,14.9359
PL74,geonames2d,74,postalcode,53.0008,14.7407
PL98,geonames2d,98,postalcode,51.4486,18.7198
PL25,geonames2d,25,postalcode,50.8683,20.6093
PL05,geonames2d,05,postalcode,52.1564,21.0707
PL87,geonames2d,87,postalcode,52.8736,19.0835
PL37,geonames2d,37,postalcode,50.1378,22.5622
PL00,geonames2d,00,postalcode,52.2288,21.0069
PL68,geonames2d,68,postalcode,51.6533,15.0527
PL76,geonames2d,76,postalcode,54.3096,16.7244
PL85,geonames2d,85,postalcode,53.1409,18.0005
PL86,geonames2d,86,postalcode,53.3722,18.3918
PL89,geonames2d,89,postalcode,53.4639,17.6659
PL80,geonames2d,80,postalcode,54.3665,18.6161
PL88,geonames2d,88,postalcode,52.7338,18.2152
PL82,geonames2d,82,postalcode,53.9823,19.1826
PL83,geonames2d,83,postalcode,54.0998,18.2336
PL78,geonames2d,78,postalcode,53.7141,16.1083
PL84,geonames2d,84,postalcode,54.6153,18.0142
PL97,geonames2d,97,postalcode,51.3316,19.6652
PL99,geonames2d,99,postalcode,52.0951,19.3311
PL91,geonames2d,91,postalcode,51.7963,19.4396
PL92,geonames2d,92,postalcode,51.7683,19.5621
PL95,geonames2d,95,postalcode,51.8052,19.5165
PL26,geonames2d,26,postalcode,51.2736,20.814
PL96,geonames2d,96,postalcode,52.0005,20.3294
PL90,geonames2d,90,postalcode,51.7665,19.4602
PL93,geonames2d,93,postalcode,51.725,19.4734
PL94,geonames2d,94,postalcode,51.7622,19.3887
PL21,geonames2d,21,postalcode,51.6671,22.7804
PL23,geonames2d,23,postalcode,50.789,22.4698
PL22,geonames2d,22,postalcode,50.8847,23.4214
PL33,geonames2d,33,postalcode,49.8314,20.8337
PL20,geonames2d,20,postalcode,51.2327,22.5393
PL24,geonames2d,24,postalcode,51.2359,22.0529
PL08,geonames2d,08,postalcode,52.1041,22.1403
PL66,geonames2d,66,postalcode,52.3864,15.3831
PL06,geonames2d,06,postalcode,52.9363,20.7875
PL63,geonames2d,63,postalcode,51.7898,17.4828
PL65,geonames2d,65,postalcode,51.9365,15.5088
PL30,geonames2d,30,postalcode,50.0374,19.9564
PL31,geonames2d,31,postalcode,50.0815,19.9695
PL32,geonames2d,32,postalcode,50.102,20.06
PL35,geonames2d,35,postalcode,50.033,21.9834
PL03,geonames2d,03,postalcode,52.2708,21.0403
PL38,geonames2d,38,postalcode,49.5924,21.8223
PL39,geonames2d,39,postalcode,50.1824,21.4706
PL34,geonames2d,34,postalcode,49.6632,19.8641
PL42,geonames2d,42,postalcode,50.6997,19.1812
PL04,geonames2d,04,postalcode,52.2152,21.143
PL41,geonames2d,41,postalcode,50.3502,18.8684
PL44,geonames2d,44,postalcode,50.1869,18.5219
PL28,geonames2d,28,postalcode,50.498,20.6745
PL09,geonames2d,09,postalcode,52.6535,19.9195
PL27,geonames2d,27,postalcode,50.9181,21.4657
PL07,geonames2d,07,postalcode,52.7646,21.7406
PL18,geonames2d,18,postalcode,53.0701,22.3608
PL10,geonames2d,10,postalcode,53.7695,20.4898
PL60,geonames2d,60,postalcode,52.4084,16.8993
PL01,geonames2d,01,postalcode,52.2588,20.9437
PL02,geonames2d,02,postalcode,52.1879,20.9944
PL49,geonames2d,49,postalcode,50.7705,17.5462
PL47,geonames2d,47,postalcode,50.3794,18.0613
PL48,geonames2d,48,postalcode,50.3593,17.5584
PL46,geonames2d,46,postalcode,50.9291,18.1097
PL45,geonames2d,45,postalcode,50.6595,17.9496
PL16,geonames2d,16,postalcode,53.6432,23.1872
PL15,geonames2d,15,postalcode,53.131,23.1582
PL19,geonames2d,19,postalcode,53.7958,22.4697
PL17,geonames2d,17,postalcode,52.6662,23.1207
PL77,geonames2d,77,postalcode,53.9059,17.2159
PL11,geonames2d,11,postalcode,54.0059,21.0577
PL81,geonames2d,81,postalcode,54.5026,18.5055
PL14,geonames2d,14,postalcode,53.8684,19.804
PL40,geonames2d,40,postalcode,50.2505,19.007
PL43,geonames2d,43,postalcode,49.8996,18.914
PL12,geonames2d,12,postalcode,53.5997,21.4183
PL29,geonames2d,29,postalcode,50.8304,19.9722
PL13,geonames2d,13,postalcode,53.3366,20.1334
PL64,geonames2d,64,postalcode,52.5119,16.4891
PL61,geonames2d,61,postalcode,52.3984,16.9396
PL62,geonames2d,62,postalcode,52.2909,17.907
PL73,geonames2d,73,postalcode,53.2965,15.4222
PL70,geonames2d,70,postalcode,53.4122,14.5783
PL72,geonames2d,72,postalcode,53.7674,14.9555
PL75,geonames2d,75,postalcode,54.1908,16.1874
PL71,geonames2d,71,postalcode,53.4518,14.5365
PM97,geonames2d,97,postalcode,46.9392,-56.2767
PR00,geonames2d,00,postalcode,18.3021,-66.3255
PT37,geonames2d,37,postalcode,40.7647,-8.4562
PT38,geonames2d,38,postalcode,40.727,-8.6177
PT45,geonames2d,45,postalcode,41.114,-8.4366
PT30,geonames2d,30,postalcode,40.25,-8.5557
PT76,geonames2d,76,postalcode,37.6917,-8.4849
PT77,geonames2d,77,postalcode,37.5863,-7.9549
PT79,geonames2d,79,postalcode,38.1748,-7.9985
PT72,geonames2d,72,postalcode,38.4244,-7.4884
PT78,geonames2d,78,postalcode,38.0376,-7.6169
PT47,geonames2d,47,postalcode,41.4726,-8.4903
PT49,geonames2d,49,postalcode,41.8451,-8.603
PT48,geonames2d,48,postalcode,41.4608,-8.2396
PT46,geonames2d,46,postalcode,41.2141,-8.1509
PT53,geonames2d,53,postalcode,41.6083,-6.9757
PT51,geonames2d,51,postalcode,41.1036,-7.4027
PT52,geonames2d,52,postalcode,41.4558,-6.4919
PT62,geonames2d,62,postalcode,40.2811,-7.5607
PT60,geonames2d,60,postalcode,39.8627,-7.4032
PT61,geonames2d,61,postalcode,39.8017,-7.9946
PT63,geonames2d,63,postalcode,40.5353,-7.1848
PT33,geonames2d,33,postalcode,40.1935,-8.0926
PT31,geonames2d,31,postalcode,40.0039,-8.6323
PT32,geonames2d,32,postalcode,39.9895,-8.3184
PT34,geonames2d,34,postalcode,40.4182,-7.9986
PT70,geonames2d,70,postalcode,38.6021,-8.0267
PT71,geonames2d,71,postalcode,38.7961,-7.5284
PT74,geonames2d,74,postalcode,39.1063,-7.8254
PT29,geonames2d,29,postalcode,38.5388,-8.9518
PT82,geonames2d,82,postalcode,37.104,-8.2499
PT89,geonames2d,89,postalcode,37.2757,-7.518
PT86,geonames2d,86,postalcode,37.1364,-8.764
PT80,geonames2d,80,postalcode,37.0326,-7.9299
PT84,geonames2d,84,postalcode,37.1317,-8.4711
PT81,geonames2d,81,postalcode,37.1345,-8.0469
PT85,geonames2d,85,postalcode,37.2066,-8.5634
PT87,geonames2d,87,postalcode,37.0367,-7.8282
PT83,geonames2d,83,postalcode,37.2052,-8.3568
PT88,geonames2d,88,postalcode,37.156,-7.6745
PT93,geonames2d,93,postalcode,32.7087,-17.0903
PT90,geonames2d,90,postalcode,32.6364,-16.9025
PT92,geonames2d,92,postalcode,32.7526,-16.9031
PT91,geonames2d,91,postalcode,32.6764,-16.8194
PT94,geonames2d,94,postalcode,33.0602,-16.3341
PT35,geonames2d,35,postalcode,40.6587,-7.853
PT64,geonames2d,64,postalcode,40.8118,-7.2117
PT36,geonames2d,36,postalcode,40.8737,-7.8574
PT24,geonames2d,24,postalcode,39.6934,-8.8151
PT25,geonames2d,25,postalcode,39.232,-9.2138
PT26,geonames2d,26,postalcode,38.8431,-9.1862
PT20,geonames2d,20,postalcode,39.2394,-8.7617
PT27,geonames2d,27,postalcode,38.7502,-9.3308
PT10,geonames2d,10,postalcode,38.7167,-9.1333
PT11,geonames2d,11,postalcode,38.7167,-9.1333
PT12,geonames2d,12,postalcode,38.7167,-9.1333
PT13,geonames2d,13,postalcode,38.7167,-9.1333
PT14,geonames2d,14,postalcode,38.711,-9.177
PT15,geonames2d,15,postalcode,38.7167,-9.1333
PT16,geonames2d,16,postalcode,38.7595,-9.1796
PT17,geonames2d,17,postalcode,38.7167,-9.1333
PT18,geonames2d,18,postalcode,38.7302,-9.1266
PT19,geonames2d,19,postalcode,38.7167,-9.1333
PT73,geonames2d,73,postalcode,39.1822,-7.3108
PT50,geonames2d,50,postalcode,41.2582,-7.7009
PT44,geonames2d,44,postalcode,41.2105,-8.6243
PT40,geonames2d,40,postalcode,41.1496,-8.611
PT41,geonames2d,41,postalcode,41.1496,-8.611
PT42,geonames2d,42,postalcode,41.1496,-8.611
PT43,geonames2d,43,postalcode,41.1496,-8.611
PT22,geonames2d,22,postalcode,39.515,-8.2529
PT23,geonames2d,23,postalcode,39.5182,-8.5171
PT21,geonames2d,21,postalcode,39.0695,-8.634
PT28,geonames2d,28,postalcode,38.6464,-9.0958
PT75,geonames2d,75,postalcode,38.0706,-8.6047
PT54,geonames2d,54,postalcode,41.6847,-7.5245
PT95,geonames2d,95,postalcode,37.6574,-25.5832
PT96,geonames2d,96,postalcode,37.7859,-25.3816
PT97,geonames2d,97,postalcode,38.7017,-27.175
PT98,geonames2d,98,postalcode,38.6466,-28.1182
PT99,geonames2d,99,postalcode,38.7201,-29.053
PW96,geonames2d,96,postalcode,7.2257,134.3622
RE97,geonames2d,97,postalcode,-21.0337,55.4424
RO51,geonames2d,51,postalcode,46.2047,23.3886
RO31,geonames2d,31,postalcode,46.223,21.5588
RO11,geonames2d,11,postalcode,44.9148,24.8528
RO60,geonames2d,60,postalcode,46.4637,26.9024
RO41,geonames2d,41,postalcode,46.9882,22.0857
RO42,geonames2d,42,postalcode,47.1367,24.4355
RO71,geonames2d,71,postalcode,47.8141,26.733
RO81,geonames2d,81,postalcode,45.2229,27.8806
RO50,geonames2d,50,postalcode,45.7103,25.4387
RO01,geonames2d,01,postalcode,44.4914,26.0602
RO02,geonames2d,02,postalcode,44.418,26.1691
RO03,geonames2d,03,postalcode,44.418,26.1691
RO04,geonames2d,04,postalcode,44.3819,26.1227
RO05,geonames2d,05,postalcode,44.4022,26.0624
RO06,geonames2d,06,postalcode,44.4378,26.0174
RO12,geonames2d,12,postalcode,45.2394,26.7339
RO32,geonames2d,32,postalcode,45.1777,21.9792
RO40,geonames2d,40,postalcode,46.7723,23.6359
RO90,geonames2d,90,postalcode,44.1827,28.4913
RO52,geonames2d,52,postalcode,45.8955,25.89
RO13,geonames2d,13,postalcode,44.8699,25.4833
RO20,geonames2d,20,postalcode,44.299,23.7414
RO80,geonames2d,80,postalcode,45.5575,27.9507
RO21,geonames2d,21,postalcode,44.9506,23.3407
RO53,geonames2d,53,postalcode,46.4449,25.5432
RO33,geonames2d,33,postalcode,45.7949,22.927
RO92,geonames2d,92,postalcode,44.6139,27.1402
RO70,geonames2d,70,postalcode,47.175,27.4665
RO43,geonames2d,43,postalcode,47.6327,23.6328
RO22,geonames2d,22,postalcode,44.6378,22.8056
RO54,geonames2d,54,postalcode,46.5579,24.5547
RO61,geonames2d,61,postalcode,46.951,26.5482
RO23,geonames2d,23,postalcode,44.3938,24.3989
RO10,geonames2d,10,postalcode,45.0075,26.0369
RO45,geonames2d,45,postalcode,47.2027,23.1192
RO44,geonames2d,44,postalcode,47.748,22.8784
RO55,geonames2d,55,postalcode,45.9098,24.2397
RO72,geonames2d,72,postalcode,47.599,26.0547
RO14,geonames2d,14,postalcode,44.0691,25.2172
RO30,geonames2d,30,postalcode,45.7474,21.3397
RO82,geonames2d,82,postalcode,45.108,28.7465
RO73,geonames2d,73,postalcode,46.5146,27.7039
RO24,geonames2d,24,postalcode,45.0263,24.2468
RO62,geonames2d,62,postalcode,45.7622,27.0692
RO91,geonames2d,91,postalcode,44.2846,27.0289
RO08,geonames2d,08,postalcode,43.9694,25.9387
RO07,geonames2d,07,postalcode,44.5164,26.1378
RU38,geonames2d,38,postalcode,44.4325,41.5592
RU64,geonames2d,64,postalcode,55.4751,72.1253
RU65,geonames2d,65,postalcode,53.6348,84.2845
RU67,geonames2d,67,postalcode,54.781,121.2957
RU16,geonames2d,16,postalcode,61.2342,44.7668
RU41,geonames2d,41,postalcode,50.7028,46.6954
RU45,geonames2d,45,postalcode,54.5536,58.2844
RU46,geonames2d,46,postalcode,52.3293,54.9514
RU30,geonames2d,30,postalcode,52.471,37.7529
RU24,geonames2d,24,postalcode,53.5238,35.8362
RU90,geonames2d,90,postalcode,55.7858,37.6256
RU36,geonames2d,36,postalcode,43.2727,45.3608
RU42,geonames2d,42,postalcode,55.962,50.2596
RU66,geonames2d,66,postalcode,55.3341,97.7868
RU15,geonames2d,15,postalcode,57.6139,41.803
RU23,geonames2d,23,postalcode,54.8764,25.8261
RU35,geonames2d,35,postalcode,45.6205,41.3139
RU18,geonames2d,18,postalcode,60.3,31.8184
RU68,geonames2d,68,postalcode,54.0566,132.0521
RU61,geonames2d,61,postalcode,58.0707,52.6548
RU39,geonames2d,39,postalcode,52.5481,40.6433
RU43,geonames2d,43,postalcode,54.0693,46.2804
RU14,geonames2d,14,postalcode,55.6044,37.7657
RU10,geonames2d,10,postalcode,55.7522,37.6156
RU11,geonames2d,11,postalcode,55.7521,37.6152
RU12,geonames2d,12,postalcode,55.7522,37.6156
RU13,geonames2d,13,postalcode,55.7858,37.6256
RU60,geonames2d,60,postalcode,55.828,44.2678
RU17,geonames2d,17,postalcode,57.3839,34.7462
RU63,geonames2d,63,postalcode,55.6128,81.4444
RU44,geonames2d,44,postalcode,53.2618,47.4022
RU69,geonames2d,69,postalcode,45.1699,134.059
RU34,geonames2d,34,postalcode,48.0236,40.949
RU19,geonames2d,19,postalcode,59.9238,30.1728
RU21,geonames2d,21,postalcode,54.948,33.6334
RU62,geonames2d,62,postalcode,58.2703,64.6856
RU40,geonames2d,40,postalcode,49.8228,43.8141
SE18,geonames2d,18,postalcode,59.4368,18.1281
SE13,geonames2d,13,postalcode,59.2645,18.2622
SE17,geonames2d,17,postalcode,59.3488,17.9705
SE12,geonames2d,12,postalcode,59.2972,18.0342
SE14,geonames2d,14,postalcode,59.178,17.919
SE15,geonames2d,15,postalcode,59.1726,17.586
SE10,geonames2d,10,postalcode,59.3327,18.0647
SE11,geonames2d,11,postalcode,59.3326,18.0649
SE16,geonames2d,16,postalcode,59.3446,17.8301
SE76,geonames2d,76,postalcode,59.8264,18.6429
SE19,geonames2d,19,postalcode,59.5153,17.8669
SE89,geonames2d,89,postalcode,63.3067,18.5961
SE91,geonames2d,91,postalcode,64.081,18.8764
SE92,geonames2d,92,postalcode,64.694,18.5379
SE93,geonames2d,93,postalcode,64.9326,20.3681
SE83,geonames2d,83,postalcode,63.3068,14.6821
SE90,geonames2d,90,postalcode,63.8282,20.2601
SE96,geonames2d,96,postalcode,66.0482,21.1538
SE98,geonames2d,98,postalcode,67.4809,20.9875
SE95,geonames2d,95,postalcode,65.9681,23.1396
SE94,geonames2d,94,postalcode,65.4034,21.3209
SE97,geonames2d,97,postalcode,65.5842,22.1546
SE74,geonames2d,74,postalcode,59.841,17.5383
SE81,geonames2d,81,postalcode,60.598,16.9374
SE75,geonames2d,75,postalcode,59.8585,17.6454
SE64,geonames2d,64,postalcode,59.1562,16.6398
SE61,geonames2d,61,postalcode,58.6473,16.5609
SE63,geonames2d,63,postalcode,59.3639,16.5046
SE59,geonames2d,59,postalcode,58.169,15.5892
SE57,geonames2d,57,postalcode,57.5624,15.2832
SE58,geonames2d,58,postalcode,58.4167,15.6167
SE60,geonames2d,60,postalcode,58.5942,16.1826
SE33,geonames2d,33,postalcode,57.2385,13.7561
SE56,geonames2d,56,postalcode,57.7778,14.1434
SE55,geonames2d,55,postalcode,57.7815,14.1562
SE36,geonames2d,36,postalcode,56.7146,15.2194
SE34,geonames2d,34,postalcode,56.7785,14.1981
SE28,geonames2d,28,postalcode,56.2641,13.704
SE35,geonames2d,35,postalcode,56.8729,14.8068
SE38,geonames2d,38,postalcode,56.746,16.2433
SE39,geonames2d,39,postalcode,56.6616,16.3616
SE62,geonames2d,62,postalcode,57.5298,18.4432
SE29,geonames2d,29,postalcode,56.0477,14.3185
SE37,geonames2d,37,postalcode,56.1917,15.2733
SE26,geonames2d,26,postalcode,56.1381,12.8685
SE24,geonames2d,24,postalcode,55.7856,13.2961
SE23,geonames2d,23,postalcode,55.5056,13.094
SE27,geonames2d,27,postalcode,55.5197,13.9026
SE25,geonames2d,25,postalcode,56.0431,12.6975
SE20,geonames2d,20,postalcode,55.6057,13.0002
SE21,geonames2d,21,postalcode,55.5974,12.9936
SE22,geonames2d,22,postalcode,55.7028,13.1927
SE31,geonames2d,31,postalcode,56.7997,12.864
SE30,geonames2d,30,postalcode,56.676,12.8566
SE43,geonames2d,43,postalcode,57.5393,12.0868
SE51,geonames2d,51,postalcode,57.5808,12.9346
SE42,geonames2d,42,postalcode,57.6766,11.9582
SE44,geonames2d,44,postalcode,57.9158,12.2109
SE47,geonames2d,47,postalcode,58.0913,11.6135
SE45,geonames2d,45,postalcode,58.4909,11.5874
SE66,geonames2d,66,postalcode,59.2353,12.9225
SE46,geonames2d,46,postalcode,58.3201,12.3819
SE54,geonames2d,54,postalcode,58.5503,14.0422
SE52,geonames2d,52,postalcode,58.0355,13.5054
SE53,geonames2d,53,postalcode,58.4311,13.2378
SE40,geonames2d,40,postalcode,57.7072,11.9668
SE41,geonames2d,41,postalcode,57.7072,11.9668
SE50,geonames2d,50,postalcode,57.7227,12.941
SE67,geonames2d,67,postalcode,59.6294,12.4045
SE68,geonames2d,68,postalcode,59.7528,13.6809
SE65,geonames2d,65,postalcode,59.38,13.5059
SE71,geonames2d,71,postalcode,59.5386,15.056
SE69,geonames2d,69,postalcode,59.1274,14.8052
SE77,geonames2d,77,postalcode,60.1719,15.6483
SE70,geonames2d,70,postalcode,59.27,15.2147
SE73,geonames2d,73,postalcode,59.6992,16.0692
SE72,geonames2d,72,postalcode,59.6162,16.5528
SE78,geonames2d,78,postalcode,60.5231,15.08
SE79,geonames2d,79,postalcode,60.8085,15.0982
SE82,geonames2d,82,postalcode,61.5147,16.5987
SE80,geonames2d,80,postalcode,60.6745,17.1417
SE84,geonames2d,84,postalcode,62.4378,14.8627
SE86,geonames2d,86,postalcode,62.4132,17.2954
SE87,geonames2d,87,postalcode,62.7931,17.8799
SE85,geonames2d,85,postalcode,62.3913,17.3063
SE88,geonames2d,88,postalcode,63.2233,17.1427
SI10,geonames2d,10,postalcode,46.0511,14.5051
SI12,geonames2d,12,postalcode,46.0994,14.6939
SI13,geonames2d,13,postalcode,45.8311,14.5316
SI14,geonames2d,14,postalcode,46.1201,15.0626
SI15,geonames2d,15,postalcode,46.0511,14.5051
SI16,geonames2d,16,postalcode,46.0511,14.5051
SI20,geonames2d,20,postalcode,46.5547,15.6467
SI22,geonames2d,22,postalcode,46.496,15.8805
SI23,geonames2d,23,postalcode,46.4877,15.3805
SI25,geonames2d,25,postalcode,46.5547,15.6467
SI26,geonames2d,26,postalcode,46.5547,15.6467
SI30,geonames2d,30,postalcode,45.5916,14.1546
SI32,geonames2d,32,postalcode,46.2128,15.4198
SI33,geonames2d,33,postalcode,46.3069,14.9903
SI35,geonames2d,35,postalcode,46.295,15.1853
SI36,geonames2d,36,postalcode,46.2309,15.2604
SI40,geonames2d,40,postalcode,46.2389,14.3556
SI42,geonames2d,42,postalcode,46.3043,14.1812
SI45,geonames2d,45,postalcode,46.2558,14.3364
SI46,geonames2d,46,postalcode,46.2389,14.3556
SI50,geonames2d,50,postalcode,45.9505,13.6431
SI52,geonames2d,52,postalcode,46.0308,13.7526
SI56,geonames2d,56,postalcode,45.956,13.6484
SI60,geonames2d,60,postalcode,45.5505,13.7348
SI62,geonames2d,62,postalcode,45.6321,14.0067
SI63,geonames2d,63,postalcode,45.4955,13.6077
SI65,geonames2d,65,postalcode,45.5469,13.7294
SI66,geonames2d,66,postalcode,45.5469,13.7294
SI80,geonames2d,80,postalcode,45.8329,15.1948
SI82,geonames2d,82,postalcode,45.9475,15.3621
SI83,geonames2d,83,postalcode,45.6882,15.1637
SI85,geonames2d,85,postalcode,45.804,15.1689
SI86,geonames2d,86,postalcode,45.804,15.1689
SI90,geonames2d,90,postalcode,46.6599,16.1636
SI92,geonames2d,92,postalcode,46.6797,16.1781
SI95,geonames2d,95,postalcode,46.6523,16.1021
SI96,geonames2d,96,postalcode,46.6625,16.1664
SJ91,geonames2d,91,postalcode,77.4792,16.904
SJ80,geonames2d,80,postalcode,70.9498,-8.638
SK97,geonames2d,97,postalcode,48.8348,19.2682
SK96,geonames2d,96,postalcode,48.4712,19.0147
SK98,geonames2d,98,postalcode,48.4124,19.9129
SK04,geonames2d,04,postalcode,48.6748,20.9065
SK05,geonames2d,05,postalcode,49.0164,20.5146
SK99,geonames2d,99,postalcode,48.1929,19.3282
SK82,geonames2d,82,postalcode,48.1456,17.1272
SK83,geonames2d,83,postalcode,48.152,17.1134
SK84,geonames2d,84,postalcode,48.1619,17.0861
SK85,geonames2d,85,postalcode,48.1237,17.1181
SK90,geonames2d,90,postalcode,48.4924,17.2726
SK92,geonames2d,92,postalcode,48.2933,17.7484
SK81,geonames2d,81,postalcode,48.1482,17.1067
SK07,geonames2d,07,postalcode,48.6318,21.9253
SK93,geonames2d,93,postalcode,48.0872,18.1704
SK94,geonames2d,94,postalcode,47.9415,18.2227
SK95,geonames2d,95,postalcode,48.4308,18.1521
SK08,geonames2d,08,postalcode,49.1286,21.2339
SK06,geonames2d,06,postalcode,49.1384,21.5199
SK09,geonames2d,09,postalcode,49.1309,21.6511
SK91,geonames2d,91,postalcode,48.6813,17.7574
SK01,geonames2d,01,postalcode,49.1783,18.5056
SK02,geonames2d,02,postalcode,49.3226,18.9241
SK03,geonames2d,03,postalcode,49.034,19.2473
SM47,geonames2d,47,postalcode,43.941,12.4613
TH10,geonames2d,10,postalcode,13.7742,100.5187
TH11,geonames2d,11,postalcode,13.89,100.4333
TH12,geonames2d,12,postalcode,14.0433,100.64
TH13,geonames2d,13,postalcode,14.3731,100.5654
TH14,geonames2d,14,postalcode,14.594,100.425
TH15,geonames2d,15,postalcode,15.0612,100.7799
TH16,geonames2d,16,postalcode,14.8708,100.375
TH17,geonames2d,17,postalcode,15.1493,100.0742
TH18,geonames2d,18,postalcode,14.5503,100.9008
TH20,geonames2d,20,postalcode,13.1687,101.1336
TH21,geonames2d,21,postalcode,12.8057,101.374
TH22,geonames2d,22,postalcode,12.6658,102.0933
TH23,geonames2d,23,postalcode,12.2065,102.557
TH24,geonames2d,24,postalcode,13.6886,101.2318
TH25,geonames2d,25,postalcode,13.9896,101.5048
TH26,geonames2d,26,postalcode,14.2093,101.1776
TH27,geonames2d,27,postalcode,13.8084,102.6195
TH30,geonames2d,30,postalcode,15.0701,102.2609
TH31,geonames2d,31,postalcode,14.8064,102.7453
TH33,geonames2d,33,postalcode,15.0019,104.3311
TH34,geonames2d,34,postalcode,14.8771,104.1502
TH35,geonames2d,35,postalcode,15.678,104.2892
TH36,geonames2d,36,postalcode,15.9416,101.9402
TH37,geonames2d,37,postalcode,15.7088,104.6493
TH39,geonames2d,39,postalcode,17.0515,102.3646
TH40,geonames2d,40,postalcode,16.2965,102.6315
TH41,geonames2d,41,postalcode,17.1336,102.9675
TH42,geonames2d,42,postalcode,17.4479,101.6229
TH43,geonames2d,43,postalcode,18.0577,103.3083
TH44,geonames2d,44,postalcode,15.9965,103.1746
TH45,geonames2d,45,postalcode,15.8883,103.671
TH46,geonames2d,46,postalcode,16.5853,103.6431
TH47,geonames2d,47,postalcode,17.3786,103.7995
TH48,geonames2d,48,postalcode,17.4039,104.4474
TH49,geonames2d,49,postalcode,16.4792,104.6583
TH50,geonames2d,50,postalcode,18.7911,98.8928
TH51,geonames2d,51,postalcode,18.3033,98.9748
TH52,geonames2d,52,postalcode,18.271,99.4668
TH53,geonames2d,53,postalcode,17.7168,100.5445
TH54,geonames2d,54,postalcode,18.1371,100.0322
TH55,geonames2d,55,postalcode,18.9178,100.8189
TH56,geonames2d,56,postalcode,19.3154,100.1812
TH57,geonames2d,57,postalcode,19.9189,99.9304
TH58,geonames2d,58,postalcode,18.5979,98.0448
TH60,geonames2d,60,postalcode,15.6796,100.1478
TH61,geonames2d,61,postalcode,15.3892,99.8353
TH62,geonames2d,62,postalcode,16.3,99.6833
TH63,geonames2d,63,postalcode,16.8627,98.8098
TH64,geonames2d,64,postalcode,17.1772,99.8064
TH65,geonames2d,65,postalcode,16.887,100.415
TH66,geonames2d,66,postalcode,16.2922,100.3335
TH70,geonames2d,70,postalcode,13.5786,99.7437
TH71,geonames2d,71,postalcode,14.2516,99.4121
TH72,geonames2d,72,postalcode,14.576,100.0286
TH73,geonames2d,73,postalcode,13.8667,100.1917
TH74,geonames2d,74,postalcode,13.5889,100.2222
TH75,geonames2d,75,postalcode,13.4278,99.9611
TH67,geonames2d,67,postalcode,16.2626,101.1149
TH76,geonames2d,76,postalcode,13.0694,100.0528
TH77,geonames2d,77,postalcode,11.7972,99.7278
TH80,geonames2d,80,postalcode,8.9115,99.8833
TH84,geonames2d,84,postalcode,9.1406,99.3806
TH81,geonames2d,81,postalcode,8.119,99.0214
TH82,geonames2d,82,postalcode,8.6944,98.4389
TH83,geonames2d,83,postalcode,7.95,98.3583
TH85,geonames2d,85,postalcode,9.93,98.6767
TH86,geonames2d,86,postalcode,10.1905,99.0905
TH90,geonames2d,90,postalcode,6.9672,100.7199
TH91,geonames2d,91,postalcode,6.9203,99.8917
TH92,geonames2d,92,postalcode,7.5314,99.5778
TH93,geonames2d,93,postalcode,7.5161,100.0545
TH94,geonames2d,94,postalcode,6.7491,101.3948
TH95,geonames2d,95,postalcode,6.3443,101.22
TH96,geonames2d,96,postalcode,6.2011,101.7906
TR02,geonames2d,02,postalcode,37.7938,38.3542
TR03,geonames2d,03,postalcode,38.6068,30.5445
TR04,geonames2d,04,postalcode,39.5402,43.1714
TR05,geonames2d,05,postalcode,40.7048,35.7249
TR07,geonames2d,07,postalcode,36.7494,31.0259
TR08,geonames2d,08,postalcode,41.2005,41.8324
TR09,geonames2d,09,postalcode,37.758,28.0351
TR10,geonames2d,10,postalcode,39.6954,27.8725
TR11,geonames2d,11,postalcode,40.1163,30.1344
TR12,geonames2d,12,postalcode,39.0361,40.5712
TR13,geonames2d,13,postalcode,38.4655,42.2858
TR14,geonames2d,14,postalcode,40.6385,31.6876
TR15,geonames2d,15,postalcode,37.4416,30.0847
TR16,geonames2d,16,postalcode,40.1194,29.1331
TR17,geonames2d,17,postalcode,39.9943,26.772
TR19,geonames2d,19,postalcode,40.5361,34.713
TR20,geonames2d,20,postalcode,37.7781,29.261
TR21,geonames2d,21,postalcode,38.1071,40.3122
TR22,geonames2d,22,postalcode,41.2575,26.6085
TR23,geonames2d,23,postalcode,38.6524,39.4227
TR24,geonames2d,24,postalcode,39.6429,39.3777
TR25,geonames2d,25,postalcode,40.0691,41.5924
TR26,geonames2d,26,postalcode,39.614,30.9827
TR28,geonames2d,28,postalcode,40.7232,38.6085
TR31,geonames2d,31,postalcode,36.411,36.297
TR33,geonames2d,33,postalcode,36.7003,33.9622
TR32,geonames2d,32,postalcode,37.9054,30.9768
TR34,geonames2d,34,postalcode,41.0346,28.9743
TR35,geonames2d,35,postalcode,38.4798,27.4266
TR37,geonames2d,37,postalcode,41.5789,33.6701
TR38,geonames2d,38,postalcode,38.6275,35.8736
TR39,geonames2d,39,postalcode,41.6265,27.3759
TR40,geonames2d,40,postalcode,39.3428,34.1083
TR41,geonames2d,41,postalcode,40.8814,29.9255
TR43,geonames2d,43,postalcode,39.295,29.5484
TR44,geonames2d,44,postalcode,38.5148,38.1562
TR45,geonames2d,45,postalcode,38.7656,28.1957
TR46,geonames2d,46,postalcode,37.8804,36.9367
TR48,geonames2d,48,postalcode,37.0875,28.1761
TR49,geonames2d,49,postalcode,39.0108,41.7329
TR50,geonames2d,50,postalcode,38.8091,34.695
TR52,geonames2d,52,postalcode,40.8614,37.5266
TR53,geonames2d,53,postalcode,41.0141,40.7495
TR54,geonames2d,54,postalcode,40.7592,30.5002
TR55,geonames2d,55,postalcode,41.2038,36.0821
TR57,geonames2d,57,postalcode,41.6563,34.8466
TR58,geonames2d,58,postalcode,39.6545,37.3875
TR59,geonames2d,59,postalcode,41.0184,27.2851
TR60,geonames2d,60,postalcode,40.3914,36.6094
TR61,geonames2d,61,postalcode,40.8879,39.769
TR62,geonames2d,62,postalcode,39.1495,39.4926
TR63,geonames2d,63,postalcode,37.187,38.9641
TR64,geonames2d,64,postalcode,38.5678,29.3771
TR65,geonames2d,65,postalcode,38.624,43.6477
TR66,geonames2d,66,postalcode,39.7297,35.2239
TR06,geonames2d,06,postalcode,39.9376,32.5567
TR29,geonames2d,29,postalcode,40.2937,39.4041
TR30,geonames2d,30,postalcode,37.4799,43.9224
TR42,geonames2d,42,postalcode,37.9362,32.468
TR47,geonames2d,47,postalcode,37.3722,40.8795
TR51,geonames2d,51,postalcode,37.9,34.6779
TR56,geonames2d,56,postalcode,37.9277,42.0129
TR68,geonames2d,68,postalcode,38.5312,34.0199
TR72,geonames2d,72,postalcode,37.9621,41.3744
TR69,geonames2d,69,postalcode,40.2778,40.1389
TR70,geonames2d,70,postalcode,37.0492,33.1661
TR71,geonames2d,71,postalcode,39.8631,33.7285
TR73,geonames2d,73,postalcode,37.4158,42.3294
TR01,geonames2d,01,postalcode,37.3329,35.6164
TR18,geonames2d,18,postalcode,40.743,33.4383
TR27,geonames2d,27,postalcode,37.1109,37.3685
TR36,geonames2d,36,postalcode,40.4849,43.1034
TR67,geonames2d,67,postalcode,41.2579,31.8346
TR75,geonames2d,75,postalcode,41.1494,42.7879
TR74,geonames2d,74,postalcode,41.5645,32.4857
TR76,geonames2d,76,postalcode,39.9536,43.77
TR78,geonames2d,78,postalcode,41.1765,32.7353
TR79,geonames2d,79,postalcode,36.8213,37.1207
TR80,geonames2d,80,postalcode,37.285,36.2157
TR77,geonames2d,77,postalcode,40.8209,30.6442
TR81,geonames2d,81,postalcode,40.8833,31.1827
TR99,geonames2d,99,postalcode,39.677,36.7362
UA18,geonames2d,18,postalcode,49.4285,32.0621
UA19,geonames2d,19,postalcode,49.6126,31.7489
UA20,geonames2d,20,postalcode,49.2062,31.6632
UA14,geonames2d,14,postalcode,51.52,31.2648
UA15,geonames2d,15,postalcode,51.7574,31.6459
UA16,geonames2d,16,postalcode,51.3386,32.5312
UA17,geonames2d,17,postalcode,50.7483,31.9785
UA58,geonames2d,58,postalcode,48.2915,25.9403
UA59,geonames2d,59,postalcode,48.9374,26.0289
UA60,geonames2d,60,postalcode,48.7072,26.906
UA49,geonames2d,49,postalcode,48.4834,34.9555
UA50,geonames2d,50,postalcode,48.0668,33.4909
UA51,geonames2d,51,postalcode,48.7356,35.0162
UA52,geonames2d,52,postalcode,48.3133,35.1292
UA53,geonames2d,53,postalcode,47.9037,34.812
UA84,geonames2d,84,postalcode,48.7093,37.4614
UA85,geonames2d,85,postalcode,48.1231,37.1838
UA86,geonames2d,86,postalcode,48.2076,37.6507
UA87,geonames2d,87,postalcode,47.2143,37.4495
UA76,geonames2d,76,postalcode,49.025,25.1978
UA77,geonames2d,77,postalcode,49.1795,24.4584
UA78,geonames2d,78,postalcode,48.7692,25.1753
UA61,geonames2d,61,postalcode,49.9808,36.2527
UA62,geonames2d,62,postalcode,50.0896,36.3636
UA63,geonames2d,63,postalcode,49.6349,36.2678
UA64,geonames2d,64,postalcode,49.1331,36.3355
UA73,geonames2d,73,postalcode,46.6976,32.7073
UA74,geonames2d,74,postalcode,47.0516,33.6375
UA75,geonames2d,75,postalcode,46.4548,33.5606
UA29,geonames2d,29,postalcode,49.4216,26.9965
UA30,geonames2d,30,postalcode,50.1598,27.2413
UA31,geonames2d,31,postalcode,49.7325,27.8487
UA32,geonames2d,32,postalcode,49.541,27.9733
UA25,geonames2d,25,postalcode,48.4203,32.1286
UA26,geonames2d,26,postalcode,48.8535,32.2615
UA27,geonames2d,27,postalcode,48.6793,33.2061
UA28,geonames2d,28,postalcode,48.5871,33.4638
UA03,geonames2d,03,postalcode,50.4547,30.5238
UA07,geonames2d,07,postalcode,50.5263,30.6535
UA08,geonames2d,08,postalcode,50.1138,30.8413
UA09,geonames2d,09,postalcode,49.8065,30.3094
UA01,geonames2d,01,postalcode,50.4547,30.5238
UA02,geonames2d,02,postalcode,50.4547,30.5238
UA04,geonames2d,04,postalcode,50.4547,30.5238
UA91,geonames2d,91,postalcode,48.7396,39.2323
UA92,geonames2d,92,postalcode,49.4417,38.706
UA93,geonames2d,93,postalcode,48.863,38.7453
UA79,geonames2d,79,postalcode,49.8391,24.0219
UA80,geonames2d,80,postalcode,50.1344,24.8802
UA81,geonames2d,81,postalcode,49.6985,24.0065
UA82,geonames2d,82,postalcode,49.2678,23.3094
UA54,geonames2d,54,postalcode,46.9659,31.9974
UA55,geonames2d,55,postalcode,47.8102,31.6266
UA56,geonames2d,56,postalcode,47.5388,32.2884
UA57,geonames2d,57,postalcode,47.0124,32.3813
UA65,geonames2d,65,postalcode,46.4809,30.716
UA66,geonames2d,66,postalcode,47.7401,30.0285
UA67,geonames2d,67,postalcode,46.8919,30.5796
UA68,geonames2d,68,postalcode,45.8418,29.219
UA36,geonames2d,36,postalcode,49.5937,34.5407
UA37,geonames2d,37,postalcode,50.1138,33.2253
UA38,geonames2d,38,postalcode,49.7581,34.237
UA39,geonames2d,39,postalcode,49.2696,34.0108
UA33,geonames2d,33,postalcode,50.6231,26.2274
UA34,geonames2d,34,postalcode,51.3035,26.5562
UA35,geonames2d,35,postalcode,50.5426,26.1173
UA40,geonames2d,40,postalcode,50.9414,34.7974
UA41,geonames2d,41,postalcode,51.4763,33.817
UA42,geonames2d,42,postalcode,50.6812,34.3749
UA46,geonames2d,46,postalcode,49.5558,25.6049
UA47,geonames2d,47,postalcode,49.2281,25.1667
UA48,geonames2d,48,postalcode,49.7682,27.1326
UA21,geonames2d,21,postalcode,49.2328,28.481
UA22,geonames2d,22,postalcode,49.3601,28.9055
UA23,geonames2d,23,postalcode,49.1173,28.6202
UA24,geonames2d,24,postalcode,48.667,29.0168
UA43,geonames2d,43,postalcode,50.7593,25.3424
UA44,geonames2d,44,postalcode,51.3265,24.679
UA45,geonames2d,45,postalcode,50.8036,25.0193
UA88,geonames2d,88,postalcode,48.6167,22.3
UA89,geonames2d,89,postalcode,48.6516,22.7313
UA90,geonames2d,90,postalcode,48.1918,22.9868
UA69,geonames2d,69,postalcode,46.9599,35.0432
UA70,geonames2d,70,postalcode,47.7837,35.8317
UA71,geonames2d,71,postalcode,47.2663,35.8635
UA72,geonames2d,72,postalcode,46.9175,35.3886
UA10,geonames2d,10,postalcode,50.8715,28.53
UA11,geonames2d,11,postalcode,50.9601,28.3843
UA12,geonames2d,12,postalcode,50.4189,28.6628
UA13,geonames2d,13,postalcode,49.9674,28.5568
US99,geonames2d,99,postalcode,56.1516,-139.471
US36,geonames2d,36,postalcode,31.8527,-86.7463
US35,geonames2d,35,postalcode,33.9101,-86.8813
US72,geonames2d,72,postalcode,35.4841,-92.2364
US71,geonames2d,71,postalcode,32.6993,-92.8425
US85,geonames2d,85,postalcode,33.1004,-111.5566
US86,geonames2d,86,postalcode,35.3511,-111.9547
US94,geonames2d,94,postalcode,37.9547,-122.1669
US95,geonames2d,95,postalcode,38.5052,-121.758
US96,geonames2d,96,postalcode,28.1564,-59.7906
US93,geonames2d,93,postalcode,35.803,-119.565
US92,geonames2d,92,postalcode,33.6055,-117.1798
US90,geonames2d,90,postalcode,33.9372,-118.2585
US91,geonames2d,91,postalcode,33.9776,-118.0684
US80,geonames2d,80,postalcode,39.7367,-104.8119
US81,geonames2d,81,postalcode,38.344,-106.3002
US06,geonames2d,06,postalcode,41.5624,-72.8031
US20,geonames2d,20,postalcode,38.8699,-77.0545
US56,geonames2d,56,postalcode,45.7405,-94.9349
US19,geonames2d,19,postalcode,39.9111,-75.451
US32,geonames2d,32,postalcode,29.5713,-82.7018
US33,geonames2d,33,postalcode,26.8767,-81.2369
US34,geonames2d,34,postalcode,24.9906,-81.1455
US31,geonames2d,31,postalcode,32.0613,-83.2609
US39,geonames2d,39,postalcode,31.9562,-89.1437
US30,geonames2d,30,postalcode,33.7976,-83.9402
US50,geonames2d,50,postalcode,42.0981,-93.5768
US52,geonames2d,52,postalcode,41.8166,-91.5276
US51,geonames2d,51,postalcode,42.1675,-95.5877
US83,geonames2d,83,postalcode,44.4055,-114.5155
US62,geonames2d,62,postalcode,38.919,-89.4502
US61,geonames2d,61,postalcode,40.9752,-89.3767
US60,geonames2d,60,postalcode,41.7461,-87.9875
US46,geonames2d,46,postalcode,40.706,-86.0389
US47,geonames2d,47,postalcode,39.1603,-86.5006
US66,geonames2d,66,postalcode,38.8704,-95.7007
US67,geonames2d,67,postalcode,38.1876,-98.4786
US42,geonames2d,42,postalcode,37.1563,-86.8459
US40,geonames2d,40,postalcode,37.7559,-84.7315
US41,geonames2d,41,postalcode,37.8591,-83.211
US70,geonames2d,70,postalcode,30.2109,-91.0921
US02,geonames2d,02,postalcode,41.9691,-71.0296
US01,geonames2d,01,postalcode,42.3957,-72.0063
US05,geonames2d,05,postalcode,44.0255,-72.6402
US21,geonames2d,21,postalcode,39.1942,-76.7094
US04,geonames2d,04,postalcode,44.5995,-69.4009
US03,geonames2d,03,postalcode,43.3819,-71.5334
US48,geonames2d,48,postalcode,42.9272,-83.6519
US49,geonames2d,49,postalcode,43.9789,-85.8593
US55,geonames2d,55,postalcode,45.2896,-93.0355
US63,geonames2d,63,postalcode,38.3058,-90.7048
US64,geonames2d,64,postalcode,39.0726,-94.3101
US65,geonames2d,65,postalcode,37.8531,-92.6574
US38,geonames2d,38,postalcode,35.0209,-88.9517
US59,geonames2d,59,postalcode,46.9361,-110.2946
US27,geonames2d,27,postalcode,35.9699,-78.5981
US28,geonames2d,28,postalcode,35.2522,-80.2824
US58,geonames2d,58,postalcode,47.5125,-99.6207
US68,geonames2d,68,postalcode,41.1363,-97.3514
US69,geonames2d,69,postalcode,41.4357,-101.7131
US08,geonames2d,08,postalcode,39.9634,-74.7499
US07,geonames2d,07,postalcode,40.783,-74.2967
US87,geonames2d,87,postalcode,35.4685,-106.6314
US88,geonames2d,88,postalcode,32.8448,-105.7715
US89,geonames2d,89,postalcode,37.8415,-116.6535
US12,geonames2d,12,postalcode,42.7061,-74.0089
US14,geonames2d,14,postalcode,42.7043,-78.0589
US10,geonames2d,10,postalcode,40.9544,-73.9649
US13,geonames2d,13,postalcode,43.1442,-75.6695
US11,geonames2d,11,postalcode,40.7582,-73.4811
US00,geonames2d,00,postalcode,40.8154,-73.0451
US45,geonames2d,45,postalcode,39.6447,-83.8008
US44,geonames2d,44,postalcode,41.1141,-81.576
US43,geonames2d,43,postalcode,40.4807,-82.7228
US74,geonames2d,74,postalcode,35.6034,-95.8364
US73,geonames2d,73,postalcode,35.3911,-98.2226
US97,geonames2d,97,postalcode,44.5237,-122.0839
US17,geonames2d,17,postalcode,40.4029,-76.8604
US15,geonames2d,15,postalcode,40.3615,-79.5767
US16,geonames2d,16,postalcode,41.2274,-79.0689
US18,geonames2d,18,postalcode,41.0499,-75.5866
US29,geonames2d,29,postalcode,33.9594,-81.0534
US57,geonames2d,57,postalcode,44.2998,-99.1218
US37,geonames2d,37,postalcode,35.9278,-85.1488
US75,geonames2d,75,postalcode,32.6196,-95.8423
US79,geonames2d,79,postalcode,33.2112,-102.4302
US78,geonames2d,78,postalcode,28.9743,-98.1659
US76,geonames2d,76,postalcode,32.2554,-97.9402
US77,geonames2d,77,postalcode,29.8341,-95.5083
US84,geonames2d,84,postalcode,39.9082,-111.8309
US23,geonames2d,23,postalcode,37.2817,-76.9299
US22,geonames2d,22,postalcode,38.4958,-77.6812
US24,geonames2d,24,postalcode,37.2874,-80.602
US98,geonames2d,98,postalcode,47.327,-122.1973
US53,geonames2d,53,postalcode,43.1149,-88.9021
US54,geonames2d,54,postalcode,44.8896,-90.031
US26,geonames2d,26,postalcode,39.187,-80.2577
US25,geonames2d,25,postalcode,38.236,-81.4222
US82,geonames2d,82,postalcode,42.8565,-106.769
US09,geonames2d,09,postalcode,42.3239,16.2141
UY40,geonames2d,40,postalcode,-31.762,-55.7738
UY50,geonames2d,50,postalcode,-31.3096,-57.1725
UY55,geonames2d,55,postalcode,-30.5214,-57.0146
UY15,geonames2d,15,postalcode,-34.535,-56.0666
UY30,geonames2d,30,postalcode,-34.0068,-54.9736
UY90,geonames2d,90,postalcode,-34.4367,-56.3232
UY91,geonames2d,91,postalcode,-34.4247,-55.9453
UY96,geonames2d,96,postalcode,-34.1105,-55.7085
UY35,geonames2d,35,postalcode,-33.1128,-55.0966
UY36,geonames2d,36,postalcode,-32.5563,-54.5437
UY37,geonames2d,37,postalcode,-32.8255,-54.3418
UY45,geonames2d,45,postalcode,-32.0989,-55.8414
UY97,geonames2d,97,postalcode,-33.0983,-56.0159
UY70,geonames2d,70,postalcode,-34.2157,-57.5878
UY75,geonames2d,75,postalcode,-33.5781,-57.4851
UY65,geonames2d,65,postalcode,-32.895,-57.742
UY98,geonames2d,98,postalcode,-33.4201,-55.4206
UY85,geonames2d,85,postalcode,-33.5592,-56.904
UY94,geonames2d,94,postalcode,-33.8938,-56.4632
UY34,geonames2d,34,postalcode,-33.2823,-55.2076
UY95,geonames2d,95,postalcode,-34.2677,-56.3614
UY20,geonames2d,20,postalcode,-34.6681,-54.9942
UY27,geonames2d,27,postalcode,-34.2104,-54.1848
UY11,geonames2d,11,postalcode,-34.8862,-56.1661
UY12,geonames2d,12,postalcode,-34.8139,-56.1566
UY13,geonames2d,13,postalcode,-34.85,-56.1167
UY60,geonames2d,60,postalcode,-32.2488,-57.508
UY61,geonames2d,61,postalcode,-32.6791,-58.0541
UY41,geonames2d,41,postalcode,-31.9869,-55.0864
UY80,geonames2d,80,postalcode,-34.3285,-56.4231
UY31,geonames2d,31,postalcode,-33.0,-53.9056
UY33,geonames2d,33,postalcode,-33.1159,-54.3391
VA00,geonames2d,00,postalcode,41.9024,12.4533
VI00,geonames2d,00,postalcode,17.9937,-64.8202
WF98,geonames2d,98,postalcode,-13.9574,-177.502
YT97,geonames2d,97,postalcode,-12.8089,45.1611
ZA00,geonames2d,00,postalcode,-25.7673,28.2496
ZA01,geonames2d,01,postalcode,-25.6992,28.2005
ZA02,geonames2d,02,postalcode,-25.6227,27.8649
ZA03,geonames2d,03,postalcode,-25.3168,27.2312
ZA04,geonames2d,04,postalcode,-25.1448,28.6677
ZA05,geonames2d,05,postalcode,-24.5444,28.2158
ZA06,geonames2d,06,postalcode,-24.1628,29.0174
ZA07,geonames2d,07,postalcode,-23.7582,29.5128
ZA08,geonames2d,08,postalcode,-23.6344,30.3254
ZA09,geonames2d,09,postalcode,-23.0235,30.3173
ZA10,geonames2d,10,postalcode,-25.9101,29.0496
ZA11,geonames2d,11,postalcode,-25.3611,30.1899
ZA12,geonames2d,12,postalcode,-25.2372,31.0033
ZA13,geonames2d,13,postalcode,-24.9748,31.3191
ZA14,geonames2d,14,postalcode,-26.2801,28.2196
ZA15,geonames2d,15,postalcode,-26.22,28.3664
ZA16,geonames2d,16,postalcode,-26.0575,28.2102
ZA17,geonames2d,17,postalcode,-26.3997,27.7491
ZA18,geonames2d,18,postalcode,-26.2349,27.93
ZA19,geonames2d,19,postalcode,-26.6544,27.8807
ZA20,geonames2d,20,postalcode,-26.1837,28.0774
ZA21,geonames2d,21,postalcode,-26.1786,28.0733
ZA22,geonames2d,22,postalcode,-26.204,29.0561
ZA23,geonames2d,23,postalcode,-26.6716,30.1203
ZA24,geonames2d,24,postalcode,-26.9389,29.0635
ZA25,geonames2d,25,postalcode,-26.722,27.0423
ZA26,geonames2d,26,postalcode,-27.175,26.0232
ZA27,geonames2d,27,postalcode,-26.2044,25.7886
ZA28,geonames2d,28,postalcode,-25.502,26.1992
ZA29,geonames2d,29,postalcode,-27.8206,29.8794
ZA30,geonames2d,30,postalcode,-28.1828,30.3159
ZA31,geonames2d,31,postalcode,-27.9467,30.531
ZA32,geonames2d,32,postalcode,-29.6423,30.0199
ZA33,geonames2d,33,postalcode,-28.9531,29.7886
ZA35,geonames2d,35,postalcode,-29.0667,30.5833
ZA36,geonames2d,36,postalcode,-29.8902,30.6822
ZA37,geonames2d,37,postalcode,-29.4889,30.2481
ZA38,geonames2d,38,postalcode,-28.6863,31.5387
ZA39,geonames2d,39,postalcode,-27.9561,32.0733
ZA40,geonames2d,40,postalcode,-29.9288,30.4506
ZA41,geonames2d,41,postalcode,-29.4541,30.0204
ZA42,geonames2d,42,postalcode,-30.7109,30.358
ZA43,geonames2d,43,postalcode,-29.1638,30.5498
ZA44,geonames2d,44,postalcode,-29.3156,30.8791
ZA46,geonames2d,46,postalcode,-30.6141,29.8782
ZA47,geonames2d,47,postalcode,-30.614,28.6269
ZA48,geonames2d,48,postalcode,-31.11,29.6144
ZA49,geonames2d,49,postalcode,-32.4292,27.9469
ZA50,geonames2d,50,postalcode,-31.7095,28.4783
ZA51,geonames2d,51,postalcode,-31.389,28.904
ZA52,geonames2d,52,postalcode,-33.0244,27.9165
ZA53,geonames2d,53,postalcode,-32.0111,27.0793
ZA54,geonames2d,54,postalcode,-31.5951,27.4424
ZA55,geonames2d,55,postalcode,-31.4,26.3667
ZA56,geonames2d,56,postalcode,-32.9,27.319
ZA57,geonames2d,57,postalcode,-32.7665,26.6807
ZA58,geonames2d,58,postalcode,-32.5714,25.7679
ZA59,geonames2d,59,postalcode,-29.9519,26.4555
ZA60,geonames2d,60,postalcode,-33.9587,25.5747
ZA61,geonames2d,61,postalcode,-32.5383,26.8115
ZA62,geonames2d,62,postalcode,-33.6113,25.2981
ZA63,geonames2d,63,postalcode,-33.9053,25.043
ZA64,geonames2d,64,postalcode,-33.1143,23.7059
ZA65,geonames2d,65,postalcode,-34.0625,22.4866
ZA66,geonames2d,66,postalcode,-33.8286,22.0874
ZA67,geonames2d,67,postalcode,-33.9074,20.3741
ZA68,geonames2d,68,postalcode,-32.8559,20.0822
ZA69,geonames2d,69,postalcode,-32.4833,22.0567
ZA70,geonames2d,70,postalcode,-30.9454,24.7547
ZA71,geonames2d,71,postalcode,-34.0855,18.8113
ZA72,geonames2d,72,postalcode,-34.4167,19.6289
ZA73,geonames2d,73,postalcode,-33.0467,18.7589
ZA74,geonames2d,74,postalcode,-33.5304,18.7545
ZA75,geonames2d,75,postalcode,-32.8975,19.9143
ZA76,geonames2d,76,postalcode,-33.6414,19.444
ZA77,geonames2d,77,postalcode,-33.9204,18.5464
ZA78,geonames2d,78,postalcode,-33.9652,18.444
ZA79,geonames2d,79,postalcode,-33.9036,18.8745
ZA80,geonames2d,80,postalcode,-33.9176,18.415
ZA81,geonames2d,81,postalcode,-32.173,18.8246
ZA82,geonames2d,82,postalcode,-29.85,17.6605
ZA83,geonames2d,83,postalcode,-28.1455,25.1685
ZA84,geonames2d,84,postalcode,-27.4894,23.817
ZA85,geonames2d,85,postalcode,-27.7825,24.9654
ZA86,geonames2d,86,postalcode,-26.6609,24.4045
ZA87,geonames2d,87,postalcode,-29.1573,24.7125
ZA88,geonames2d,88,postalcode,-28.5456,21.0239
ZA89,geonames2d,89,postalcode,-29.9056,22.4305
ZA93,geonames2d,93,postalcode,-29.0129,26.0531
ZA94,geonames2d,94,postalcode,-27.9829,26.8196
ZA95,geonames2d,95,postalcode,-27.6278,26.3611
ZA96,geonames2d,96,postalcode,-27.5611,27.3375
ZA97,geonames2d,97,postalcode,-29.2469,27.414
ZA98,geonames2d,98,postalcode,-27.8104,28.8187
ZA99,geonames2d,99,postalcode,-29.8882,25.75
